Origin Time       2025/02/01 08:16:00
Lat.              33.667
Long.             130.927
Depth. (km)       8
Mag.              3.1
Station Code      FKO009
Station Lat.      33.4954
Station Long.     130.5164
Station Height(m) 34
Record Time       2025/02/01 08:17:09
Sampling Freq(Hz) 100Hz
Duration Time(s)  60
Dir.              N-S
Scale Factor      7845(gal)/8223790
Max. Acc. (gal)   2.427
Last Correction   2025/02/01 08:17:09
Memo.             
[...]
  -11406   -11416   -11445   -11443   -11415   -11395   -11383   -11388 
  -11412   -11427   -11425   -11419   -11407   -11381   -11379   -11416 
  -11441   -11431   -11426   -11411   -11387   -11414   -11454   -11412 
  -11358   -11384   -11454   -11491   -11441   -11369   -11353   -11379 
  -11422   -11452   -11434   -11391   -11365   -11380   -11421   -11452 
  -11460   -11433   -11395   -11379   -11375   -11406   -11453   -11453 
  -11422   -11408   -11408   -11399   -11379   -11379   -11422   -11469 
  -11465   -11412   -11385   -11412   -11437   -11406   -11356   -11369 
  -11423   -11442   -11438   -11434   -11412   -11379   -11373   -11403 
  -11425   -11433   -11431   -11426   -11426   -11400   -11369   -11396 
  -11433   -11437   -11438   -11429   -11399   -11380   -11391   -11415 
  -11412   -11396   -11411   -11425   -11433   -11435   -11400   -11395 
  -11429   -11415   -11399   -11410   -11403   -11407   -11429   -11438 
  -11416   -11385   -11403   -11422   -11400   -11412   -11423   -11403 
  -11421   -11422   -11389   -11403   -11415   -11402   -11404   -11412 
  -11421   -11426   -11434   -11435   -11394   -11376   -11422   -11429 
  -11416   -11438   -11431   -11402   -11389   -11388   -11399   -11415 
  -11434   -11439   -11403   -11380   -11414   -11442   -11423   -11404 
  -11408   -11408   -11406   -11414   -11404   -11388   -11407   -11438 
  -11433   -11418   -11416   -11410   -11415   -11426   -11404   -11392 
  -11408   -11403   -11394   -11415   -11438   -11439   -11426   -11414 
  -11398   -11383   -11406   -11423   -11402   -11410   -11430   -11412 
  -11402   -11415   -11435   -11434   -11398   -11383   -11394   -11396 
  -11416   -11437   -11430   -11421   -11407   -11388   -11400   -11419 
  -11419   -11415   -11410   -11410   -11416   -11422   -11425   -11418 
  -11410   -11406   -11389   -11389   -11415   -11429   -11431   -11429 
  -11399   -11379   -11394   -11415   -11435   -11446   -11433   -11407 
  -11392   -11395   -11402   -11404   -11416   -11421   -11408   -11402 
  -11407   -11426   -11439   -11422   -11411   -11418   -11408   -11389 
  -11389   -11415   -11434   -11419   -11407   -11421   -11421   -11404 
  -11418   -11434   -11394   -11360   -11407   -11446   -11418   -11412 
  -11437   -11411   -11381   -11392   -11403   -11419   -11433   -11416 
  -11419   -11441   -11421   -11389   -11402   -11414   -11404   -11415 
  -11433   -11415   -11396   -11400   -11388   -11385   -11426   -11446 
  -11438   -11434   -11408   -11372   -11388   -11425   -11419   -11407 
  -11423   -11437   -11422   -11410   -11399   -11376   -11381   -11430 
  -11458   -11433   -11404   -11391   -11392   -11425   -11429   -11373 
  -11360   -11416   -11446   -11438   -11430   -11411   -11403   -11430 
  -11435   -11399   -11391   -11418   -11415   -11402   -11408   -11403 
  -11399   -11430   -11433   -11387   -11380   -11418   -11423   -11411 
  -11438   -11453   -11408   -11379   -11400   -11403   -11399   -11427 
  -11438   -11429   -11422   -11394   -11383   -11412   -11410   -11389 
  -11407   -11426   -11435   -11442   -11423   -11381   -11372   -11419 
  -11473   -11462   -11395   -11342   -11353   -11416   -11465   -11454 
  -11416   -11387   -11376   -11385   -11403   -11429   -11442   -11426 
  -11410   -11400   -11388   -11402   -11430   -11437   -11423   -11402 
  -11406   -11426   -11414   -11396   -11389   -11373   -11402   -11468 
  -11472   -11416   -11367   -11348   -11398   -11483   -11493   -11391 
  -11271   -11296   -11476   -11588   -11503   -11348   -11281   -11357 
  -11492   -11531   -11431   -11323   -11326   -11400   -11475   -11487 
  -11426   -11389   -11398   -11373   -11357   -11408   -11450   -11456 
  -11448   -11398   -11345   -11384   -11472   -11481   -11388   -11322 
  -11379   -11476   -11475   -11372   -11304   -11375   -11537   -11605 
  -11461   -11260   -11237   -11372   -11503   -11549   -11480   -11353 
  -11298   -11352   -11423   -11445   -11442   -11438   -11406   -11391 
  -11418   -11431   -11430   -11415   -11377   -11379   -11429   -11439 
  -11423   -11418   -11406   -11388   -11392   -11415   -11422   -11410 
  -11412   -11429   -11425   -11392   -11391   -11434   -11438   -11410 
  -11415   -11427   -11408   -11399   -11403   -11394   -11398   -11431 
  -11442   -11408   -11381   -11388   -11400   -11418   -11437   -11421 
  -11402   -11407   -11414   -11425   -11426   -11412   -11402   -11391 
  -11394   -11423   -11443   -11433   -11415   -11410   -11411   -11408 
  -11391   -11392   -11431   -11433   -11380   -11364   -11406   -11452 
  -11469   -11450   -11391   -11346   -11377   -11439   -11453   -11426 
  -11394   -11362   -11380   -11442   -11457   -11431   -11415   -11376 
  -11349   -11410   -11480   -11456   -11383   -11360   -11391   -11435 
  -11446   -11415   -11395   -11403   -11412   -11419   -11425   -11414 
  -11408   -11423   -11431   -11411   -11377   -11365   -11387   -11421 
  -11461   -11477   -11431   -11356   -11333   -11387   -11462   -11487 
  -11442   -11381   -11348   -11376   -11439   -11450   -11412   -11395 
  -11404   -11412   -11421   -11438   -11431   -11400   -11387   -11404 
  -11433   -11431   -11385   -11361   -11395   -11442   -11470   -11446 
  -11388   -11369   -11388   -11407   -11423   -11435   -11431   -11414 
  -11406   -11400   -11389   -11400   -11415   -11418   -11441   -11449 
  -11407   -11375   -11384   -11391   -11400   -11435   -11462   -11448 
  -11408   -11383   -11372   -11392   -11435   -11439   -11402   -11380 
  -11396   -11431   -11449   -11442   -11418   -11376   -11358   -11388 
  -11422   -11446   -11456   -11441   -11402   -11362   -11379   -11430 
  -11431   -11403   -11399   -11411   -11422   -11421   -11421   -11439 
  -11433   -11391   -11394   -11425   -11419   -11407   -11415   -11404 
  -11379   -11394   -11425   -11421   -11404   -11411   -11433   -11438 
  -11411   -11384   -11396   -11427   -11437   -11431   -11414   -11389 
  -11391   -11416   -11426   -11426   -11425   -11400   -11383   -11392 
  -11402   -11418   -11446   -11446   -11416   -11412   -11419   -11385 
  -11369   -11412   -11442   -11439   -11429   -11404   -11385   -11388 
  -11383   -11387   -11443   -11483   -11435   -11383   -11372   -11362 
  -11396   -11469   -11472   -11429   -11403   -11381   -11377   -11406 
  -11425   -11419   -11415   -11421   -11418   -11425   -11433   -11410 
  -11396   -11412   -11412   -11398   -11388   -11385   -11403   -11439 
  -11457   -11427   -11389   -11392   -11406   -11399   -11408   -11421 
  -11404   -11387   -11406   -11434   -11422   -11410   -11449   -11465 
  -11414   -11380   -11387   -11402   -11423   -11438   -11416   -11395 
  -11407   -11411   -11391   -11394   -11406   -11410   -11430   -11437 
  -11406   -11392   -11415   -11433   -11416   -11392   -11404   -11427 
  -11422   -11404   -11406   -11425   -11426   -11399   -11383   -11403 
  -11429   -11434   -11429   -11419   -11406   -11402   -11408   -11407 
  -11391   -11384   -11410   -11441   -11446   -11441   -11421   -11385 
  -11375   -11398   -11421   -11425   -11418   -11412   -11411   -11414 
  -11404   -11396   -11414   -11423   -11411   -11421   -11437   -11419 
  -11406   -11411   -11402   -11396   -11402   -11404   -11426   -11441 
  -11425   -11414   -11403   -11377   -11371   -11398   -11426   -11437 
  -11439   -11429   -11414   -11414   -11412   -11410   -11429   -11441 
  -11411   -11380   -11373   -11388   -11427   -11453   -11443   -11418 
  -11385   -11368   -11384   -11429   -11450   -11433   -11416   -11398 
  -11372   -11384   -11421   -11441   -11454   -11448   -11407   -11380 
  -11384   -11396   -11419   -11457   -11453   -11399   -11364   -11380 
  -11415   -11448   -11458   -11422   -11371   -11357   -11384   -11431 
  -11460   -11446   -11423   -11408   -11389   -11375   -11381   -11418 
  -11450   -11441   -11408   -11388   -11387   -11406   -11438   -11462 
  -11443   -11396   -11367   -11364   -11389   -11429   -11450   -11443 
  -11429   -11411   -11391   -11384   -11392   -11403   -11426   -11442 
  -11427   -11411   -11411   -11407   -11398   -11408   -11422   -11415 
  -11398   -11394   -11402   -11422   -11438   -11423   -11410   -11419 
  -11419   -11416   -11434   -11433   -11395   -11356   -11360   -11403 
  -11439   -11442   -11423   -11419   -11419   -11399   -11385   -11402 
  -11421   -11427   -11423   -11411   -11406   -11427   -11448   -11437 
  -11404   -11371   -11368   -11399   -11416   -11412   -11425   -11438 
  -11421   -11406   -11412   -11411   -11392   -11387   -11396   -11399 
  -11388   -11373   -11372   -11381   -11407   -11504   -11591   -11514 
  -11456   -11549   -11514   -11344   -11268   -11214   -11254   -11454 
  -11373   -11184   -11479   -11624   -11325   -11483   -11705   -11388 
  -11345   -11523   -11311   -11160   -11291   -11418   -11566   -11553 
  -11230   -11269   -11812   -11692   -11006   -11334   -11997   -11512 
  -11018   -11179   -11184   -11260   -11456   -11323   -11412   -11842 
  -11722   -11322   -11360   -11412   -11367   -11491   -11453   -11246 
  -11248   -11426   -11492   -11313   -11327   -11724   -11688   -11183 
  -11049   -11214   -11389   -11674   -11823   -11628   -11334   -11176 
  -11188   -11250   -11267   -11361   -11604   -11751   -11622   -11446 
  -11318   -11226   -11476   -11668   -11244   -11033   -11469   -11599 
  -11283   -11199   -11356   -11520   -11678   -11587   -11252   -11269 
  -11568   -11497   -11196   -11106   -11334   -11610   -11495   -11371 
  -11639   -11647   -11326   -11277   -11329   -11389   -11545   -11496 
  -11377   -11322   -11295   -11542   -11661   -11350   -11294   -11414 
  -11215   -11246   -11565   -11554   -11345   -11192   -11194   -11450 
  -11689   -11712   -11573   -11402   -11349   -11267   -11140   -11268 
  -11460   -11423   -11403   -11504   -11577   -11641   -11584   -11331 
  -11290   -11434   -11334   -11227   -11298   -11291   -11335   -11491 
  -11533   -11515   -11502   -11493   -11506   -11489   -11452   -11283 
  -11145   -11334   -11480   -11395   -11433   -11457   -11307   -11299 
  -11452   -11537   -11570   -11530   -11419   -11357   -11368   -11402 
  -11350   -11290   -11348   -11396   -11368   -11379   -11480   -11512 
  -11456   -11515   -11618   -11489   -11200   -11156   -11448   -11604 
  -11391   -11259   -11441   -11534   -11350   -11196   -11286   -11510 
  -11669   -11611   -11416   -11353   -11360   -11267   -11271   -11442 
  -11554   -11499   -11337   -11225   -11321   -11549   -11647   -11515 
  -11369   -11391   -11396   -11307   -11357   -11457   -11415   -11411 
  -11476   -11377   -11244   -11367   -11520   -11489   -11456   -11415 
  -11330   -11361   -11476   -11473   -11380   -11346   -11368   -11381 
  -11395   -11504   -11589   -11475   -11375   -11326   -11283   -11441 
  -11549   -11411   -11342   -11404   -11469   -11430   -11265   -11281 
  -11481   -11468   -11383   -11457   -11416   -11358   -11497   -11492 
  -11307   -11287   -11371   -11373   -11372   -11453   -11565   -11624 
  -11591   -11421   -11226   -11276   -11404   -11375   -11408   -11503 
  -11497   -11445   -11318   -11269   -11406   -11421   -11345   -11410 
  -11438   -11422   -11580   -11662   -11460   -11248   -11118   -11138 
  -11442   -11600   -11465   -11514   -11585   -11341   -11202   -11371 
  -11416   -11371   -11527   -11578   -11400   -11377   -11473   -11406 
  -11310   -11356   -11388   -11364   -11392   -11439   -11465   -11520 
  -11526   -11362   -11250   -11319   -11373   -11475   -11604   -11520 
  -11415   -11430   -11354   -11245   -11286   -11380   -11358   -11333 
  -11495   -11645   -11572   -11477   -11457   -11375   -11263   -11248 
  -11291   -11319   -11411   -11570   -11658   -11600   -11441   -11313 
  -11288   -11310   -11369   -11452   -11442   -11415   -11415   -11302 
  -11307   -11466   -11356   -11218   -11435   -11597   -11546   -11584 
  -11600   -11458   -11304   -11248   -11340   -11415   -11377   -11446 
  -11524   -11402   -11298   -11337   -11407   -11461   -11439   -11421 
  -11473   -11415   -11330   -11439   -11469   -11284   -11217   -11379 
  -11537   -11554   -11495   -11443   -11422   -11448   -11438   -11307 
  -11252   -11400   -11516   -11502   -11400   -11272   -11391   -11564 
  -11353   -11245   -11502   -11550   -11419   -11388   -11379   -11454 
  -11475   -11373   -11427   -11457   -11327   -11330   -11385   -11371 
  -11442   -11477   -11412   -11443   -11477   -11415   -11403   -11414 
  -11404   -11431   -11412   -11329   -11308   -11411   -11506   -11422 
  -11307   -11399   -11523   -11457   -11389   -11460   -11466   -11379 
  -11307   -11281   -11437   -11623   -11535   -11350   -11286   -11272 
  -11345   -11485   -11514   -11500   -11516   -11427   -11327   -11364 
  -11414   -11400   -11353   -11296   -11341   -11499   -11570   -11506 
  -11415   -11398   -11411   -11304   -11286   -11491   -11493   -11334 
  -11406   -11437   -11290   -11314   -11487   -11562   -11538   -11500 
  -11416   -11286   -11319   -11454   -11418   -11427   -11545   -11388 
  -11198   -11346   -11457   -11377   -11442   -11496   -11335   -11360 
  -11549   -11512   -11442   -11496   -11502   -11456   -11350   -11194 
  -11167   -11296   -11400   -11391   -11439   -11759   -12158   -12109 
  -11523   -10921   -10731   -10878   -10984   -10966   -11186   -11664 
  -11952   -11943   -11626   -11007   -10683   -11098   -11784   -12341 
  -12838   -12842   -11796   -10401    -9791    -9836    -9949   -10233 
  -10852   -11913   -13327   -13956   -13026   -11772   -11260   -10693 
   -9697    -9576   -10828   -11975   -12135   -12001   -11817   -11350 
  -11184   -11395   -11003   -10755   -12114   -13324   -12654   -11645 
  -10903    -9927    -9931   -11034   -11669   -11529   -11114   -10952 
  -11350   -11665   -11641   -11777   -11817   -11524   -11443   -11665 
  -11781   -11700   -11473   -11152   -10948   -11010   -11109   -11087 
  -11292   -11894   -12472   -12622   -11946   -10493    -9849   -10822 
  -11549   -11071   -10889   -11580   -12101   -11915   -11321   -11122 
  -11786   -12221   -11788   -11504   -11371   -10809   -10635   -11005 
  -11163   -11589   -12266   -11909   -11110   -11183   -11335   -11155 
  -11414   -11514   -11030   -11157   -11848   -11916   -11646   -11689 
  -11394   -10403   -10014   -11098   -12241   -12100   -11592   -11870 
  -12360   -12055   -11325   -11080   -10978   -10620   -10665   -11141 
  -11634   -12023   -11803   -11167   -11083   -11398   -11410   -11326 
  -11507   -11681   -11680   -11639   -11531   -11407   -11257   -11070 
  -11126   -11314   -11443   -11724   -11828   -11437   -11149   -11313 
  -11495   -11392   -11119   -11061   -11445   -11720   -11257   -10667 
  -10978   -11781   -11994   -11742   -11703   -11863   -12033   -11989 
  -11496   -11055   -10922   -10565   -10369   -11029   -11689   -11596 
  -11562   -12002   -12101   -11628   -11222   -11007   -10822   -11034 
  -11642   -11870   -11483   -11056   -10987   -11275   -11739   -12005 
  -11830   -11475   -11385   -11415   -11173   -10991   -11362   -11853 
  -11908   -11704   -11304   -10721   -10517   -10835   -11226   -11615 
  -12093   -12432   -12150   -11140   -10440   -10791   -11377   -11545 
  -11506   -11515   -11774   -12096   -12050   -11653   -11097   -10596 
  -10575   -11124   -11758   -12015   -11732   -11211   -11016   -11043 
  -10821   -10731   -11271   -11958   -12244   -12204   -12002   -11585 
  -11111   -11094   -11402   -11354   -11094   -11161   -11406   -11643 
  -11888   -11672   -11072   -10858   -10970   -11151   -11497   -11696 
  -11600   -11488   -11358   -11182   -11245   -11577   -11811   -11777 
  -11605   -11395   -11099   -10837   -11045   -11649   -11948   -11894 
  -11820   -11481   -11051   -11168   -11456   -11334   -11229   -11473 
  -11654   -11499   -11288   -11222   -11095   -11020   -11375   -11622 
  -11338   -11335   -11647   -11546   -11357   -11358   -11206   -11086 
  -11237   -11487   -11773   -11928   -11834   -11789   -11769   -11506 
  -11196   -11044   -11001   -11083   -11250   -11427   -11601   -11669 
  -11634   -11574   -11364   -11102   -11067   -11079   -11175   -11674 
  -11985   -11588   -11246   -11389   -11387   -11122   -11117   -11308 
  -11365   -11439   -11666   -11781   -11659   -11431   -11165   -11082 
  -11414   -11745   -11672   -11546   -11558   -11454   -11299   -11290 
  -11350   -11398   -11480   -11473   -11284   -11209   -11319   -11376 
  -11469   -11554   -11344   -11160   -11340   -11476   -11379   -11352 
  -11425   -11431   -11326   -11240   -11389   -11615   -11592   -11456 
  -11458   -11516   -11456   -11362   -11427   -11516   -11446   -11399 
  -11481   -11596   -11670   -11516   -11142   -11014   -11257   -11408 
  -11345   -11367   -11473   -11468   -11354   -11283   -11396   -11577 
  -11493   -11310   -11423   -11557   -11403   -11273   -11307   -11341 
  -11425   -11518   -11468   -11483   -11650   -11645   -11511   -11435 
  -11257   -11149   -11318   -11415   -11356   -11376   -11350   -11271 
  -11311   -11346   -11407   -11588   -11616   -11588   -11736   -11610 
  -11188   -11110   -11259   -11227   -11187   -11236   -11334   -11556 
  -11753   -11724   -11581   -11437   -11296   -11199   -11198   -11346 
  -11583   -11700   -11635   -11549   -11456   -11275   -11169   -11223 
  -11236   -11223   -11381   -11624   -11719   -11637   -11537   -11457 
  -11306   -11191   -11276   -11412   -11408   -11340   -11327   -11325 
  -11349   -11485   -11578   -11550   -11518   -11453   -11353   -11254 
  -11080   -11043   -11368   -11666   -11649   -11600   -11564   -11400 
  -11303   -11349   -11373   -11437   -11631   -11711   -11519   -11322 
  -11304   -11298   -11261   -11353   -11449   -11337   -11236   -11389 
  -11584   -11589   -11464   -11246   -11061   -11160   -11442   -11632 
  -11753   -11777   -11493   -11098   -11061   -11330   -11442   -11344 
  -11356   -11558   -11734   -11755   -11650   -11461   -11286   -11230 
  -11267   -11269   -11227   -11296   -11433   -11442   -11345   -11272 
  -11283   -11346   -11404   -11526   -11655   -11649   -11577   -11531 
  -11472   -11423   -11414   -11340   -11271   -11331   -11381   -11379 
  -11470   -11562   -11491   -11372   -11345   -11344   -11261   -11141 
  -11124   -11223   -11414   -11673   -11801   -11684   -11475   -11273 
  -11187   -11335   -11553   -11622   -11607   -11504   -11306   -11290 
  -11461   -11453   -11314   -11342   -11454   -11473   -11500   -11547 
  -11421   -11191   -11098   -11111   -11148   -11280   -11487   -11619 
  -11610   -11524   -11503   -11516   -11458   -11398   -11354   -11327 
  -11403   -11483   -11466   -11526   -11639   -11560   -11391   -11299 
  -11196   -11183   -11377   -11530   -11496   -11464   -11485   -11445 
  -11412   -11441   -11369   -11233   -11191   -11196   -11287   -11538 
  -11707   -11628   -11464   -11371   -11391   -11383   -11283   -11296 
  -11372   -11361   -11439   -11546   -11470   -11399   -11416   -11385 
  -11423   -11587   -11620   -11452   -11326   -11329   -11275   -11245 
  -11403   -11476   -11411   -11511   -11632   -11533   -11418   -11369 
  -11286   -11276   -11353   -11408   -11450   -11442   -11353   -11249 
  -11244   -11360   -11427   -11412   -11502   -11585   -11454   -11335 
  -11412   -11508   -11520   -11483   -11437   -11441   -11446   -11391 
