Origin Time       2025/02/01 08:16:00
Lat.              33.667
Long.             130.927
Depth. (km)       8
Mag.              3.1
Station Code      FKO009
Station Lat.      33.4954
Station Long.     130.5164
Station Height(m) 34
Record Time       2025/02/01 08:17:09
Sampling Freq(Hz) 100Hz
Duration Time(s)  60
Dir.              U-D
Scale Factor      7845(gal)/8223790
Max. Acc. (gal)   1.329
Last Correction   2025/02/01 08:17:09
Memo.             
  -19302   -19310   -19333   -19338   -19321   -19292   -19273   -19288 
  -19314   -19325   -19334   -19337   -19311   -19279   -19273   -19298 
  -19326   -19338   -19333   -19306   -19278   -19279   -19299   -19318 
  -19330   -19333   -19317   -19292   -19286   -19294   -19306   -19330 
  -19338   -19314   -19300   -19313   -19311   -19296   -19294   -19296 
  -19298   -19317   -19340   -19323   -19286   -19279   -19300   -19327 
  -19350   -19344   -19303   -19282   -19294   -19306   -19309   -19310 
  -19310   -19313   -19310   -19305   -19302   -19303   -19310   -19321 
  -19321   -19309   -19303   -19315   -19322   -19315   -19306   -19299 
  -19294   -19292   -19303   -19325   -19330   -19309   -19287   -19296 
  -19318   -19325   -19322   -19318   -19306   -19294   -19305   -19318 
  -19305   -19282   -19286   -19325   -19365   -19352   -19284   -19248 
  -19276   -19315   -19341   -19350   -19325   -19283   -19271   -19305 
  -19336   -19330   -19309   -19292   -19288   -19299   -19305   -19313 
  -19332   -19332   -19311   -19305   -19306   -19294   -19291   -19314 
  -19329   -19317   -19290   -19284   -19327   -19361   -19317   -19253 
  -19259   -19305   -19336   -19345   -19340   -19318   -19284   -19265 
  -19282   -19306   -19319   -19334   -19344   -19325   -19287   -19271 
  -19291   -19322   -19326   -19313   -19309   -19310   -19309   -19309 
  -19317   -19313   -19280   -19275   -19311   -19338   -19344   -19326 
  -19295   -19299   -19307   -19292   -19298   -19313   -19306   -19315 
  -19327   -19310   -19295   -19305   -19311   -19300   -19290   -19302 
  -19325   -19336   -19333   -19305   -19273   -19276   -19310   -19344 
  -19354   -19325   -19280   -19272   -19294   -19303   -19302   -19330 
  -19348   -19309   -19292   -19307   -19286   -19280   -19319   -19321 
  -19307   -19340   -19352   -19305   -19283   -19307   -19302   -19280 
  -19295   -19317   -19317   -19321   -19327   -19319   -19299   -19292 
  -19299   -19299   -19309   -19332   -19330   -19310   -19299   -19299 
  -19309   -19319   -19313   -19302   -19300   -19294   -19295   -19323 
  -19342   -19313   -19294   -19313   -19303   -19282   -19294   -19322 
  -19348   -19340   -19315   -19302   -19268   -19253   -19302   -19338 
  -19342   -19345   -19322   -19283   -19273   -19292   -19306   -19315 
  -19323   -19318   -19311   -19306   -19302   -19309   -19325   -19330 
  -19311   -19283   -19282   -19298   -19317   -19330   -19327   -19303 
  -19282   -19287   -19311   -19323   -19325   -19322   -19319   -19317 
  -19303   -19292   -19298   -19303   -19306   -19309   -19310   -19315 
  -19319   -19315   -19306   -19299   -19306   -19305   -19290   -19295 
  -19318   -19323   -19319   -19315   -19302   -19300   -19309   -19307 
  -19311   -19318   -19306   -19290   -19287   -19309   -19350   -19354 
  -19303   -19273   -19290   -19287   -19282   -19333   -19368   -19311 
  -19267   -19299   -19318   -19303   -19313   -19315   -19295   -19306 
  -19337   -19326   -19295   -19302   -19303   -19290   -19313   -19326 
  -19302   -19307   -19321   -19300   -19298   -19315   -19311   -19299 
  -19299   -19315   -19330   -19327   -19302   -19282   -19292   -19317 
  -19330   -19338   -19323   -19273   -19252   -19306   -19363   -19348 
  -19299   -19273   -19279   -19317   -19336   -19311   -19298   -19318 
  -19318   -19299   -19300   -19310   -19311   -19315   -19311   -19295 
  -19300   -19318   -19317   -19317   -19319   -19300   -19294   -19307 
  -19311   -19302   -19292   -19294   -19314   -19333   -19336   -19325 
  -19295   -19279   -19291   -19305   -19326   -19349   -19342   -19310 
  -19261   -19236   -19290   -19359   -19371   -19337   -19283   -19253 
  -19283   -19330   -19350   -19332   -19292   -19269   -19280   -19317 
  -19346   -19338   -19314   -19298   -19275   -19275   -19309   -19334 
  -19342   -19327   -19298   -19280   -19286   -19302   -19315   -19325 
  -19330   -19323   -19314   -19313   -19292   -19256   -19263   -19319 
  -19376   -19384   -19314   -19241   -19237   -19288   -19375   -19422 
  -19333   -19187   -19175   -19321   -19440   -19407   -19302   -19226 
  -19228   -19323   -19402   -19345   -19253   -19252   -19300   -19334 
  -19338   -19321   -19310   -19321   -19322   -19287   -19261   -19307 
  -19359   -19340   -19287   -19263   -19287   -19336   -19333   -19288 
  -19284   -19327   -19375   -19376   -19291   -19186   -19195   -19352 
  -19484   -19422   -19242   -19151   -19213   -19337   -19411   -19390 
  -19311   -19265   -19272   -19283   -19303   -19337   -19344   -19322 
  -19305   -19288   -19279   -19306   -19336   -19314   -19295   -19310 
  -19311   -19302   -19319   -19327   -19307   -19294   -19298   -19310 
  -19322   -19319   -19318   -19323   -19305   -19280   -19290   -19311 
  -19306   -19303   -19327   -19338   -19311   -19288   -19288   -19310 
  -19336   -19330   -19306   -19291   -19287   -19303   -19325   -19322 
  -19311   -19305   -19292   -19290   -19309   -19326   -19329   -19321 
  -19300   -19284   -19299   -19327   -19317   -19295   -19305   -19310 
  -19302   -19306   -19322   -19333   -19326   -19307   -19286   -19278 
  -19302   -19333   -19330   -19298   -19278   -19296   -19341   -19359 
  -19319   -19269   -19257   -19280   -19315   -19349   -19363   -19338 
  -19287   -19261   -19287   -19326   -19338   -19311   -19278   -19282 
  -19322   -19350   -19333   -19291   -19272   -19290   -19317   -19333 
  -19332   -19307   -19295   -19315   -19323   -19300   -19275   -19269 
  -19303   -19354   -19367   -19333   -19288   -19257   -19263   -19309 
  -19354   -19356   -19311   -19264   -19267   -19307   -19325   -19321 
  -19323   -19315   -19310   -19325   -19318   -19286   -19284   -19303 
  -19307   -19307   -19326   -19337   -19317   -19294   -19299   -19315 
  -19317   -19300   -19291   -19298   -19321   -19330   -19307   -19288 
  -19302   -19313   -19305   -19300   -19302   -19305   -19315   -19332 
  -19341   -19321   -19284   -19272   -19287   -19302   -19315   -19336 
  -19346   -19337   -19300   -19271   -19283   -19314   -19327   -19322 
  -19309   -19294   -19292   -19307   -19325   -19333   -19325   -19302 
  -19286   -19286   -19294   -19318   -19352   -19354   -19321   -19280 
  -19257   -19278   -19325   -19342   -19326   -19310   -19303   -19300 
  -19303   -19309   -19309   -19313   -19317   -19307   -19296   -19295 
  -19311   -19336   -19330   -19295   -19282   -19300   -19319   -19315 
  -19303   -19313   -19329   -19323   -19311   -19299   -19287   -19295 
  -19310   -19317   -19323   -19322   -19314   -19306   -19290   -19278 
  -19306   -19352   -19354   -19317   -19284   -19268   -19275   -19300 
  -19315   -19322   -19336   -19332   -19310   -19302   -19305   -19300 
  -19298   -19300   -19303   -19314   -19329   -19319   -19295   -19290 
  -19310   -19323   -19321   -19313   -19299   -19299   -19315   -19313 
  -19298   -19292   -19299   -19326   -19350   -19329   -19286   -19267 
  -19283   -19315   -19338   -19336   -19319   -19303   -19290   -19280 
  -19283   -19307   -19334   -19336   -19327   -19321   -19298   -19282 
  -19294   -19313   -19314   -19307   -19299   -19302   -19317   -19322 
  -19319   -19322   -19309   -19290   -19302   -19315   -19306   -19305 
  -19311   -19310   -19321   -19332   -19306   -19273   -19284   -19315 
  -19327   -19329   -19325   -19313   -19298   -19291   -19291   -19300 
  -19326   -19334   -19310   -19294   -19303   -19311   -19309   -19313 
  -19317   -19310   -19298   -19290   -19302   -19327   -19333   -19322 
  -19315   -19299   -19282   -19294   -19318   -19322   -19319   -19323 
  -19313   -19288   -19294   -19317   -19323   -19321   -19311   -19296 
  -19302   -19317   -19300   -19287   -19315   -19337   -19327   -19317 
  -19314   -19305   -19294   -19300   -19307   -19307   -19307   -19302 
  -19303   -19319   -19323   -19313   -19309   -19299   -19284   -19300 
  -19333   -19338   -19323   -19309   -19296   -19291   -19294   -19306 
  -19319   -19317   -19299   -19287   -19294   -19315   -19336   -19332 
  -19314   -19302   -19283   -19275   -19303   -19338   -19348   -19337 
  -19310   -19271   -19253   -19273   -19319   -19364   -19367   -19326 
  -19291   -19276   -19275   -19295   -19333   -19352   -19322   -19283 
  -19290   -19314   -19313   -19307   -19315   -19313   -19298   -19288 
  -19295   -19313   -19333   -19346   -19350   -19322   -19265   -19245 
  -19286   -19334   -19350   -19332   -19299   -19284   -19291   -19306 
  -19326   -19334   -19319   -19305   -19300   -19291   -19283   -19306 
  -19333   -19334   -19319   -19302   -19291   -19290   -19292   -19306 
  -19329   -19340   -19330   -19309   -19290   -19288   -19299   -19319 
  -19332   -19318   -19296   -19298   -19313   -19311   -19302   -19300 
  -19313   -19321   -19311   -19305   -19317   -19332   -19332   -19313 
  -19290   -19279   -19276   -19299   -19345   -19363   -19327   -19284 
  -19272   -19275   -19287   -19322   -19350   -19341   -19314   -19296 
  -19298   -19313   -19327   -19365   -19429   -19406   -19236   -19124 
  -19207   -19259   -19191   -19240   -19373   -19430   -19453   -19431 
  -19269   -19064   -19197   -19589   -19560   -19191   -19101   -19165 
  -19282   -19504   -19340   -19103   -19642   -19799   -18910   -18912 
  -19431   -19026   -19336   -20059   -19417   -18781   -18970   -19182 
  -19287   -19294   -19464   -19927   -19919   -18762   -18157   -20013 
  -20702   -18181   -17979   -20362   -20250   -18820   -18593   -19152 
  -19815   -19680   -19053   -19111   -19622   -19241   -18762   -19687 
  -19884   -18790   -18800   -19407   -19715   -19647   -19012   -19168 
  -19579   -19024   -18976   -19639   -19881   -19394   -18740   -18998 
  -19565   -19488   -19291   -19251   -19257   -19294   -19319   -19419 
  -19344   -19001   -19057   -19602   -19786   -19375   -18904   -18920 
  -19500   -19728   -19330   -19276   -19360   -19106   -19194   -19495 
  -19303   -19097   -19357   -19422   -19219   -19282   -19407   -19452 
  -19306   -19064   -19300   -19450   -19144   -19272   -19488   -19315 
  -19373   -19375   -19145   -19197   -19357   -19498   -19485   -19197 
  -19101   -19226   -19332   -19444   -19419   -19303   -19207   -19124 
  -19273   -19453   -19352   -19317   -19300   -19130   -19273   -19597 
  -19483   -19226   -19279   -19236   -19083   -19333   -19508   -19280 
  -19294   -19342   -19178   -19318   -19418   -19264   -19271   -19326 
  -19376   -19381   -19240   -19191   -19249   -19346   -19360   -19252 
  -19388   -19421   -19205   -19369   -19441   -19172   -19221   -19368 
  -19375   -19340   -19214   -19210   -19371   -19380   -19215   -19267 
  -19489   -19346   -19026   -19174   -19519   -19515   -19349   -19273 
  -19218   -19145   -19264   -19475   -19322   -19161   -19333   -19423 
  -19452   -19390   -19129   -19183   -19438   -19372   -19210   -19201 
  -19313   -19421   -19292   -19207   -19360   -19340   -19242   -19383 
  -19383   -19232   -19383   -19456   -19178   -19128   -19299   -19359 
  -19314   -19157   -19190   -19533   -19642   -19321   -19101   -19248 
  -19352   -19267   -19256   -19319   -19365   -19449   -19377   -19140 
  -19184   -19334   -19251   -19296   -19437   -19372   -19319   -19306 
  -19192   -19234   -19398   -19376   -19314   -19296   -19330   -19390 
  -19237   -19241   -19429   -19183   -19025   -19396   -19588   -19360 
  -19194   -19387   -19530   -19187   -18943   -19300   -19538   -19263 
  -19148   -19321   -19396   -19430   -19410   -19271   -19214   -19318 
  -19360   -19218   -19195   -19364   -19411   -19434   -19384   -19118 
  -19152   -19359   -19299   -19338   -19342   -19251   -19392   -19346 
  -19198   -19357   -19419   -19282   -19228   -19275   -19310   -19330 
  -19384   -19306   -19265   -19317   -19171   -19267   -19499   -19244 
  -19157   -19560   -19553   -19106   -19113   -19395   -19257   -19210 
  -19487   -19457   -19232   -19163   -19265   -19399   -19283   -19191 
  -19353   -19383   -19306   -19345   -19418   -19377   -19174   -19168 
  -19356   -19265   -19236   -19502   -19473   -19191   -19238   -19390 
  -19214   -19155   -19440   -19471   -19230   -19175   -19311   -19406 
  -19279   -19214   -19384   -19332   -19184   -19273   -19360   -19413 
  -19425   -19388   -19367   -19197   -19057   -19215   -19388   -19423 
  -19403   -19226   -19251   -19557   -19275   -18912   -19413   -19624 
  -19178   -19263   -19518   -19199   -18993   -19292   -19552   -19417 
  -19156   -19213   -19444   -19364   -19191   -19340   -19423   -19261 
  -19194   -19228   -19381   -19462   -19260   -19287   -19475   -19269 
  -19049   -19253   -19534   -19399   -19117   -19244   -19400   -19294 
  -19323   -19325   -19180   -19356   -19516   -19261   -19160   -19298 
  -19422   -19496   -19155   -18987   -19479   -19484   -19145   -19377 
  -19502   -19279   -19138   -19101   -19346   -19534   -19291   -19153 
  -19305   -19410   -19391   -19336   -19290   -19286   -19315   -19206 
  -19165   -19414   -19469   -19330   -19377   -19313   -19102   -19168 
  -19307   -19225   -19395   -19746   -19411   -18878   -19107   -19473 
  -19349   -19245   -19396   -19396   -19314   -19371   -19300   -19203 
  -19278   -19257   -19248   -19413   -19411   -19255   -19256   -19321 
  -19313   -19286   -19265   -19318   -19411   -19321   -19228   -19435 
  -19430   -19043   -19010   -19361   -19585   -19510   -19295   -19256 
  -19236   -19159   -19265   -19361   -19407   -19445   -19229   -19029 
  -19221   -19506   -19415   -19195   -19434   -19581   -19113   -19067 
  -19534   -19356   -19012   -19275   -19410   -19214   -19302   -19440 
  -19306   -19415   -19549   -19136   -19021   -19434   -19465   -19256 
  -19214   -19336   -19521   -19427   -19264   -19315   -19279   -19107 
  -19037   -19064   -19138   -19398   -19595   -19449   -19458   -19521 
  -19148   -18944   -19074   -19269   -19689   -19807   -19413   -19160 
  -19147   -19178   -19296   -19479   -19461   -19195   -19129   -19242 
  -19134   -18987   -19159   -19627   -19958   -19724   -19164   -19014 
  -19360   -19198   -18662   -19111   -19884   -19618   -19192   -19313 
  -19263   -19129   -19303   -19318   -18999   -18904   -19306   -19619 
  -19592   -19710   -19853   -19697   -19341   -18929   -18756   -18756 
  -18833   -19353   -19851   -19662   -19363   -19341   -19261   -19170 
  -19178   -19222   -19445   -19585   -19383   -19280   -19300   -19214 
  -19171   -19064   -18989   -19221   -19449   -19325   -19201   -19537 
  -19840   -19570   -19288   -19318   -19241   -19218   -19334   -19125 
  -18952   -19191   -19300   -19137   -19095   -19313   -19542   -19712 
  -19896   -19716   -19207   -18944   -19052   -19299   -19298   -19303 
  -19587   -19363   -18882   -18933   -19037   -19140   -19365   -19383 
  -19498   -19618   -19327   -19219   -19649   -19766   -19276   -19180 
  -19433   -19132   -18820   -18985   -19138   -19363   -19691   -19610 
  -19198   -18975   -19164   -19545   -19735   -19734   -19603   -19214 
  -18708   -18520   -18970   -19529   -19531   -19434   -19607   -19662 
  -19380   -18948   -18929   -19398   -19742   -19673   -19259   -19010 
  -19165   -19101   -18913   -19233   -19745   -19728   -19288   -19064 
  -19120   -19168   -19178   -19332   -19600   -19575   -19380   -19345 
  -19315   -19364   -19337   -19063   -19205   -19562   -19398   -19106 
  -18995   -18995   -19176   -19414   -19695   -19795   -19360   -18932 
  -19041   -19276   -19377   -19529   -19600   -19427   -19264   -19225 
  -19170   -19224   -19313   -19138   -19126   -19489   -19537   -19178 
  -18999   -19240   -19535   -19456   -19159   -19066   -19346   -19579 
  -19369   -19282   -19584   -19623   -19268   -19043   -19163   -19341 
  -19267   -19118   -19299   -19635   -19487   -19009   -18972   -19282 
  -19388   -19298   -19280   -19458   -19660   -19584   -19265   -18994 
  -18990   -19236   -19373   -19240   -19263   -19438   -19310   -19132 
  -19305   -19558   -19546   -19357   -19283   -19319   -19317   -19325 
  -19238   -19037   -19091   -19321   -19372   -19460   -19595   -19504 
  -19255   -18993   -19087   -19522   -19575   -19327   -19287   -19218 
  -19063   -19070   -19097   -19157   -19430   -19577   -19406   -19410 
  -19587   -19441   -19232   -19319   -19391   -19224   -19045   -19125 
  -19357   -19419   -19363   -19449   -19504   -19226   -18949   -19048 
  -19327   -19561   -19562   -19376   -19280   -19188   -19063   -19055 
  -19256   -19610   -19695   -19425   -19195   -19106   -19102   -19182 
  -19295   -19477   -19618   -19485   -19259   -19228   -19197   -19086 
  -19134   -19303   -19402   -19386   -19344   -19388   -19398   -19361 
  -19379   -19323   -19272   -19323   -19271   -19188   -19242   -19309 
  -19315   -19257   -19168   -19225   -19387   -19462   -19475   -19444 
  -19319   -19161   -19091   -19271   -19450   -19292   -19248   -19483 
  -19430   -19170   -19103   -19213   -19438   -19487   -19292   -19352 
  -19504   -19295   -19094   -19179   -19269   -19261   -19315   -19415 
  -19388   -19318   -19306   -19255   -19246   -19345   -19371   -19346 
  -19348   -19221   -19132   -19238   -19306   -19356   -19427   -19338 
  -19271   -19380   -19396   -19263   -19229   -19353   -19422   -19326 
  -19256   -19271   -19217   -19203   -19356   -19433   -19310   -19232 
  -19348   -19408   -19237   -19191   -19383   -19423   -19279   -19209 
  -19292   -19325   -19218   -19268   -19440   -19419   -19283   -19229 
  -19292   -19292   -19191   -19287   -19471   -19435   -19299   -19218 
  -19260   -19354   -19314   -19261   -19299   -19300   -19340   -19386 
  -19279   -19218   -19340   -19440   -19379   -19268   -19213   -19195 
  -19261   -19383   -19373   -19236   -19217   -19377   -19467   -19318 
  -19155   -19282   -19461   -19255   -19103   -19408   -19529   -19248 
  -19109   -19229   -19379   -19381   -19282   -19321   -19414   -19376 
  -19363   -19319   -19190   -19253   -19354   -19257   -19245   -19367 
  -19426   -19404   -19292   -19205   -19246   -19211   -19156   -19330 
  -19471   -19392   -19380   -19425   -19325   -19188   -19122   -19129 
  -19249   -19379   -19365   -19334   -19368   -19345   -19319   -19372 
  -19404   -19330   -19222   -19225   -19256   -19248   -19348   -19460 
  -19419   -19333   -19251   -19194   -19246   -19325   -19315   -19283 
  -19344   -19434   -19380   -19242   -19222   -19303   -19326   -19271 
  -19257   -19296   -19287   -19252   -19283   -19359   -19386   -19371 
  -19333   -19288   -19292   -19321   -19298   -19236   -19240   -19300 
  -19345   -19391   -19402   -19363   -19306   -19263   -19280   -19268 
  -19217   -19290   -19375   -19299   -19283   -19403   -19438   -19365 
  -19217   -19124   -19238   -19371   -19381   -19342   -19306   -19278 
  -19205   -19197   -19334   -19368   -19295   -19350   -19438   -19414 
  -19290   -19163   -19217   -19391   -19376   -19242   -19286   -19368 
  -19306   -19329   -19375   -19224   -19178   -19337   -19419   -19384 
  -19330   -19311   -19271   -19188   -19161   -19217   -19372   -19498 
  -19441   -19336   -19249   -19182   -19232   -19314   -19332   -19352 
  -19360   -19326   -19296   -19296   -19309   -19334   -19332   -19279 
  -19315   -19391   -19268   -19153   -19300   -19414   -19329   -19290 
  -19338   -19323   -19267   -19278   -19340   -19340   -19272   -19246 
