Origin Time       2025/02/01 08:16:00
Lat.              33.667
Long.             130.927
Depth. (km)       8
Mag.              3.1
Station Code      FKO009
Station Lat.      33.4954
Station Long.     130.5164
Station Height(m) 34
Record Time       2025/02/01 08:17:09
Sampling Freq(Hz) 100Hz
Duration Time(s)  60
Dir.              E-W
Scale Factor      7845(gal)/8223790
Max. Acc. (gal)   1.909
Last Correction   2025/02/01 08:17:09
Memo.             
[...]
    6286     6281     6322     6347     6349     6336     6318     6309 
    6322     6334     6347     6345     6300     6270     6291     6322 
    6349     6357     6330     6305     6311     6315     6299     6297 
    6316     6338     6358     6346     6299     6291     6339     6354 
    6324     6320     6308     6304     6347     6340     6296     6308 
    6315     6295     6311     6336     6328     6332     6351     6324 
    6289     6300     6308     6308     6345     6359     6328     6324 
    6327     6307     6313     6323     6303     6307     6345     6366 
    6354     6323     6295     6276     6281     6312     6328     6332 
    6345     6331     6313     6320     6320     6335     6362     6343 
    6304     6288     6292     6315     6324     6312     6318     6322 
    6316     6340     6362     6340     6309     6296     6297     6305 
    6327     6339     6313     6305     6331     6327     6320     6349 
    6340     6304     6313     6322     6301     6316     6343     6328 
    6313     6328     6339     6327     6315     6312     6303     6297 
    6312     6327     6334     6331     6319     6318     6328     6327 
    6315     6319     6330     6328     6327     6331     6326     6309 
    6303     6315     6313     6311     6346     6359     6323     6308 
    6324     6312     6295     6313     6330     6313     6307     6315 
    6311     6319     6347     6353     6328     6307     6305     6316 
    6319     6316     6327     6342     6328     6301     6307     6332 
    6343     6343     6340     6322     6289     6274     6301     6338 
    6335     6308     6312     6340     6336     6319     6327     6334 
    6316     6304     6308     6323     6340     6338     6315     6307 
    6313     6320     6334     6342     6331     6313     6301     6308 
    6330     6345     6338     6318     6301     6297     6305     6316 
    6328     6346     6338     6305     6304     6332     6340     6334 
    6334     6322     6296     6292     6305     6316     6342     6361 
    6330     6307     6327     6318     6289     6315     6340     6322 
    6322     6339     6313     6288     6312     6331     6318     6322 
    6340     6342     6347     6340     6305     6296     6323     6326 
    6311     6305     6299     6309     6350     6363     6335     6305 
    6299     6309     6323     6319     6300     6285     6303     6359 
    6392     6357     6308     6293     6305     6319     6318     6308 
    6313     6330     6331     6328     6342     6330     6300     6301 
    6307     6303     6335     6354     6320     6304     6319     6309 
    6308     6331     6322     6299     6324     6357     6339     6320 
    6338     6334     6300     6299     6305     6303     6335     6367 
    6351     6315     6273     6262     6322     6386     6372     6309 
    6278     6280     6293     6334     6376     6358     6307     6300 
    6320     6308     6309     6349     6350     6309     6295     6293 
    6296     6339     6374     6351     6322     6316     6315     6315 
    6320     6334     6339     6320     6301     6300     6292     6282 
    6316     6354     6354     6343     6335     6296     6266     6307 
    6372     6362     6303     6282     6295     6335     6393     6369 
    6277     6261     6320     6347     6332     6320     6308     6312 
    6343     6332     6293     6301     6332     6349     6334     6300 
    6307     6340     6323     6269     6276     6346     6382     6349 
    6312     6304     6303     6324     6359     6349     6293     6265 
    6303     6358     6363     6316     6289     6313     6334     6335 
    6326     6301     6312     6342     6316     6285     6312     6355 
    6358     6320     6293     6304     6318     6320     6320     6324 
    6328     6322     6311     6315     6326     6330     6327     6323 
    6327     6327     6319     6319     6322     6304     6289     6316 
    6347     6340     6322     6311     6322     6343     6342     6320 
    6308     6308     6304     6292     6295     6323     6353     6357 
    6326     6295     6292     6303     6322     6347     6347     6336 
    6343     6350     6327     6292     6282     6304     6324     6322 
    6326     6345     6323     6278     6288     6330     6335     6327 
    6338     6331     6315     6322     6323     6316     6331     6349 
    6324     6282     6277     6319     6362     6349     6295     6291 
    6334     6350     6336     6327     6309     6295     6316     6343 
    6332     6320     6318     6305     6316     6320     6296     6300 
    6330     6345     6345     6328     6300     6286     6309     6349 
    6349     6327     6313     6303     6309     6327     6342     6339 
    6307     6300     6319     6319     6331     6361     6355     6309 
    6293     6305     6304     6304     6313     6309     6316     6343 
    6345     6312     6292     6291     6308     6359     6388     6350 
    6304     6281     6280     6312     6342     6340     6343     6340 
    6318     6309     6315     6299     6293     6318     6328     6331 
    6343     6334     6308     6312     6330     6322     6323     6345 
    6326     6285     6289     6315     6345     6366     6339     6285 
    6274     6318     6357     6350     6327     6322     6311     6273 
    6272     6328     6366     6354     6338     6323     6308     6319 
    6327     6315     6318     6332     6334     6324     6303     6297 
    6309     6311     6320     6332     6323     6316     6323     6335 
    6345     6323     6295     6312     6339     6330     6327     6330 
    6307     6296     6316     6342     6338     6305     6303     6332 
    6332     6313     6316     6334     6339     6319     6301     6295 
    6303     6336     6362     6354     6322     6282     6262     6280 
    6320     6354     6366     6355     6336     6324     6313     6289 
    6272     6292     6345     6392     6374     6301     6259     6277 
    6319     6365     6385     6340     6262     6238     6293     6361 
    6385     6361     6319     6295     6293     6299     6301     6311 
    6345     6381     6373     6312     6257     6270     6332     6370 
    6342     6292     6289     6313     6326     6345     6354     6328 
    6305     6305     6300     6297     6322     6350     6353     6328 
    6301     6291     6312     6334     6320     6315     6332     6330 
    6311     6308     6322     6336     6331     6308     6300     6311 
    6328     6353     6361     6331     6292     6291     6318     6322 
    6307     6312     6323     6323     6326     6331     6338     6335 
    6309     6295     6315     6331     6327     6322     6323     6318 
    6295     6288     6324     6358     6354     6338     6334     6320 
    6288     6288     6326     6336     6326     6328     6318     6309 
    6320     6316     6301     6315     6326     6326     6340     6343 
    6319     6305     6304     6305     6320     6339     6347     6342 
    6330     6316     6307     6313     6318     6303     6297     6316 
    6338     6349     6347     6324     6300     6299     6304     6318 
    6345     6357     6343     6316     6292     6289     6316     6339 
    6334     6316     6300     6297     6312     6328     6339     6338 
    6319     6300     6295     6305     6338     6373     6381     6339 
    6280     6270     6301     6322     6331     6336     6340     6335 
    6307     6291     6315     6345     6330     6299     6300     6327 
    6342     6342     6330     6303     6293     6312     6331     6338 
    6319     6304     6327     6340     6324     6319     6324     6311 
    6307     6323     6331     6327     6323     6313     6323     6347 
    6338     6304     6291     6300     6320     6338     6334     6319 
    6313     6319     6322     6318     6305     6297     6326     6353 
    6323     6293     6307     6319     6331     6362     6357     6323 
    6309     6319     6331     6326     6305     6301     6313     6320 
    6318     6316     6324     6324     6308     6300     6316     6347 
    6358     6331     6301     6299     6315     6340     6351     6330 
    6303     6297     6305     6319     6326     6318     6319     6358 
    6369     6292     6243     6335     6430     6413     6359     6315 
    6289     6309     6357     6334     6165     6061     6196     6340 
    6339     6311     6330     6488     6637     6384     6081     6311 
    6446     6185     6250     6362     6169     6204     6358     6539 
    6674     6301     6118     6490     6440     6085     6178     6311 
    5958     5879     6731     7091     6129     5599     6376     7345 
    7114     5795     5556     6430     6277     5714     6200     6750 
    6405     5994     6262     6852     7026     6323     5711     6151 
    6365     6083     6438     6471     6002     6245     6540     6577 
    6687     6278     5917     6250     6411     6272     6377     6365 
    5983     5956     6625     7005     6454     5815     5844     6442 
    6893     6505     6107     6408     6311     5769     5980     6538 
    6567     6404     6485     6579     6361     6000     6058     6520 
    6629     6320     6161     6108     6191     6480     6428     6226 
    6330     6291     6195     6304     6258     6353     6585     6357 
    6208     6417     6338     6231     6393     6378     6273     6339 
    6305     6133     6205     6517     6571     6300     6100     6100 
    6258     6394     6340     6415     6642     6524     6205     6193 
    6330     6247     6189     6328     6291     6216     6389     6428 
    6291     6250     6282     6378     6417     6319     6261     6315 
    6386     6293     6204     6374     6384     6185     6327     6616 
    6555     6227     6076     6230     6259     6137     6313     6600 
    6544     6332     6249     6261     6315     6311     6195     6164 
    6354     6550     6509     6332     6245     6234     6124     6010 
    6161     6413     6612     6774     6571     6199     6222     6318 
    6156     6060     6138     6297     6438     6474     6536     6535 
    6280     6085     6160     6304     6436     6458     6258     6108 
    6215     6358     6438     6439     6343     6340     6365     6245 
    6174     6251     6354     6423     6384     6288     6299     6384 
    6432     6363     6247     6230     6208     6154     6187     6292 
    6488     6628     6528     6369     6326     6300     6241     6162 
    6135     6331     6439     6184     6200     6501     6382     6185 
    6362     6534     6394     6092     6110     6461     6534     6374 
    6417     6440     6246     6102     6164     6332     6394     6312 
    6249     6228     6270     6412     6457     6319     6239     6330 
    6427     6343     6253     6380     6399     6269     6353     6401 
    6296     6262     6111     6011     6311     6609     6516     6281 
    6264     6465     6570     6407     6191     6183     6203     6154 
    6313     6477     6307     6135     6277     6426     6339     6308 
    6408     6359     6253     6289     6400     6442     6346     6297 
    6377     6335     6251     6292     6270     6183     6246     6447 
    6490     6255     6145     6254     6280     6376     6573     6462 
    6181     6230     6463     6435     6286     6308     6326     6162 
    6034     6224     6515     6471     6316     6385     6420     6297 
    6269     6338     6309     6237     6274     6296     6219     6245 
    6382     6424     6407     6396     6300     6331     6469     6311 
    6158     6274     6259     6230     6377     6436     6420     6318 
    6201     6430     6548     6143     6022     6365     6401     6315 
    6428     6328     6184     6291     6365     6381     6382     6318 
    6308     6261     6199     6305     6381     6339     6328     6276 
    6215     6361     6573     6492     6222     6169     6320     6392 
    6421     6355     6095     6115     6400     6353     6301     6493 
    6420     6273     6319     6307     6320     6305     6177     6259 
    6382     6332     6370     6400     6367     6431     6316     6002 
    6010     6345     6494     6428     6417     6442     6412     6335 
    6243     6243     6289     6242     6187     6276     6399     6415 
    6365     6308     6345     6457     6388     6192     6161     6299 
    6405     6381     6311     6286     6305     6318     6326     6376 
    6393     6272     6150     6191     6292     6347     6435     6535 
    6448     6219     6166     6308     6393     6353     6338     6401 
    6295     6138     6309     6439     6293     6273     6338     6309 
    6315     6343     6303     6238     6293     6385     6330     6373 
    6508     6347     6164     6305     6407     6242     6115     6301 
    6574     6489     6222     6210     6296     6219     6173     6254 
    6296     6462     6637     6381     6161     6384     6440     6234 
    6261     6407     6340     6130     5945     5863     6035     6498 
    6916     6952     6774     6851     6886     6220     5549     5722 
    6085     6107     6126     6304     6544     6589     6274     5922 
    5903     6282     6751     6755     6223     5730     5794     6421 
    6961     6743     6354     6583     6717     6359     6378     6498 
    5815     5155     5517     6231     6451     6531     7037     7321 
    6597     5670     5738     6628     7129     6750     6291     6116 
    5873     5807     6129     6508     6793     6768     6249     5823 
    6008     6170     5652     5227     6011     7487     8322     7963 
    6457     4896     4760     5364     5525     6180     7384     7418 
    6701     6798     6917     6060     5246     5290     5987     7168 
    8012     7418     6010     5378     5597     5522     5196     5842 
    7080     7138     6427     6570     6872     6313     5919     6265 
    6432     6331     6674     6924     6415     5814     5528     5601 
    6278     6971     7134     6963     6438     5934     5875     5668 
    5279     5714     6733     7064     6878     6876     6517     5742 
    5462     5845     6565     7153     6934     6286     6126     6137 
    6029     6490     7017     6469     5836     6355     7014     6785 
    6096     5738     6006     6075     5566     5688     6608     7133 
    7001     6520     5981     5817     5917     5902     6045     6660 
    7191     7080     6604     6172     5823     5470     5533     6454 
    7335     7129     6480     6501     6704     6096     5491     5748 
    6025     6185     6701     6822     6339     5971     5848     6150 
    6841     7018     6509     6065     6037     6311     6473     6292 
    6129     5999     5795     6108     6841     7048     6793     6511 
    6011     5713     6006     6286     6593     7144     6978     5859 
    5229     5867     6590     6457     6250     6470     6507     6296 
    6311     6407     6330     6203     6165     6408     6717     6480 
    5922     5756     6106     6627     6839     6625     6366     6210 
    6108     6227     6594     6852     6685     6178     5771     5794 
    6068     6331     6462     6303     6110     6166     6176     6133 
    6393     6712     6727     6569     6365     6174     6106     6215 
    6467     6623     6509     6284     6205     6355     6544     6616 
    6478     6119     5914     6037     6114     6168     6450     6562 
    6212     5877     6000     6470     6826     6725     6312     6031 
    6041     6054     5988     6141     6434     6516     6528     6679 
    6709     6457     6201     6315     6600     6516     6327     6447 
    6404     6068     5994     6228     6436     6538     6409     6007 
    5803     5988     6095     6089     6304     6528     6574     6700 
    6767     6555     6350     6219     6097     6210     6399     6367 
    6228     6112     6118     6299     6454     6508     6527     6404 
    6174     6052     6142     6390     6461     6237     6266     6686 
    6721     6195     5926     6119     6232     6262     6455     6555 
    6413     6262     6204     6346     6579     6459     6193     6208 
    6278     6327     6408     6299     6104     6097     6242     6430 
    6539     6498     6461     6486     6361     6126     6070     6145 
    6242     6386     6370     6180     6185     6388     6473     6458 
    6481     6381     6145     6211     6558     6558     6281     6269 
    6307     6092     6008     6301     6561     6473     6355     6411 
    6346     6156     6189     6393     6407     6237     6211     6334 
    6340     6216     6168     6264     6261     6142     6277     6588 
    6685     6574     6450     6413     6340     6185     6208     6308 
    6197     6084     6216     6484     6629     6534     6346     6178 
    6088     6147     6218     6299     6519     6586     6343     6120 
    6126     6237     6308     6390     6516     6507     6254     6053 
    6220     6416     6247     6133     6405     6617     6493     6296 
    6192     6197     6243     6218     6354     6717     6723     6246 
    5968     6120     6322     6363     6299     6297     6403     6415 
    6396     6484     6451     6289     6215     6165     6173     6299 
    6299     6142     6048     6110     6328     6555     6655     6647 
    6536     6397     6340     6223     5996     5995     6261     6416 
    6443     6517     6552     6492     6305     6049     5953     6037 
    6192     6404     6521     6547     6640     6561     6162     5929 
    6085     6274     6351     6444     6492     6389     6251     6250 
    6315     6278     6273     6474     6612     6504     6426     6374 
    6123     5977     6199     6388     6285     6210     6330     6386 
    6262     6192     6255     6296     6301     6405     6601     6646 
    6393     6050     5899     6042     6330     6470     6409     6362 
    6385     6400     6435     6409     6289     6323     6542     6566 
    6312     6189     6312     6355     6285     6274     6303     6365 
    6411     6400     6424     6254     5806     5680     6030     6355 
    6528     6644     6592     6354     6129     6056     6115     6239 
    6384     6565     6698     6651     6562     6475     6220     5989 
    6060     6297     6471     6528     6525     6466     6359     6291 
    6197     6093     6195     6405     6385     6150     6052     6208 
    6313     6226     6185     6331     6509     6547     6467     6365 
    6254     6200     6272     6401     6458     6373     6237     6172 
    6220     6345     6459     6548     6575     6419     6215     6208 
    6293     6266     6189     6196     6297     6397     6408     6343 
    6261     6231     6255     6261     6324     6502     6536     6319 
    6130     6133     6196     6210     6262     6392     6430     6365 
    6394     6504     6458     6223     6052     6147     6350     6411 
    6444     6542     6546     6511     6493     6370     6204     6150 
    6201     6247     6247     6257     6231     6147     6193     6394 
    6461     6328     6220     6192     6227     6389     6509     6415 
    6296     6301     6323     6309     6307     6327     6349     6361 
    6374     6376     6342     6358     6442     6417     6286     6238 
    6277     6266     6191     6193     6313     6430     6453     6372 
    6296     6280     6222     6212     6342     6413     6361     6315 
