Origin Time       2025/02/01 08:16:00
Lat.              33.667
Long.             130.927
Depth. (km)       8
Mag.              3.1
Station Code      FKO010
Station Lat.      33.4236
Station Long.     130.6691
Station Height(m) 61
Record Time       2025/02/01 08:17:07
Sampling Freq(Hz) 100Hz
Duration Time(s)  60
Dir.              N-S
Scale Factor      7845(gal)/8223790
Max. Acc. (gal)   1.864
Last Correction   2025/02/01 08:17:07
Memo.             
[...]
   -4166    -4164    -4168    -4164    -4159    -4167    -4170    -4166 
   -4166    -4166    -4164    -4163    -4163    -4164    -4163    -4166 
   -4167    -4166    -4166    -4168    -4168    -4168    -4166    -4166 
   -4168    -4163    -4166    -4170    -4164    -4166    -4171    -4166 
   -4163    -4164    -4166    -4167    -4168    -4168    -4167    -4166 
   -4168    -4166    -4164    -4170    -4166    -4166    -4170    -4166 
   -4164    -4168    -4170    -4164    -4162    -4168    -4167    -4159 
   -4162    -4168    -4167    -4162    -4166    -4174    -4167    -4160 
   -4166    -4168    -4163    -4162    -4167    -4167    -4162    -4164 
   -4167    -4164    -4170    -4171    -4163    -4163    -4166    -4168 
   -4168    -4166    -4167    -4163    -4164    -4174    -4167    -4164 
   -4168    -4166    -4167    -4170    -4167    -4166    -4163    -4164 
   -4168    -4163    -4163    -4167    -4168    -4164    -4164    -4167 
   -4167    -4167    -4170    -4164    -4164    -4168    -4166    -4167 
   -4170    -4166    -4166    -4166    -4164    -4168    -4166    -4160 
   -4166    -4168    -4167    -4166    -4163    -4168    -4172    -4168 
   -4166    -4163    -4162    -4164    -4166    -4168    -4167    -4163 
   -4171    -4168    -4160    -4166    -4168    -4163    -4163    -4164 
   -4170    -4168    -4166    -4168    -4166    -4164    -4166    -4164 
   -4164    -4170    -4170    -4163    -4164    -4168    -4163    -4163 
   -4168    -4164    -4163    -4166    -4166    -4164    -4163    -4167 
   -4171    -4168    -4164    -4164    -4167    -4168    -4164    -4164 
   -4170    -4171    -4167    -4167    -4167    -4167    -4166    -4162 
   -4166    -4170    -4167    -4164    -4166    -4164    -4167    -4168 
   -4164    -4162    -4164    -4167    -4166    -4167    -4168    -4167 
   -4167    -4166    -4164    -4166    -4163    -4164    -4170    -4167 
   -4164    -4166    -4166    -4166    -4164    -4167    -4170    -4164 
   -4162    -4166    -4164    -4166    -4167    -4167    -4168    -4164 
   -4162    -4167    -4168    -4164    -4163    -4164    -4168    -4164 
   -4164    -4171    -4164    -4155    -4162    -4170    -4166    -4164 
   -4167    -4166    -4168    -4168    -4162    -4163    -4171    -4171 
   -4164    -4164    -4167    -4168    -4166    -4166    -4171    -4168 
   -4163    -4167    -4166    -4163    -4167    -4164    -4163    -4166 
   -4164    -4164    -4166    -4164    -4167    -4170    -4170    -4167 
   -4164    -4167    -4168    -4168    -4167    -4159    -4160    -4168 
   -4168    -4166    -4163    -4164    -4171    -4168    -4164    -4166 
   -4167    -4170    -4168    -4164    -4167    -4167    -4162    -4160 
   -4168    -4171    -4163    -4164    -4168    -4166    -4167    -4164 
   -4162    -4170    -4167    -4164    -4166    -4167    -4166    -4163 
   -4166    -4168    -4164    -4167    -4164    -4160    -4168    -4167 
   -4166    -4171    -4163    -4163    -4168    -4163    -4166    -4167 
   -4163    -4164    -4164    -4163    -4164    -4166    -4167    -4163 
   -4163    -4166    -4167    -4170    -4163    -4160    -4167    -4167 
   -4167    -4168    -4164    -4164    -4166    -4168    -4170    -4166 
   -4164    -4167    -4168    -4166    -4166    -4171    -4167    -4163 
   -4167    -4163    -4167    -4171    -4162    -4166    -4170    -4162 
   -4167    -4171    -4164    -4164    -4164    -4164    -4166    -4167 
   -4171    -4167    -4164    -4167    -4164    -4164    -4167    -4163 
   -4163    -4167    -4167    -4168    -4167    -4167    -4168    -4163 
   -4166    -4168    -4166    -4166    -4170    -4167    -4160    -4160 
   -4167    -4166    -4162    -4168    -4170    -4164    -4162    -4163 
   -4167    -4170    -4167    -4164    -4167    -4166    -4167    -4166 
   -4164    -4167    -4170    -4168    -4168    -4164    -4162    -4166 
   -4166    -4164    -4168    -4168    -4162    -4164    -4174    -4170 
   -4160    -4162    -4164    -4168    -4171    -4164    -4163    -4170 
   -4170    -4164    -4164    -4168    -4171    -4167    -4164    -4166 
   -4166    -4167    -4167    -4164    -4167    -4168    -4168    -4166 
   -4164    -4167    -4168    -4168    -4167    -4168    -4170    -4164 
   -4163    -4166    -4166    -4166    -4168    -4166    -4164    -4168 
   -4164    -4160    -4170    -4167    -4162    -4167    -4164    -4163 
   -4170    -4167    -4167    -4166    -4159    -4168    -4168    -4159 
   -4164    -4170    -4168    -4162    -4160    -4167    -4164    -4163 
   -4170    -4167    -4166    -4166    -4163    -4164    -4167    -4167 
   -4170    -4167    -4167    -4167    -4166    -4168    -4166    -4162 
   -4164    -4168    -4168    -4166    -4164    -4166    -4166    -4166 
   -4168    -4166    -4166    -4170    -4168    -4164    -4168    -4170 
   -4164    -4163    -4164    -4167    -4167    -4166    -4167    -4166 
   -4163    -4164    -4167    -4167    -4167    -4168    -4167    -4164 
   -4164    -4166    -4164    -4166    -4168    -4166    -4168    -4170 
   -4167    -4167    -4166    -4164    -4168    -4170    -4166    -4162 
   -4163    -4166    -4164    -4167    -4168    -4167    -4170    -4168 
   -4163    -4164    -4164    -4164    -4164    -4164    -4166    -4166 
   -4164    -4168    -4167    -4162    -4164    -4163    -4162    -4168 
   -4166    -4162    -4166    -4170    -4168    -4166    -4167    -4167 
   -4167    -4171    -4171    -4166    -4164    -4167    -4167    -4163 
   -4164    -4170    -4166    -4163    -4166    -4164    -4164    -4166 
   -4164    -4167    -4168    -4167    -4163    -4162    -4168    -4168 
   -4162    -4166    -4168    -4166    -4167    -4167    -4164    -4163 
   -4167    -4168    -4166    -4166    -4170    -4164    -4163    -4167 
   -4167    -4168    -4164    -4160    -4164    -4167    -4167    -4164 
   -4162    -4164    -4166    -4163    -4166    -4166    -4166    -4166 
   -4163    -4167    -4168    -4164    -4171    -4167    -4160    -4167 
   -4167    -4166    -4166    -4164    -4166    -4167    -4167    -4166 
   -4164    -4164    -4163    -4164    -4168    -4164    -4164    -4167 
   -4167    -4164    -4167    -4168    -4166    -4167    -4167    -4166 
   -4167    -4163    -4163    -4168    -4168    -4163    -4164    -4167 
   -4166    -4164    -4168    -4167    -4162    -4164    -4170    -4166 
   -4164    -4168    -4167    -4162    -4168    -4172    -4163    -4162 
   -4170    -4164    -4164    -4170    -4164    -4164    -4167    -4164 
   -4166    -4166    -4163    -4166    -4167    -4167    -4167    -4167 
   -4167    -4166    -4166    -4167    -4164    -4163    -4168    -4170 
   -4163    -4163    -4167    -4162    -4159    -4170    -4171    -4162 
   -4163    -4167    -4164    -4164    -4166    -4163    -4168    -4171 
   -4168    -4170    -4162    -4159    -4172    -4167    -4160    -4168 
   -4166    -4162    -4168    -4167    -4160    -4166    -4168    -4163 
   -4168    -4168    -4159    -4166    -4172    -4166    -4164    -4167 
   -4166    -4164    -4164    -4166    -4167    -4167    -4164    -4164 
   -4168    -4163    -4159    -4167    -4166    -4163    -4172    -4164 
   -4160    -4172    -4166    -4158    -4167    -4166    -4166    -4167 
   -4163    -4164    -4166    -4166    -4164    -4160    -4166    -4170 
   -4168    -4168    -4160    -4162    -4174    -4168    -4158    -4163 
   -4168    -4166    -4163    -4166    -4168    -4167    -4167    -4172 
   -4167    -4159    -4163    -4164    -4164    -4171    -4168    -4166 
   -4163    -4155    -4164    -4172    -4166    -4164    -4168    -4168 
   -4164    -4162    -4163    -4167    -4167    -4166    -4166    -4167 
   -4168    -4162    -4160    -4164    -4167    -4170    -4167    -4162 
   -4160    -4164    -4167    -4170    -4172    -4166    -4160    -4167 
   -4170    -4162    -4159    -4168    -4168    -4163    -4163    -4166 
   -4166    -4162    -4160    -4167    -4167    -4164    -4168    -4164 
   -4163    -4164    -4159    -4164    -4172    -4167    -4159    -4163 
   -4167    -4162    -4162    -4170    -4167    -4164    -4166    -4164 
   -4164    -4163    -4160    -4168    -4171    -4168    -4167    -4164 
   -4163    -4163    -4164    -4167    -4166    -4164    -4163    -4162 
   -4166    -4167    -4163    -4166    -4167    -4163    -4167    -4167 
   -4166    -4170    -4164    -4162    -4168    -4167    -4166    -4167 
   -4166    -4163    -4163    -4168    -4167    -4163    -4164    -4164 
   -4163    -4166    -4164    -4164    -4166    -4167    -4172    -4163 
   -4160    -4172    -4168    -4162    -4167    -4168    -4166    -4167 
   -4167    -4162    -4163    -4168    -4160    -4162    -4170    -4164 
   -4162    -4167    -4166    -4164    -4166    -4164    -4164    -4167 
   -4166    -4163    -4166    -4168    -4167    -4164    -4167    -4170 
   -4164    -4160    -4166    -4167    -4164    -4166    -4168    -4164 
   -4163    -4166    -4166    -4163    -4162    -4166    -4170    -4167 
   -4167    -4170    -4166    -4163    -4164    -4166    -4170    -4170 
   -4167    -4167    -4166    -4162    -4163    -4166    -4166    -4167 
   -4167    -4166    -4166    -4166    -4164    -4167    -4162    -4153 
   -4160    -4174    -4175    -4168    -4175    -4195    -4185    -4151 
   -4155    -4152    -4121    -4158    -4214    -4176    -4145    -4171 
   -4162    -4144    -4164    -4175    -4180    -4162    -4116    -4167 
   -4245    -4189    -4143    -4175    -4114    -4074    -4202    -4271 
   -4179    -4140    -4172    -4149    -4131    -4147    -4131    -4151 
   -4233    -4247    -4194    -4152    -4114    -4109    -4152    -4194 
   -4197    -4156    -4113    -4131    -4222    -4268    -4183    -4124 
   -4156    -4160    -4156    -4153    -4101    -4108    -4197    -4240 
   -4213    -4158    -4122    -4156    -4168    -4114    -4144    -4237 
   -4217    -4141    -4144    -4175    -4170    -4151    -4155    -4176 
   -4175    -4144    -4137    -4155    -4187    -4244    -4220    -4120 
   -4121    -4180    -4166    -4144    -4144    -4120    -4124    -4152 
   -4166    -4197    -4230    -4214    -4191    -4187    -4144    -4097 
   -4143    -4179    -4133    -4149    -4220    -4207    -4171    -4159 
   -4145    -4151    -4172    -4179    -4182    -4179    -4153    -4131 
   -4140    -4145    -4137    -4167    -4218    -4233    -4195    -4122 
   -4095    -4141    -4190    -4213    -4218    -4170    -4125    -4158 
   -4178    -4137    -4140    -4191    -4202    -4167    -4126    -4101 
   -4131    -4193    -4209    -4198    -4190    -4180    -4183    -4139 
   -4079    -4155    -4230    -4163    -4162    -4255    -4202    -4093 
   -4135    -4167    -4122    -4164    -4217    -4191    -4195    -4191 
   -4124    -4094    -4125    -4160    -4176    -4164    -4172    -4210 
   -4186    -4114    -4129    -4209    -4221    -4166    -4147    -4178 
   -4193    -4148    -4116    -4172    -4193    -4129    -4159    -4233 
   -4199    -4160    -4171    -4147    -4104    -4098    -4145    -4195 
   -4193    -4167    -4178    -4197    -4187    -4179    -4175    -4155 
   -4187    -4232    -4148    -4074    -4155    -4186    -4110    -4121 
   -4179    -4182    -4189    -4185    -4148    -4155    -4194    -4178 
   -4128    -4141    -4201    -4218    -4164    -4114    -4147    -4189 
   -4175    -4180    -4201    -4189    -4172    -4166    -4164    -4152 
   -4124    -4118    -4144    -4193    -4232    -4195    -4143    -4158 
   -4178    -4163    -4145    -4131    -4136    -4156    -4168    -4199 
   -4239    -4232    -4180    -4135    -4141    -4167    -4156    -4137 
   -4137    -4160    -4195    -4174    -4117    -4102    -4109    -4152 
   -4240    -4268    -4245    -4222    -4167    -4143    -4158    -4117 
   -4109    -4193    -4179    -4091    -4152    -4228    -4148    -4104 
   -4160    -4186    -4191    -4197    -4182    -4170    -4140    -4145 
   -4218    -4178    -4058    -4135    -4275    -4213    -4121    -4139 
   -4159    -4178    -4214    -4205    -4170    -4141    -4131    -4162 
   -4189    -4180    -4194    -4168    -4086    -4082    -4121    -4141 
   -4183    -4199    -4213    -4236    -4167    -4137    -4222    -4229 
   -4159    -4141    -4156    -4164    -4148    -4112    -4135    -4220 
   -4195    -4055    -4039    -4156    -4225    -4247    -4225    -4174 
   -4201    -4187    -4091    -4117    -4195    -4202    -4191    -4152 
   -4137    -4203    -4203    -4124    -4145    -4240    -4202    -4095 
   -4099    -4117    -4086    -4122    -4182    -4213    -4253    -4249 
   -4203    -4191    -4179    -4141    -4143    -4163    -4121    -4077 
   -4097    -4124    -4166    -4240    -4230    -4149    -4136    -4144 
   -4141    -4199    -4259    -4271    -4266    -4205    -4113    -4085 
   -4113    -4128    -4105    -4105    -4151    -4160    -4147    -4180 
   -4205    -4189    -4174    -4155    -4147    -4205    -4260    -4199 
   -4125    -4153    -4162    -4131    -4162    -4185    -4190    -4213 
   -4163    -4124    -4160    -4151    -4114    -4129    -4145    -4128 
   -4135    -4175    -4174    -4187    -4261    -4252    -4175    -4183 
   -4207    -4159    -4122    -4132    -4129    -4118    -4155    -4206 
   -4164    -4095    -4136    -4198    -4193    -4189    -4178    -4155 
   -4158    -4187    -4232    -4228    -4214    -4259    -4194    -4072 
   -4121    -4212    -4186    -4149    -4207    -4320    -4340    -4237 
   -4097    -3973    -3896    -3816    -3731    -3847    -4221    -4594 
   -4752    -4726    -4542    -4153    -3769    -3707    -4000    -4513 
   -4945    -4847    -4202    -3422    -2687    -2212    -2583    -3789 
   -4887    -5289    -5213    -4899    -4449    -4118    -4124    -4347 
   -4487    -4573    -4982    -5518    -5387    -4561    -3840    -3478 
   -3146    -2891    -2979    -3346    -3774    -4004    -3831    -3550 
   -3700    -4332    -5020    -5313    -5076    -4711    -4595    -4596 
   -4531    -4311    -3870    -3447    -3412    -3742    -4133    -4513 
   -4857    -4827    -4329    -3746    -3343    -3207    -3411    -3808 
   -4059    -4055    -4066    -4317    -4698    -5000    -5157    -5107 
   -4766    -4214    -3732    -3557    -3596    -3634    -3674    -3815 
   -4074    -4356    -4550    -4641    -4581    -4332    -4016    -3789 
   -3805    -4039    -4153    -4113    -4260    -4544    -4615    -4480 
   -4360    -4280    -4149    -3973    -3823    -3765    -3812    -3878 
   -3952    -4082    -4164    -4190    -4267    -4295    -4249    -4328 
   -4449    -4401    -4291    -4221    -4102    -4000    -4078    -4282 
   -4391    -4326    -4225    -4180    -4129    -4032    -3939    -3912 
   -3952    -4027    -4079    -4086    -4133    -4228    -4217    -4128 
   -4145    -4271    -4329    -4284    -4278    -4313    -4268    -4155 
   -4035    -3997    -4158    -4330    -4317    -4306    -4344    -4248 
   -4078    -3939    -3851    -3885    -4004    -4112    -4214    -4259 
   -4233    -4240    -4229    -4151    -4164    -4229    -4191    -4194 
   -4313    -4378    -4352    -4237    -4031    -3919    -3951    -3991 
   -4074    -4187    -4210    -4243    -4333    -4305    -4202    -4171 
   -4164    -4171    -4162    -4081    -4054    -4097    -4089    -4079 
   -4085    -4050    -4083    -4176    -4179    -4174    -4282    -4401 
   -4425    -4382    -4294    -4164    -4043    -4012    -4081    -4202 
   -4306    -4297    -4149    -3985    -3932    -3997    -4058    -4051 
   -4077    -4174    -4214    -4180    -4225    -4338    -4375    -4352 
   -4298    -4170    -4089    -4112    -4110    -4124    -4210    -4239 
   -4197    -4170    -4125    -4062    -4055    -4077    -4085    -4113 
   -4124    -4079    -4041    -4045    -4128    -4288    -4378    -4356 
   -4364    -4379    -4299    -4221    -4179    -4089    -4031    -4081 
   -4109    -4090    -4105    -4139    -4166    -4148    -4094    -4089 
   -4097    -4094    -4132    -4175    -4226    -4286    -4276    -4252 
   -4257    -4229    -4189    -4178    -4174    -4156    -4133    -4102 
   -4058    -4043    -4070    -4099    -4176    -4282    -4284    -4179 
   -4077    -4068    -4148    -4221    -4247    -4255    -4267    -4270 
   -4239    -4175    -4091    -4047    -4064    -4040    -4016    -4140 
   -4264    -4241    -4197    -4202    -4214    -4186    -4128    -4125 
   -4179    -4224    -4253    -4267    -4240    -4148    -4031    -3987 
   -4020    -4070    -4158    -4234    -4245    -4252    -4249    -4217 
   -4218    -4261    -4264    -4176    -4075    -4058    -4087    -4108 
   -4126    -4156    -4203    -4209    -4185    -4224    -4221    -4124 
   -4121    -4201    -4185    -4116    -4099    -4091    -4083    -4158 
   -4239    -4226    -4207    -4191    -4129    -4097    -4106    -4126 
   -4195    -4241    -4206    -4179    -4176    -4182    -4218    -4220 
   -4174    -4156    -4178    -4180    -4147    -4097    -4045    -4009 
   -4035    -4118    -4201    -4253    -4317    -4379    -4338    -4206 
   -4102    -4059    -4086    -4151    -4145    -4118    -4144    -4145 
   -4160    -4226    -4209    -4162    -4202    -4214    -4182    -4191 
   -4155    -4101    -4124    -4124    -4102    -4137    -4185    -4226 
   -4237    -4191    -4183    -4193    -4121    -4064    -4116    -4183 
   -4179    -4143    -4141    -4176    -4185    -4140    -4137    -4213 
   -4259    -4230    -4191    -4171    -4180    -4190    -4163    -4143 
   -4136    -4129    -4179    -4226    -4155    -4044    -4027    -4077 
   -4133    -4202    -4284    -4314    -4249    -4153    -4081    -4045 
   -4067    -4120    -4185    -4232    -4243    -4290    -4355    -4322 
   -4221    -4144    -4063    -3981    -3971    -4048    -4156    -4229 
   -4214    -4141    -4104    -4124    -4178    -4255    -4307    -4287 
   -4202    -4116    -4064    -4044    -4099    -4222    -4276    -4228 
   -4179    -4176    -4176    -4137    -4074    -4035    -4079    -4213 
   -4317    -4279    -4183    -4151    -4136    -4085    -4094    -4228 
   -4352    -4325    -4210    -4098    -3977    -3923    -4001    -4117 
   -4205    -4243    -4213    -4190    -4218    -4255    -4253    -4226 
   -4199    -4160    -4141    -4155    -4140    -4116    -4106    -4099 
   -4147    -4209    -4198    -4175    -4189    -4178    -4126    -4108 
   -4174    -4247    -4260    -4275    -4284    -4229    -4144    -4089 
   -4059    -4035    -4023    -4054    -4140    -4218    -4234    -4230 
   -4205    -4131    -4086    -4121    -4193    -4251    -4259    -4236 
   -4222    -4191    -4120    -4066    -4094    -4186    -4226    -4175 
   -4139    -4158    -4194    -4225    -4202    -4141    -4136    -4152 
   -4131    -4126    -4140    -4124    -4110    -4112    -4118    -4171 
   -4244    -4266    -4241    -4205    -4164    -4141    -4152    -4166 
   -4149    -4124    -4120    -4136    -4183    -4241    -4240    -4176 
   -4094    -4045    -4102    -4216    -4260    -4230    -4202    -4187 
   -4156    -4137    -4162    -4191    -4186    -4156    -4117    -4082 
   -4062    -4074    -4113    -4162    -4226    -4301    -4326    -4283 
   -4217    -4163    -4109    -4074    -4105    -4162    -4183    -4186 
   -4163    -4132    -4122    -4102    -4091    -4129    -4159    -4168 
   -4187    -4199    -4234    -4279    -4252    -4190    -4160    -4148 
   -4145    -4158    -4149    -4135    -4141    -4131    -4097    -4102 
   -4140    -4156    -4155    -4191    -4252    -4260    -4206    -4158 
