Origin Time       2025/02/01 08:16:00
Lat.              33.667
Long.             130.927
Depth. (km)       8
Mag.              3.1
Station Code      FKO010
Station Lat.      33.4236
Station Long.     130.6691
Station Height(m) 61
Record Time       2025/02/01 08:17:07
Sampling Freq(Hz) 100Hz
Duration Time(s)  60
Dir.              E-W
Scale Factor      7845(gal)/8223790
Max. Acc. (gal)   2.097
Last Correction   2025/02/01 08:17:07
Memo.             
[...]
   -8568    -8571    -8567    -8567    -8568    -8565    -8569    -8571 
   -8568    -8572    -8573    -8568    -8567    -8568    -8567    -8567 
   -8569    -8572    -8568    -8568    -8569    -8565    -8564    -8568 
   -8565    -8567    -8571    -8568    -8567    -8569    -8568    -8568 
   -8568    -8567    -8568    -8569    -8569    -8568    -8568    -8568 
   -8567    -8569    -8568    -8565    -8569    -8571    -8569    -8573 
   -8568    -8563    -8568    -8568    -8568    -8567    -8565    -8568 
   -8569    -8568    -8569    -8569    -8565    -8567    -8567    -8567 
   -8571    -8572    -8563    -8563    -8569    -8568    -8571    -8571 
   -8564    -8568    -8569    -8564    -8569    -8569    -8563    -8565 
   -8567    -8565    -8569    -8569    -8567    -8568    -8567    -8564 
   -8568    -8569    -8565    -8565    -8568    -8568    -8569    -8567 
   -8569    -8573    -8565    -8565    -8572    -8569    -8569    -8569 
   -8565    -8567    -8567    -8564    -8568    -8572    -8567    -8565 
   -8567    -8567    -8569    -8571    -8567    -8569    -8569    -8568 
   -8571    -8571    -8568    -8568    -8568    -8568    -8569    -8569 
   -8565    -8568    -8569    -8563    -8564    -8567    -8568    -8571 
   -8569    -8571    -8571    -8565    -8561    -8564    -8567    -8567 
   -8569    -8572    -8568    -8567    -8568    -8567    -8568    -8571 
   -8565    -8563    -8567    -8568    -8569    -8569    -8569    -8567 
   -8565    -8568    -8567    -8567    -8565    -8565    -8571    -8571 
   -8568    -8565    -8565    -8568    -8567    -8564    -8569    -8572 
   -8568    -8568    -8568    -8568    -8567    -8567    -8569    -8571 
   -8572    -8569    -8564    -8568    -8568    -8567    -8567    -8567 
   -8569    -8572    -8569    -8567    -8565    -8565    -8568    -8572 
   -8571    -8567    -8565    -8568    -8568    -8565    -8567    -8568 
   -8564    -8568    -8572    -8571    -8569    -8567    -8563    -8567 
   -8569    -8571    -8571    -8567    -8564    -8564    -8564    -8567 
   -8569    -8569    -8569    -8568    -8565    -8565    -8571    -8568 
   -8564    -8563    -8565    -8567    -8571    -8572    -8564    -8561 
   -8569    -8571    -8565    -8565    -8568    -8567    -8565    -8567 
   -8567    -8564    -8567    -8569    -8569    -8571    -8567    -8564 
   -8567    -8571    -8571    -8564    -8563    -8569    -8569    -8567 
   -8568    -8564    -8568    -8572    -8567    -8567    -8571    -8572 
   -8571    -8565    -8565    -8573    -8571    -8565    -8568    -8569 
   -8568    -8568    -8567    -8564    -8563    -8568    -8568    -8568 
   -8568    -8567    -8572    -8575    -8568    -8565    -8567    -8569 
   -8571    -8564    -8564    -8571    -8571    -8568    -8568    -8567 
   -8565    -8571    -8569    -8563    -8568    -8568    -8563    -8569 
   -8571    -8567    -8571    -8567    -8564    -8571    -8564    -8564 
   -8571    -8565    -8567    -8569    -8568    -8569    -8571    -8567 
   -8567    -8571    -8568    -8563    -8568    -8573    -8565    -8568 
   -8569    -8565    -8571    -8572    -8564    -8567    -8567    -8563 
   -8567    -8572    -8569    -8565    -8568    -8569    -8571    -8571 
   -8567    -8567    -8567    -8568    -8571    -8567    -8565    -8569 
   -8567    -8569    -8571    -8564    -8567    -8568    -8565    -8569 
   -8571    -8568    -8569    -8569    -8567    -8567    -8567    -8565 
   -8567    -8572    -8572    -8569    -8569    -8567    -8564    -8563 
   -8568    -8573    -8571    -8567    -8564    -8560    -8565    -8571 
   -8568    -8568    -8572    -8569    -8565    -8565    -8567    -8569 
   -8568    -8563    -8567    -8569    -8567    -8568    -8572    -8572 
   -8568    -8563    -8561    -8565    -8569    -8567    -8568    -8576 
   -8568    -8557    -8563    -8569    -8571    -8568    -8565    -8567 
   -8567    -8567    -8571    -8568    -8561    -8565    -8568    -8567 
   -8569    -8569    -8565    -8568    -8568    -8568    -8572    -8568 
   -8561    -8571    -8575    -8563    -8563    -8571    -8565    -8564 
   -8569    -8568    -8567    -8569    -8568    -8568    -8569    -8569 
   -8567    -8565    -8567    -8568    -8568    -8572    -8571    -8564 
   -8563    -8568    -8569    -8568    -8568    -8568    -8565    -8564 
   -8569    -8569    -8561    -8564    -8573    -8571    -8564    -8567 
   -8565    -8565    -8569    -8569    -8567    -8567    -8568    -8568 
   -8568    -8569    -8569    -8567    -8565    -8567    -8573    -8568 
   -8560    -8568    -8568    -8560    -8567    -8572    -8567    -8561 
   -8563    -8567    -8569    -8571    -8571    -8564    -8567    -8571 
   -8564    -8567    -8571    -8565    -8565    -8569    -8565    -8565 
   -8567    -8568    -8569    -8567    -8564    -8568    -8568    -8565 
   -8569    -8572    -8567    -8568    -8569    -8563    -8567    -8573 
   -8568    -8569    -8573    -8567    -8565    -8568    -8564    -8567 
   -8572    -8569    -8568    -8567    -8565    -8567    -8567    -8565 
   -8571    -8572    -8567    -8565    -8568    -8567    -8565    -8571 
   -8572    -8571    -8568    -8565    -8568    -8569    -8567    -8569 
   -8569    -8563    -8565    -8569    -8565    -8567    -8569    -8567 
   -8568    -8568    -8568    -8569    -8568    -8567    -8568    -8568 
   -8567    -8567    -8565    -8567    -8568    -8568    -8568    -8567 
   -8567    -8567    -8569    -8569    -8568    -8565    -8565    -8567 
   -8568    -8565    -8563    -8567    -8571    -8569    -8567    -8565 
   -8568    -8568    -8567    -8564    -8568    -8569    -8565    -8567 
   -8571    -8567    -8568    -8571    -8567    -8568    -8568    -8567 
   -8569    -8567    -8565    -8568    -8564    -8567    -8569    -8563 
   -8564    -8568    -8567    -8568    -8568    -8563    -8565    -8569 
   -8571    -8571    -8569    -8567    -8565    -8567    -8567    -8568 
   -8572    -8571    -8567    -8567    -8565    -8567    -8568    -8565 
   -8567    -8571    -8572    -8569    -8567    -8565    -8564    -8565 
   -8571    -8571    -8565    -8565    -8568    -8569    -8568    -8567 
   -8568    -8567    -8565    -8568    -8571    -8569    -8569    -8568 
   -8567    -8568    -8569    -8565    -8567    -8567    -8567    -8573 
   -8571    -8564    -8569    -8569    -8564    -8567    -8569    -8569 
   -8571    -8568    -8565    -8568    -8569    -8567    -8569    -8571 
   -8567    -8568    -8572    -8571    -8567    -8563    -8565    -8569 
   -8567    -8567    -8569    -8569    -8567    -8569    -8571    -8567 
   -8567    -8569    -8567    -8568    -8565    -8563    -8568    -8571 
   -8567    -8567    -8569    -8568    -8568    -8567    -8564    -8568 
   -8567    -8564    -8569    -8569    -8564    -8569    -8569    -8564 
   -8565    -8567    -8569    -8575    -8568    -8563    -8568    -8569 
   -8567    -8565    -8565    -8568    -8568    -8565    -8568    -8572 
   -8567    -8563    -8568    -8569    -8565    -8567    -8567    -8564 
   -8567    -8572    -8569    -8571    -8573    -8568    -8563    -8568 
   -8567    -8563    -8569    -8572    -8571    -8571    -8565    -8564 
   -8569    -8564    -8567    -8576    -8571    -8565    -8571    -8568 
   -8565    -8571    -8569    -8565    -8571    -8567    -8564    -8572 
   -8565    -8560    -8576    -8572    -8557    -8567    -8576    -8568 
   -8569    -8571    -8564    -8567    -8572    -8569    -8567    -8564 
   -8565    -8572    -8569    -8567    -8567    -8561    -8563    -8572 
   -8573    -8568    -8565    -8567    -8568    -8565    -8564    -8567 
   -8569    -8572    -8573    -8571    -8563    -8563    -8571    -8568 
   -8565    -8575    -8572    -8563    -8569    -8572    -8561    -8564 
   -8573    -8568    -8564    -8571    -8573    -8568    -8564    -8564 
   -8567    -8569    -8569    -8568    -8569    -8565    -8564    -8569 
   -8569    -8567    -8568    -8565    -8565    -8568    -8568    -8568 
   -8567    -8568    -8569    -8567    -8564    -8567    -8568    -8568 
   -8567    -8567    -8565    -8567    -8569    -8568    -8560    -8563 
   -8571    -8568    -8568    -8571    -8565    -8567    -8571    -8568 
   -8568    -8571    -8565    -8564    -8569    -8567    -8563    -8568 
   -8568    -8569    -8572    -8567    -8564    -8571    -8569    -8567 
   -8571    -8568    -8564    -8568    -8567    -8567    -8569    -8567 
   -8567    -8572    -8571    -8564    -8563    -8567    -8571    -8573 
   -8568    -8564    -8568    -8567    -8564    -8567    -8568    -8567 
   -8567    -8568    -8568    -8569    -8572    -8568    -8564    -8567 
   -8569    -8572    -8569    -8561    -8569    -8573    -8563    -8568 
   -8573    -8561    -8564    -8571    -8563    -8567    -8576    -8567 
   -8563    -8569    -8567    -8565    -8569    -8565    -8568    -8569 
   -8565    -8568    -8569    -8565    -8571    -8571    -8561    -8564 
   -8569    -8564    -8564    -8569    -8569    -8565    -8567    -8567 
   -8564    -8567    -8571    -8569    -8567    -8568    -8568    -8564 
   -8564    -8568    -8568    -8565    -8565    -8567    -8568    -8568 
   -8564    -8564    -8571    -8569    -8567    -8568    -8563    -8563 
   -8569    -8571    -8569    -8569    -8569    -8569    -8564    -8557 
   -8557    -8564    -8576    -8588    -8580    -8554    -8546    -8573 
   -8614    -8623    -8584    -8549    -8522    -8502    -8584    -8653 
   -8521    -8414    -8511    -8586    -8581    -8641    -8668    -8561 
   -8517    -8638    -8704    -8580    -8434    -8428    -8536    -8633 
   -8642    -8600    -8542    -8523    -8611    -8671    -8554    -8429 
   -8446    -8532    -8607    -8635    -8614    -8583    -8548    -8553 
   -8642    -8683    -8567    -8459    -8513    -8610    -8652    -8649 
   -8559    -8452    -8465    -8541    -8573    -8567    -8544    -8519 
   -8560    -8657    -8667    -8568    -8506    -8552    -8626    -8603 
   -8557    -8595    -8573    -8484    -8506    -8619    -8652    -8576 
   -8556    -8606    -8587    -8525    -8505    -8526    -8548    -8509 
   -8507    -8615    -8641    -8526    -8529    -8653    -8657    -8575 
   -8523    -8525    -8627    -8665    -8548    -8515    -8600    -8608 
   -8541    -8499    -8511    -8556    -8567    -8557    -8568    -8559 
   -8530    -8542    -8602    -8633    -8571    -8536    -8629    -8676 
   -8580    -8498    -8530    -8581    -8561    -8532    -8564    -8595 
   -8568    -8537    -8568    -8608    -8565    -8507    -8568    -8634 
   -8559    -8509    -8587    -8598    -8533    -8561    -8607    -8563 
   -8538    -8577    -8561    -8534    -8591    -8617    -8561    -8544 
   -8588    -8606    -8572    -8553    -8544    -8523    -8568    -8653 
   -8629    -8507    -8468    -8556    -8579    -8511    -8534    -8615 
   -8595    -8544    -8586    -8650    -8626    -8541    -8541    -8617 
   -8607    -8542    -8553    -8581    -8546    -8527    -8563    -8575 
   -8533    -8496    -8530    -8575    -8563    -8565    -8603    -8575 
   -8538    -8595    -8634    -8584    -8568    -8648    -8646    -8526 
   -8521    -8595    -8559    -8532    -8571    -8544    -8498    -8510 
   -8554    -8584    -8540    -8507    -8581    -8646    -8634    -8600 
   -8590    -8621    -8598    -8500    -8498    -8577    -8599    -8554 
   -8518    -8552    -8606    -8615    -8594    -8550    -8527    -8545 
   -8556    -8568    -8573    -8557    -8556    -8576    -8604    -8613 
   -8571    -8530    -8534    -8556    -8596    -8650    -8641    -8552 
   -8507    -8568    -8630    -8576    -8488    -8491    -8510    -8527 
   -8598    -8644    -8625    -8557    -8495    -8533    -8622    -8642 
   -8565    -8496    -8546    -8615    -8619    -8635    -8604    -8476 
   -8433    -8530    -8633    -8658    -8579    -8507    -8556    -8634 
   -8645    -8580    -8505    -8515    -8568    -8560    -8553    -8577 
   -8502    -8415    -8556    -8764    -8679    -8482    -8572    -8726 
   -8603    -8453    -8533    -8629    -8519    -8407    -8549    -8707 
   -8607    -8503    -8579    -8595    -8513    -8532    -8621    -8596 
   -8471    -8506    -8733    -8742    -8488    -8434    -8599    -8618 
   -8522    -8498    -8544    -8625    -8685    -8681    -8590    -8433 
   -8380    -8495    -8573    -8533    -8522    -8565    -8599    -8665 
   -8741    -8704    -8606    -8560    -8552    -8556    -8513    -8418 
   -8448    -8552    -8519    -8503    -8653    -8725    -8595    -8483 
   -8521    -8604    -8644    -8631    -8600    -8600    -8614    -8588 
   -8529    -8455    -8460    -8586    -8623    -8503    -8486    -8603 
   -8617    -8567    -8590    -8583    -8505    -8494    -8594    -8679 
   -8623    -8517    -8526    -8633    -8665    -8576    -8549    -8611 
   -8554    -8453    -8499    -8571    -8536    -8514    -8611    -8672 
   -8576    -8502    -8540    -8569    -8591    -8598    -8567    -8577 
   -8602    -8584    -8595    -8630    -8587    -8490    -8482    -8544 
   -8552    -8544    -8577    -8610    -8607    -8546    -8517    -8607 
   -8668    -8572    -8479    -8530    -8602    -8540    -8483    -8550 
   -8604    -8546    -8505    -8629    -8752    -8634    -8505    -8575 
   -8602    -8519    -8541    -8553    -8448    -8471    -8591    -8594 
   -8626    -8762    -8739    -8533    -8429    -8468    -8492    -8549 
   -8604    -8523    -8482    -8633    -8806    -8833    -8734    -8614 
   -8410    -8066    -7788    -7682    -7785    -8170    -8554    -8733 
   -9011    -9502    -9841    -9802    -9649    -9610    -9463    -9005 
   -8160    -6993    -6369    -6987    -8048    -8662    -9023    -9161 
   -8498    -7446    -7510    -8822    -9706    -9552    -9472    -9653 
   -9305    -8700    -8433    -8151    -7732    -7815    -8387    -8556 
   -8145    -7969    -8301    -8418    -8040    -8090    -9009    -9582 
   -9113    -8667    -8784    -8853    -8907    -9275    -9310    -8572 
   -7893    -7722    -7469    -7339    -8044    -9089    -9493    -9181 
   -8841    -8891    -9045    -8947    -8573    -8067    -7763    -7954 
   -8407    -8633    -8645    -8731    -8864    -9000    -9196    -9159 
   -8716    -8295    -8131    -7960    -7823    -8008    -8410    -8694 
   -8768    -8769    -8770    -8722    -8599    -8486    -8521    -8760 
   -9063    -9080    -8731    -8509    -8606    -8595    -8410    -8356 
   -8402    -8380    -8336    -8382    -8527    -8583    -8418    -8284 
   -8411    -8583    -8619    -8675    -8711    -8664    -8749    -8896 
   -8829    -8646    -8534    -8563    -8700    -8734    -8658    -8669 
   -8619    -8325    -8060    -8095    -8279    -8436    -8563    -8575 
   -8505    -8554    -8676    -8706    -8667    -8552    -8375    -8436 
   -8803    -9069    -9070    -8968    -8837    -8664    -8414    -8181 
   -8144    -8230    -8262    -8326    -8568    -8835    -8901    -8772 
   -8552    -8425    -8506    -8634    -8698    -8681    -8534    -8411 
   -8486    -8556    -8422    -8336    -8511    -8684    -8716    -8777 
   -8770    -8600    -8495    -8511    -8498    -8505    -8592    -8641 
   -8658    -8698    -8600    -8351    -8228    -8306    -8384    -8409 
   -8488    -8619    -8716    -8804    -8889    -8874    -8773    -8695 
   -8645    -8623    -8644    -8588    -8394    -8263    -8306    -8375 
   -8376    -8380    -8403    -8398    -8476    -8761    -9015    -8962 
   -8734    -8590    -8561    -8587    -8673    -8702    -8548    -8374 
   -8349    -8418    -8505    -8509    -8402    -8407    -8590    -8726 
   -8777    -8803    -8731    -8577    -8537    -8654    -8653    -8487 
   -8430    -8440    -8383    -8446    -8611    -8611    -8490    -8453 
   -8527    -8635    -8679    -8668    -8714    -8741    -8684    -8656 
   -8621    -8506    -8425    -8453    -8541    -8572    -8492    -8386 
   -8326    -8340    -8424    -8505    -8540    -8613    -8793    -8924 
   -8826    -8667    -8657    -8711    -8753    -8743    -8596    -8406 
   -8345    -8378    -8411    -8480    -8579    -8588    -8529    -8502 
   -8449    -8386    -8449    -8584    -8653    -8684    -8772    -8823 
   -8710    -8571    -8546    -8569    -8595    -8619    -8560    -8407 
   -8344    -8465    -8553    -8529    -8576    -8621    -8603    -8687 
   -8716    -8523    -8360    -8392    -8499    -8573    -8627    -8689 
   -8698    -8635    -8604    -8633    -8621    -8530    -8469    -8496 
   -8511    -8496    -8536    -8600    -8607    -8576    -8586    -8614 
   -8563    -8472    -8473    -8540    -8611    -8696    -8719    -8613 
   -8522    -8575    -8613    -8482    -8391    -8521    -8637    -8629 
   -8660    -8640    -8469    -8378    -8482    -8614    -8614    -8573 
   -8638    -8660    -8530    -8453    -8550    -8669    -8700    -8719 
   -8711    -8584    -8432    -8349    -8344    -8398    -8459    -8544 
   -8677    -8750    -8737    -8734    -8714    -8617    -8515    -8459 
   -8432    -8467    -8534    -8499    -8399    -8436    -8577    -8657 
   -8716    -8777    -8721    -8613    -8598    -8645    -8618    -8480 
   -8380    -8426    -8527    -8603    -8650    -8629    -8541    -8507 
   -8572    -8621    -8577    -8522    -8552    -8606    -8592    -8545 
   -8495    -8491    -8544    -8523    -8478    -8587    -8723    -8683 
   -8583    -8608    -8673    -8668    -8617    -8534    -8463    -8464 
   -8473    -8463    -8483    -8522    -8571    -8634    -8649    -8607 
   -8617    -8644    -8563    -8440    -8406    -8499    -8618    -8630 
   -8561    -8540    -8637    -8753    -8699    -8564    -8529    -8514 
   -8519    -8631    -8691    -8584    -8490    -8523    -8518    -8379 
   -8338    -8460    -8556    -8657    -8811    -8847    -8731    -8575 
   -8457    -8444    -8510    -8567    -8602    -8606    -8525    -8418 
   -8425    -8542    -8622    -8625    -8630    -8654    -8677    -8625 
   -8518    -8498    -8480    -8421    -8517    -8699    -8754    -8707 
   -8646    -8595    -8534    -8494    -8505    -8494    -8445    -8465 
   -8488    -8418    -8446    -8652    -8757    -8683    -8610    -8575 
   -8556    -8581    -8638    -8685    -8661    -8584    -8561    -8565 
   -8507    -8432    -8441    -8525    -8586    -8590    -8569    -8534 
   -8496    -8479    -8513    -8607    -8706    -8735    -8668    -8575 
   -8577    -8614    -8559    -8523    -8567    -8583    -8575    -8553 
   -8475    -8398    -8401    -8491    -8599    -8622    -8592    -8615 
   -8644    -8618    -8606    -8648    -8695    -8695    -8638    -8568 
   -8523    -8492    -8469    -8451    -8438    -8460    -8510    -8559 
   -8581    -8580    -8586    -8576    -8557    -8603    -8691    -8712 
   -8668    -8650    -8631    -8565    -8519    -8514    -8527    -8560 
   -8526    -8417    -8386    -8476    -8554    -8564    -8561    -8583 
   -8627    -8672    -8662    -8608    -8588    -8608    -8607    -8579 
   -8557    -8576    -8626    -8637    -8584    -8499    -8433    -8453 
   -8514    -8553    -8586    -8559    -8463    -8459    -8600    -8714 
   -8692    -8634    -8610    -8617    -8657    -8681    -8607    -8457 
   -8368    -8415    -8499    -8545    -8569    -8572    -8571    -8575 
   -8573    -8584    -8596    -8610    -8634    -8638    -8614    -8592 
   -8576    -8573    -8579    -8541    -8498    -8514    -8521    -8492 
   -8530    -8610    -8615    -8552    -8507    -8519    -8577    -8664 
   -8707    -8654    -8563    -8536    -8592    -8599    -8515    -8483 
