Origin Time       2025/02/01 08:16:00
Lat.              33.667
Long.             130.927
Depth. (km)       8
Mag.              3.1
Station Code      FKO010
Station Lat.      33.4236
Station Long.     130.6691
Station Height(m) 61
Record Time       2025/02/01 08:17:07
Sampling Freq(Hz) 100Hz
Duration Time(s)  60
Dir.              U-D
Scale Factor      7845(gal)/8223790
Max. Acc. (gal)   0.860
Last Correction   2025/02/01 08:17:07
Memo.             
[...]
    6631     6629     6627     6627     6629     6629     6627     6628 
    6627     6629     6632     6629     6628     6629     6629     6629 
    6631     6629     6629     6631     6628     6625     6628     6629 
    6628     6628     6629     6628     6628     6629     6627     6627 
    6627     6625     6629     6633     6629     6627     6627     6629 
    6629     6625     6627     6632     6632     6627     6628     6629 
    6627     6628     6632     6629     6628     6627     6628     6628 
    6627     6628     6631     6629     6629     6629     6628     6629 
    6629     6628     6629     6631     6628     6627     6628     6629 
    6631     6629     6629     6631     6629     6629     6629     6627 
    6628     6632     6631     6628     6628     6629     6627     6628 
    6629     6627     6628     6628     6625     6628     6631     6629 
    6629     6628     6628     6628     6628     6631     6632     6628 
    6624     6627     6628     6628     6631     6629     6628     6628 
    6628     6628     6627     6627     6631     6632     6629     6628 
    6629     6629     6629     6628     6627     6627     6627     6629 
    6632     6631     6629     6629     6631     6631     6629     6628 
    6628     6629     6628     6629     6631     6631     6627     6625 
    6627     6624     6624     6631     6629     6625     6629     6632 
    6628     6627     6627     6631     6632     6628     6628     6628 
    6627     6628     6629     6627     6627     6629     6628     6627 
    6629     6631     6628     6628     6628     6629     6629     6628 
    6628     6629     6629     6632     6631     6628     6629     6629 
    6629     6629     6627     6627     6629     6629     6629     6629 
    6629     6629     6628     6627     6629     6628     6627     6629 
    6632     6628     6625     6627     6627     6627     6629     6631 
    6629     6632     6632     6628     6628     6629     6629     6627 
    6627     6629     6629     6629     6629     6629     6629     6629 
    6629     6628     6627     6627     6631     6633     6629     6624 
    6625     6629     6628     6628     6631     6628     6627     6629 
    6632     6632     6631     6631     6631     6629     6629     6629 
    6628     6629     6629     6628     6628     6628     6628     6629 
    6629     6629     6628     6628     6629     6627     6625     6628 
    6628     6631     6631     6627     6627     6631     6631     6627 
    6625     6625     6629     6632     6628     6629     6631     6628 
    6629     6628     6627     6629     6631     6628     6628     6631 
    6631     6629     6628     6629     6629     6628     6627     6629 
    6628     6625     6625     6625     6628     6631     6631     6631 
    6629     6628     6628     6629     6629     6625     6627     6631 
    6629     6628     6628     6627     6628     6631     6628     6629 
    6629     6627     6629     6632     6629     6627     6628     6629 
    6631     6628     6625     6629     6632     6631     6631     6631 
    6629     6628     6628     6628     6628     6628     6628     6629 
    6631     6631     6628     6628     6628     6628     6631     6632 
    6629     6627     6628     6629     6629     6629     6631     6628 
    6625     6625     6627     6627     6628     6629     6628     6627 
    6629     6628     6625     6625     6629     6632     6631     6629 
    6628     6628     6628     6629     6628     6629     6628     6628 
    6629     6628     6627     6628     6627     6625     6629     6629 
    6629     6632     6631     6628     6628     6628     6628     6629 
    6629     6628     6628     6629     6628     6628     6628     6628 
    6631     6629     6625     6625     6628     6625     6627     6629 
    6631     6629     6628     6627     6627     6624     6627     6632 
    6632     6628     6629     6628     6627     6628     6631     6631 
    6631     6631     6627     6627     6627     6627     6627     6628 
    6628     6625     6627     6631     6631     6628     6628     6632 
    6631     6628     6628     6629     6628     6631     6635     6633 
    6627     6625     6629     6632     6632     6629     6629     6629 
    6631     6629     6629     6629     6627     6627     6629     6629 
    6629     6631     6629     6629     6628     6628     6631     6632 
    6631     6629     6627     6628     6628     6628     6631     6628 
    6624     6629     6632     6627     6628     6631     6625     6627 
    6631     6627     6625     6631     6633     6633     6631     6627 
    6625     6629     6632     6628     6627     6628     6627     6627 
    6629     6628     6627     6627     6628     6629     6629     6627 
    6628     6629     6627     6627     6628     6627     6628     6629 
    6627     6627     6629     6628     6628     6632     6631     6628 
    6627     6629     6631     6629     6629     6628     6628     6631 
    6629     6628     6632     6631     6629     6632     6631     6628 
    6627     6628     6631     6629     6628     6629     6629     6627 
    6627     6628     6628     6628     6631     6632     6628     6627 
    6629     6631     6628     6628     6632     6632     6629     6628 
    6628     6629     6629     6628     6629     6629     6628     6631 
    6631     6628     6628     6628     6628     6628     6627     6628 
    6632     6631     6629     6628     6628     6631     6629     6628 
    6628     6628     6628     6629     6632     6631     6627     6628 
    6631     6629     6627     6629     6631     6629     6628     6628 
    6629     6628     6628     6631     6628     6627     6628     6628 
    6627     6628     6629     6628     6628     6628     6627     6627 
    6627     6625     6627     6629     6629     6628     6628     6629 
    6628     6627     6628     6629     6629     6631     6628     6625 
    6631     6632     6627     6627     6628     6628     6633     6633 
    6629     6629     6628     6627     6631     6631     6629     6629 
    6631     6631     6631     6631     6629     6628     6627     6628 
    6629     6632     6631     6628     6629     6631     6628     6628 
    6629     6628     6627     6629     6631     6629     6629     6631 
    6632     6627     6625     6629     6629     6628     6631     6629 
    6627     6627     6628     6631     6632     6628     6628     6631 
    6629     6628     6627     6628     6631     6628     6628     6629 
    6625     6625     6631     6631     6629     6628     6627     6628 
    6631     6628     6629     6632     6629     6627     6625     6628 
    6632     6632     6629     6629     6629     6629     6629     6631 
    6629     6629     6631     6628     6628     6627     6627     6627 
    6627     6627     6629     6631     6629     6628     6629     6631 
    6629     6629     6631     6628     6625     6627     6629     6629 
    6631     6631     6629     6629     6631     6629     6627     6627 
    6629     6629     6627     6629     6632     6628     6625     6631 
    6631     6627     6631     6632     6628     6627     6625     6627 
    6631     6632     6629     6629     6631     6629     6628     6629 
    6629     6628     6631     6631     6625     6625     6631     6629 
    6627     6629     6632     6627     6624     6628     6632     6629 
    6628     6628     6628     6629     6629     6628     6628     6629 
    6631     6628     6627     6629     6631     6628     6629     6631 
    6627     6627     6629     6631     6625     6625     6631     6627 
    6624     6629     6631     6629     6628     6625     6625     6631 
    6632     6631     6631     6631     6629     6627     6628     6627 
    6627     6631     6631     6628     6629     6628     6625     6628 
    6631     6631     6629     6624     6623     6628     6629     6628 
    6627     6627     6627     6629     6628     6627     6629     6627 
    6625     6632     6632     6624     6625     6629     6627     6627 
    6629     6629     6628     6627     6628     6628     6628     6629 
    6628     6628     6628     6629     6629     6629     6629     6629 
    6629     6627     6627     6627     6629     6631     6628     6627 
    6628     6628     6628     6629     6629     6629     6628     6627 
    6631     6632     6628     6628     6628     6627     6632     6631 
    6628     6627     6625     6627     6631     6628     6628     6631 
    6629     6628     6629     6628     6625     6629     6631     6629 
    6632     6632     6627     6625     6628     6631     6631     6629 
    6628     6631     6631     6631     6631     6629     6629     6629 
    6627     6628     6628     6627     6628     6629     6628     6628 
    6629     6631     6631     6629     6628     6629     6629     6629 
    6629     6627     6627     6629     6627     6624     6628     6631 
    6629     6629     6628     6627     6631     6631     6629     6628 
    6627     6628     6629     6632     6631     6629     6628     6629 
    6631     6629     6629     6632     6625     6610     6590     6583 
    6616     6698     6774     6748     6636     6561     6540     6536 
    6619     6686     6525     6405     6621     6821     6770     6709 
    6664     6565     6562     6659     6687     6601     6507     6581 
    6754     6714     6544     6529     6602     6652     6709     6712 
    6615     6511     6561     6739     6767     6610     6521     6565 
    6643     6689     6669     6602     6554     6598     6723     6756 
    6635     6551     6589     6600     6605     6662     6642     6586 
    6619     6632     6615     6666     6689     6616     6583     6623 
    6662     6627     6551     6651     6786     6647     6488     6552 
    6659     6705     6674     6601     6616     6629     6573     6606 
    6666     6619     6609     6655     6646     6632     6647     6644 
    6619     6593     6582     6605     6671     6704     6632     6567 
    6605     6656     6651     6628     6643     6702     6698     6570 
    6512     6578     6588     6604     6708     6729     6635     6565 
    6598     6674     6664     6586     6583     6656     6678     6636 
    6606     6606     6606     6597     6629     6674     6663     6660 
    6708     6687     6567     6498     6579     6651     6598     6601 
    6693     6656     6577     6631     6660     6637     6682     6642 
    6544     6612     6681     6627     6610     6637     6655     6655 
    6602     6601     6659     6609     6529     6605     6702     6655 
    6601     6643     6675     6655     6640     6636     6621     6594 
    6581     6621     6648     6594     6601     6673     6655     6631 
    6678     6663     6589     6571     6610     6650     6629     6596 
    6662     6687     6588     6605     6690     6596     6542     6675 
    6700     6578     6594     6725     6727     6608     6544     6579 
    6617     6605     6593     6629     6681     6670     6652     6651 
    6604     6605     6639     6578     6543     6585     6628     6712 
    6754     6681     6624     6609     6578     6561     6588     6628 
    6635     6644     6693     6727     6696     6601     6520     6535 
    6612     6671     6663     6623     6617     6642     6659     6664 
    6643     6590     6548     6598     6716     6714     6590     6555 
    6613     6655     6669     6633     6583     6588     6613     6650 
    6691     6673     6594     6543     6589     6677     6704     6698 
    6658     6559     6540     6610     6625     6610     6594     6578 
    6679     6828     6808     6640     6505     6535     6651     6593 
    6444     6551     6704     6613     6625     6786     6708     6547 
    6621     6756     6702     6543     6536     6669     6639     6501 
    6605     6772     6648     6459     6527     6696     6717     6674 
    6731     6768     6619     6485     6575     6640     6538     6548 
    6696     6714     6628     6594     6646     6708     6673     6613 
    6598     6507     6481     6674     6766     6654     6612     6663 
    6685     6628     6538     6581     6682     6644     6597     6675 
    6696     6577     6546     6658     6702     6663     6628     6551 
    6502     6570     6644     6687     6716     6724     6724     6655 
    6555     6556     6600     6581     6571     6656     6705     6617 
    6582     6670     6696     6620     6569     6574     6593     6625 
    6675     6710     6687     6600     6561     6627     6671     6621 
    6583     6650     6685     6615     6616     6678     6655     6601 
    6609     6623     6546     6484     6597     6754     6775     6702 
    6627     6604     6610     6592     6601     6660     6640     6556 
    6569     6643     6660     6648     6632     6624     6674     6686 
    6601     6596     6663     6642     6582     6561     6590     6639 
    6594     6573     6677     6724     6691     6706     6700     6604 
    6531     6546     6574     6575     6617     6685     6662     6620 
    6671     6698     6708     6791     6748     6488     6327     6408 
    6544     6679     6762     6669     6575     6709     6876     6841 
    6709     6617     6543     6454     6439     6585     6696     6708 
    6801     6839     6731     6586     6381     6266     6390     6594 
    6731     6741     6693     6664     6524     6296     6268     6430 
    6544     6633     6782     6866     6812     6685     6625     6818 
    7137     7300     7269     7047     6613     6099     5738     5728 
    6081     6693     7317     7530     7186     6605     6134     6003 
    6268     6583     6600     6501     6613     6797     6748     6594 
    6601     6683     6644     6586     6708     6895     6966     6983 
    6907     6500     5921     5732     6085     6544     6762     6833 
    6959     7074     7044     6957     6841     6620     6442     6502 
    6667     6671     6544     6516     6559     6457     6264     6220 
    6338     6524     6826     7099     7071     6822     6702     6783 
    6785     6624     6498     6481     6505     6546     6593     6589 
    6517     6497     6605     6712     6664     6550     6590     6721 
    6725     6683     6687     6565     6331     6318     6608     6853 
    6874     6898     6972     6860     6589     6426     6424     6432 
    6434     6569     6735     6724     6639     6620     6613     6592 
    6601     6640     6683     6683     6624     6604     6652     6705 
    6752     6747     6650     6554     6536     6594     6654     6597 
    6486     6508     6615     6636     6602     6592     6593     6619 
    6696     6779     6758     6650     6586     6592     6633     6693 
    6694     6621     6585     6578     6502     6465     6552     6655 
    6750     6845     6829     6691     6544     6471     6470     6489 
    6538     6663     6783     6775     6677     6605     6597     6639 
    6677     6635     6567     6585     6637     6667     6697     6681 
    6621     6610     6628     6627     6666     6697     6612     6507 
    6512     6577     6590     6581     6629     6652     6633     6693 
    6735     6637     6570     6648     6716     6674     6617     6596 
    6544     6519     6628     6718     6625     6550     6593     6610 
    6637     6681     6669     6705     6723     6601     6534     6577 
    6590     6596     6640     6682     6678     6619     6597     6674 
    6709     6647     6608     6605     6594     6598     6624     6642 
    6644     6677     6717     6674     6582     6588     6673     6681 
    6593     6515     6524     6579     6604     6642     6660     6605 
    6635     6747     6756     6696     6629     6540     6531     6616 
    6669     6629     6527     6516     6650     6724     6733     6748 
    6625     6498     6577     6669     6660     6624     6550     6534 
    6620     6681     6694     6683     6615     6554     6600     6678 
    6674     6639     6636     6613     6597     6633     6663     6658 
    6631     6610     6612     6601     6616     6666     6658     6620 
    6642     6687     6682     6612     6558     6588     6625     6627 
    6631     6625     6615     6621     6658     6723     6702     6577 
    6528     6604     6671     6666     6647     6633     6582     6556 
    6616     6643     6604     6589     6578     6577     6632     6697 
    6708     6659     6640     6683     6662     6585     6569     6592 
    6613     6623     6633     6660     6652     6659     6706     6651 
    6539     6548     6633     6678     6682     6674     6654     6610 
    6575     6598     6673     6696     6637     6608     6619     6592 
    6544     6509     6558     6697     6741     6663     6606     6573 
    6578     6654     6689     6654     6637     6647     6656     6667 
    6643     6597     6582     6585     6575     6573     6582     6619 
    6696     6736     6702     6671     6633     6583     6594     6619 
    6606     6609     6613     6620     6667     6662     6613     6655 
    6679     6606     6585     6616     6625     6604     6563     6598 
    6675     6670     6662     6683     6640     6590     6596     6598 
    6601     6635     6689     6727     6693     6617     6573     6539 
    6523     6590     6691     6713     6658     6612     6609     6620 
    6628     6617     6582     6602     6704     6748     6678     6613 
    6600     6577     6543     6562     6609     6628     6652     6693 
    6704     6656     6573     6536     6586     6627     6627     6664 
    6708     6678     6629     6637     6646     6579     6535     6621 
    6727     6733     6681     6619     6556     6519     6550     6632 
    6660     6635     6639     6646     6608     6598     6646     6686 
    6706     6708     6666     6620     6592     6569     6565     6569 
    6571     6619     6694     6702     6640     6602     6606     6594 
    6590     6636     6677     6679     6662     6628     6606     6613 
    6625     6655     6671     6620     6550     6552     6609     6632 
    6640     6682     6696     6664     6647     6644     6639     6629 
    6610     6586     6555     6536     6590     6686     6716     6654 
    6583     6565     6592     6647     6700     6706     6663     6632 
    6647     6652     6620     6601     6620     6616     6556     6536 
    6609     6675     6670     6640     6631     6646     6664     6679 
    6671     6625     6601     6613     6605     6574     6575     6600 
    6605     6606     6623     6650     6683     6675     6651     6656 
    6647     6636     6659     6650     6617     6617     6610     6585 
    6574     6583     6609     6633     6652     6686     6700     6670 
    6631     6596     6597     6637     6658     6631     6583     6571 
    6608     6637     6624     6617     6650     6658     6631     6631 
    6644     6659     6674     6628     6556     6558     6615     6674 
    6708     6686     6633     6581     6551     6592     6654     6635 
    6613     6664     6689     6648     6608     6573     6570     6621 
    6655     6652     6656     6656     6646     6625     6592     6589 
    6606     6590     6598     6663     6693     6655     6628     6652 
    6677     6662     6624     6581     6559     6597     6656     6666 
    6643     6637     6639     6639     6643     6629     6612     6616 
    6615     6623     6650     6642     6605     6597     6613     6625 
