Origin Time       2025/02/01 08:16:00
Lat.              33.667
Long.             130.927
Depth. (km)       8
Mag.              3.1
Station Code      FKO001
Station Lat.      33.8425
Station Long.     130.5087
Station Height(m) 6
Record Time       2025/02/01 08:17:10
Sampling Freq(Hz) 100Hz
Duration Time(s)  60
Dir.              N-S
Scale Factor      7845(gal)/8223790
Max. Acc. (gal)   2.175
Last Correction   2025/02/01 08:17:10
Memo.             
[...]
   -6296    -6297    -6297    -6295    -6293    -6295    -6292    -6286 
   -6291    -6297    -6296    -6295    -6295    -6289    -6288    -6293 
   -6291    -6291    -6297    -6295    -6293    -6295    -6289    -6289 
   -6295    -6292    -6292    -6296    -6296    -6295    -6295    -6292 
   -6291    -6293    -6296    -6293    -6291    -6295    -6292    -6291 
   -6293    -6292    -6296    -6300    -6295    -6292    -6296    -6295 
   -6291    -6292    -6293    -6293    -6292    -6291    -6295    -6296 
   -6288    -6289    -6296    -6295    -6292    -6292    -6291    -6293 
   -6299    -6297    -6291    -6292    -6295    -6295    -6293    -6293 
   -6295    -6295    -6295    -6295    -6296    -6297    -6295    -6295 
   -6296    -6296    -6295    -6292    -6292    -6293    -6293    -6293 
   -6293    -6293    -6292    -6289    -6292    -6296    -6295    -6291 
   -6293    -6296    -6293    -6296    -6297    -6295    -6297    -6297 
   -6292    -6293    -6295    -6292    -6292    -6295    -6291    -6289 
   -6293    -6291    -6292    -6297    -6295    -6293    -6296    -6295 
   -6292    -6292    -6292    -6293    -6293    -6291    -6295    -6296 
   -6292    -6295    -6296    -6295    -6296    -6295    -6292    -6288 
   -6292    -6300    -6296    -6289    -6291    -6293    -6293    -6292 
   -6292    -6292    -6295    -6297    -6297    -6295    -6291    -6291 
   -6295    -6292    -6289    -6291    -6293    -6293    -6288    -6292 
   -6296    -6293    -6293    -6296    -6295    -6293    -6293    -6296 
   -6293    -6295    -6299    -6292    -6289    -6296    -6300    -6297 
   -6293    -6291    -6291    -6297    -6297    -6291    -6291    -6293 
   -6295    -6296    -6295    -6295    -6296    -6295    -6292    -6291 
   -6296    -6295    -6292    -6296    -6295    -6292    -6296    -6293 
   -6291    -6295    -6296    -6295    -6296    -6296    -6293    -6293 
   -6296    -6295    -6291    -6288    -6284    -6291    -6296    -6293 
   -6295    -6292    -6291    -6300    -6299    -6288    -6293    -6300 
   -6295    -6292    -6295    -6292    -6289    -6293    -6297    -6296 
   -6295    -6293    -6291    -6291    -6289    -6289    -6292    -6295 
   -6292    -6293    -6296    -6296    -6296    -6296    -6296    -6295 
   -6297    -6296    -6293    -6296    -6297    -6295    -6292    -6295 
   -6297    -6289    -6281    -6289    -6297    -6292    -6292    -6299 
   -6297    -6291    -6296    -6295    -6288    -6296    -6296    -6289 
   -6297    -6299    -6289    -6293    -6297    -6289    -6286    -6295 
   -6295    -6295    -6296    -6295    -6292    -6292    -6296    -6299 
   -6293    -6292    -6293    -6291    -6292    -6299    -6299    -6295 
   -6293    -6293    -6292    -6295    -6296    -6292    -6291    -6296 
   -6295    -6289    -6292    -6295    -6295    -6293    -6292    -6295 
   -6296    -6297    -6295    -6286    -6291    -6299    -6296    -6296 
   -6296    -6292    -6288    -6292    -6300    -6296    -6292    -6295 
   -6289    -6289    -6292    -6291    -6299    -6300    -6291    -6295 
   -6299    -6292    -6293    -6297    -6297    -6292    -6288    -6295 
   -6297    -6291    -6292    -6295    -6293    -6292    -6293    -6299 
   -6295    -6289    -6295    -6296    -6293    -6291    -6291    -6292 
   -6288    -6292    -6299    -6296    -6295    -6296    -6292    -6296 
   -6295    -6288    -6293    -6296    -6288    -6289    -6296    -6289 
   -6289    -6295    -6291    -6292    -6300    -6299    -6293    -6293 
   -6293    -6293    -6296    -6296    -6295    -6297    -6293    -6286 
   -6293    -6300    -6296    -6291    -6289    -6295    -6293    -6286 
   -6292    -6299    -6293    -6289    -6291    -6289    -6293    -6297 
   -6296    -6295    -6295    -6293    -6296    -6299    -6296    -6292 
   -6293    -6293    -6291    -6296    -6299    -6289    -6289    -6296 
   -6292    -6285    -6288    -6296    -6297    -6295    -6297    -6297 
   -6292    -6291    -6293    -6296    -6299    -6296    -6292    -6293 
   -6292    -6292    -6296    -6289    -6288    -6296    -6295    -6289 
   -6289    -6292    -6293    -6289    -6292    -6296    -6296    -6293 
   -6293    -6296    -6296    -6297    -6300    -6295    -6292    -6297 
   -6295    -6293    -6295    -6291    -6289    -6296    -6292    -6289 
   -6295    -6292    -6291    -6297    -6291    -6284    -6293    -6296 
   -6291    -6292    -6295    -6293    -6295    -6292    -6291    -6293 
   -6296    -6299    -6296    -6286    -6288    -6291    -6288    -6292 
   -6299    -6297    -6292    -6293    -6295    -6296    -6299    -6296 
   -6289    -6289    -6295    -6301    -6301    -6296    -6293    -6292 
   -6292    -6293    -6292    -6293    -6293    -6291    -6293    -6292 
   -6288    -6295    -6299    -6296    -6295    -6295    -6300    -6301 
   -6289    -6286    -6293    -6295    -6295    -6293    -6292    -6292 
   -6296    -6297    -6293    -6291    -6293    -6293    -6295    -6297 
   -6295    -6293    -6292    -6288    -6291    -6296    -6295    -6295 
   -6297    -6299    -6293    -6293    -6297    -6296    -6297    -6293 
   -6284    -6291    -6299    -6292    -6292    -6296    -6295    -6296 
   -6296    -6296    -6295    -6292    -6293    -6296    -6292    -6289 
   -6299    -6301    -6292    -6289    -6292    -6289    -6292    -6297 
   -6295    -6291    -6292    -6292    -6293    -6300    -6293    -6288 
   -6291    -6289    -6291    -6297    -6297    -6289    -6289    -6292 
   -6293    -6295    -6295    -6293    -6296    -6299    -6296    -6296 
   -6293    -6289    -6293    -6293    -6289    -6295    -6295    -6284 
   -6289    -6296    -6293    -6296    -6300    -6301    -6297    -6293 
   -6291    -6286    -6292    -6297    -6293    -6296    -6293    -6288 
   -6296    -6301    -6296    -6293    -6296    -6292    -6288    -6295 
   -6297    -6291    -6289    -6293    -6295    -6296    -6295    -6291 
   -6293    -6297    -6295    -6292    -6292    -6291    -6291    -6291 
   -6296    -6300    -6292    -6289    -6293    -6289    -6291    -6300 
   -6299    -6293    -6295    -6295    -6291    -6295    -6296    -6289 
   -6291    -6297    -6293    -6292    -6296    -6296    -6295    -6293 
   -6288    -6285    -6293    -6299    -6293    -6295    -6299    -6292 
   -6289    -6292    -6292    -6289    -6292    -6297    -6300    -6293 
   -6293    -6296    -6292    -6291    -6293    -6297    -6296    -6292 
   -6292    -6292    -6292    -6295    -6291    -6288    -6293    -6296 
   -6291    -6291    -6291    -6288    -6295    -6300    -6291    -6291 
   -6297    -6295    -6292    -6297    -6297    -6291    -6295    -6297 
   -6295    -6295    -6295    -6293    -6296    -6293    -6289    -6289 
   -6289    -6293    -6296    -6292    -6295    -6300    -6293    -6292 
   -6297    -6292    -6291    -6300    -6296    -6286    -6293    -6297 
   -6289    -6288    -6297    -6300    -6296    -6293    -6293    -6292 
   -6292    -6291    -6288    -6289    -6295    -6297    -6299    -6296 
   -6292    -6293    -6291    -6289    -6297    -6299    -6293    -6289 
   -6291    -6295    -6296    -6292    -6289    -6291    -6291    -6292 
   -6300    -6299    -6289    -6291    -6295    -6286    -6288    -6300 
   -6296    -6292    -6296    -6292    -6293    -6300    -6295    -6289 
   -6291    -6292    -6293    -6293    -6292    -6292    -6297    -6296 
   -6293    -6297    -6299    -6295    -6286    -6286    -6299    -6300 
   -6297    -6301    -6297    -6288    -6288    -6293    -6295    -6297 
   -6301    -6296    -6288    -6288    -6292    -6297    -6299    -6295 
   -6295    -6295    -6291    -6288    -6291    -6297    -6300    -6293 
   -6288    -6291    -6292    -6295    -6297    -6295    -6292    -6293 
   -6289    -6291    -6295    -6293    -6292    -6296    -6295    -6293 
   -6293    -6292    -6292    -6295    -6297    -6297    -6292    -6289 
   -6295    -6299    -6296    -6296    -6299    -6295    -6289    -6292 
   -6292    -6289    -6293    -6300    -6300    -6296    -6295    -6293 
   -6289    -6288    -6293    -6300    -6297    -6291    -6295    -6297 
   -6289    -6291    -6293    -6292    -6296    -6299    -6293    -6292 
   -6295    -6293    -6292    -6295    -6295    -6293    -6292    -6295 
   -6297    -6296    -6296    -6293    -6289    -6297    -6303    -6289 
   -6280    -6291    -6305    -6312    -6305    -6301    -6295    -6273 
   -6278    -6315    -6312    -6277    -6266    -6284    -6303    -6301 
   -6276    -6251    -6257    -6300    -6358    -6363    -6295    -6246 
   -6276    -6322    -6357    -6381    -6303    -6142    -6089    -6197 
   -6335    -6427    -6461    -6417    -6319    -6223    -6183    -6203 
   -6234    -6266    -6301    -6320    -6376    -6405    -6335    -6296 
   -6277    -6201    -6215    -6323    -6313    -6250    -6318    -6404 
   -6349    -6235    -6212    -6278    -6308    -6257    -6230    -6328 
   -6461    -6419    -6250    -6176    -6188    -6200    -6268    -6324 
   -6299    -6331    -6411    -6403    -6330    -6258    -6218    -6226 
   -6280    -6312    -6268    -6219    -6269    -6390    -6421    -6330 
   -6255    -6230    -6250    -6324    -6296    -6191    -6235    -6353 
   -6349    -6309    -6331    -6350    -6353    -6322    -6231    -6185 
   -6243    -6292    -6282    -6281    -6284    -6300    -6372    -6382 
   -6295    -6231    -6239    -6273    -6286    -6322    -6367    -6311 
   -6222    -6231    -6265    -6269    -6309    -6389    -6394    -6316 
   -6264    -6250    -6257    -6282    -6266    -6241    -6282    -6330 
   -6339    -6346    -6369    -6323    -6195    -6185    -6309    -6312 
   -6228    -6274    -6366    -6328    -6251    -6265    -6316    -6342 
   -6307    -6226    -6211    -6273    -6299    -6322    -6394    -6400 
   -6304    -6232    -6249    -6288    -6265    -6224    -6274    -6363 
   -6345    -6281    -6358    -6470    -6359    -6145    -6122    -6234 
   -6266    -6277    -6335    -6324    -6286    -6343    -6385    -6347 
   -6305    -6274    -6274    -6292    -6264    -6188    -6158    -6265 
   -6374    -6355    -6339    -6386    -6359    -6265    -6243    -6270 
   -6262    -6276    -6307    -6235    -6162    -6277    -6420    -6417 
   -6350    -6250    -6184    -6242    -6296    -6305    -6362    -6369 
   -6259    -6196    -6249    -6292    -6324    -6404    -6394    -6297 
   -6293    -6319    -6272    -6274    -6328    -6274    -6161    -6160 
   -6223    -6254    -6345    -6469    -6420    -6237    -6180    -6286 
   -6369    -6336    -6285    -6313    -6354    -6318    -6258    -6208 
   -6211    -6320    -6384    -6286    -6178    -6178    -6232    -6281 
   -6372    -6473    -6408    -6231    -6212    -6305    -6313    -6297 
   -6300    -6262    -6250    -6295    -6293    -6222    -6197    -6307 
   -6457    -6492    -6390    -6265    -6215    -6226    -6205    -6142 
   -6178    -6404    -6592    -6448    -6107    -6035    -6299    -6446 
   -6336    -6313    -6373    -6234    -6120    -6308    -6412    -6224 
   -6174    -6331    -6334    -6237    -6293    -6399    -6373    -6305 
   -6303    -6299    -6247    -6207    -6234    -6319    -6404    -6446 
   -6426    -6313    -6093    -5910    -6012    -6320    -6443    -6340 
   -6320    -6431    -6496    -6440    -6293    -6231    -6345    -6377 
   -6251    -6162    -6157    -6220    -6292    -6293    -6307    -6355 
   -6311    -6201    -6178    -6264    -6400    -6474    -6377    -6253 
   -6303    -6384    -6315    -6184    -6079    -6069    -6301    -6570 
   -6475    -6195    -6178    -6351    -6372    -6249    -6192    -6249 
   -6369    -6474    -6432    -6268    -6218    -6313    -6289    -6120 
   -6085    -6253    -6397    -6366    -6264    -6281    -6404    -6436 
   -6280    -6089    -6106    -6296    -6436    -6457    -6392    -6318 
   -6291    -6238    -6172    -6207    -6291    -6354    -6439    -6475 
   -6366    -6223    -6176    -6153    -6106    -6143    -6320    -6497 
   -6494    -6312    -6196    -6258    -6304    -6255    -6204    -6228 
   -6363    -6461    -6384    -6316    -6365    -6303    -6126    -6093 
   -6201    -6315    -6435    -6490    -6396    -6269    -6243    -6265 
   -6216    -6156    -6215    -6347    -6430    -6377    -6193    -6126 
   -6264    -6331    -6243    -6207    -6300    -6432    -6482    -6386 
   -6234    -6220    -6374    -6467    -6358    -6241    -6265    -6212 
   -6035    -6065    -6284    -6401    -6451    -6477    -6327    -6133 
   -6187    -6399    -6455    -6301    -6204    -6291    -6357    -6313 
   -6238    -6122    -6085    -6308    -6529    -6403    -6166    -6219 
   -6355    -6272    -6195    -6293    -6373    -6377    -6359    -6295 
   -6278    -6377    -6415    -6304    -6215    -6205    -6180    -6235 
   -6404    -6416    -6254    -6216    -6280    -6254    -6251    -6332 
   -6349    -6322    -6336    -6313    -6207    -6160    -6280    -6462 
   -6500    -6278    -6042    -6126    -6359    -6369    -6210    -6170 
   -6296    -6434    -6480    -6408    -6288    -6230    -6223    -6195 
   -6197    -6307    -6372    -6319    -6334    -6361    -6214    -6137 
   -6296    -6397    -6353    -6373    -6374    -6219    -6149    -6261 
   -6246    -6076    -6102    -6404    -6675    -6685    -6463    -6154 
   -5952    -5975    -6081    -6023    -5769    -5597    -5749    -6201 
   -6808    -7375    -7634    -7535    -7260    -6783    -5992    -5206 
   -4950    -5364    -6165    -6883    -7175    -6984    -6461    -5834 
   -5445    -5661    -6404    -6933    -6743    -6349    -6366    -6655 
   -6839    -6523    -5413    -4135    -4014    -5502    -7358    -8048 
   -7560    -6822    -6226    -5867    -5971    -6431    -6826    -6828 
   -6516    -6284    -6030    -5475    -5051    -5132    -5553    -6246 
   -7076    -7519    -7176    -6382    -5979    -6327    -6980    -7380 
   -7273    -6608    -5595    -4978    -5381    -6304    -6836    -6836 
   -6470    -5792    -5285    -5439    -5942    -6361    -6775    -7094 
   -6902    -6420    -6347    -6679    -6866    -6871    -6810    -6285 
   -5367    -4922    -5170    -5613    -5983    -6224    -6408    -6713 
   -6968    -6845    -6589    -6655    -6747    -6351    -5674    -5193 
   -5339    -6268    -7227    -7442    -7196    -6828    -6292    -5815 
   -5620    -5683    -5783    -5724    -5836    -6362    -6952    -7329 
   -7240    -6457    -5522    -5281    -5861    -6764    -7349    -7137 
   -6185    -5181    -4843    -5331    -6231    -6871    -6924    -6732 
   -6629    -6573    -6697    -7110    -7352    -7076    -6517    -5981 
   -5674    -5655    -5648    -5420    -5320    -5697    -6089    -6131 
   -6216    -6454    -6594    -6698    -6633    -6145    -5721    -5969 
   -6563    -6894    -6901    -6744    -6438    -6079    -5984    -6168 
   -6228    -6147    -6183    -6276    -6381    -6539    -6712    -6903 
   -7002    -6917    -6728    -6390    -5880    -5378    -5085    -5269 
   -5869    -6345    -6507    -6628    -6693    -6531    -6372    -6450 
   -6400    -6046    -5957    -6301    -6542    -6412    -6161    -5980 
   -5842    -5927    -6459    -7009    -6966    -6466    -6058    -5908 
   -5852    -5911    -6238    -6565    -6512    -6357    -6579    -6940 
   -6879    -6421    -5983    -5755    -5752    -6081    -6621    -6882 
   -6658    -6345    -6305    -6301    -6027    -5779    -5809    -5883 
   -6010    -6336    -6605    -6701    -6799    -6736    -6322    -5848 
   -5601    -5599    -5850    -6257    -6642    -6914    -6949    -6662 
   -6274    -6208    -6489    -6640    -6501    -6309    -6166    -6174 
   -6367    -6390    -6006    -5547    -5444    -5680    -5988    -6272 
   -6540    -6681    -6627    -6507    -6419    -6480    -6755    -6926 
   -6686    -6207    -5863    -5869    -6095    -6223    -6211    -6227 
   -6349    -6524    -6605    -6525    -6386    -6197    -5953    -5918 
   -6178    -6407    -6427    -6304    -6066    -5841    -5842    -6085 
   -6319    -6361    -6399    -6606    -6723    -6556    -6374    -6309 
   -6230    -6224    -6349    -6303    -6085    -6228    -6716    -6903 
   -6705    -6531    -6416    -6188    -5984    -6092    -6347    -6307 
   -6070    -6068    -6255    -6258    -6091    -6081    -6139    -5958 
   -5722    -5792    -6103    -6381    -6528    -6571    -6474    -6195 
   -5953    -6050    -6439    -6810    -6905    -6737    -6601    -6594 
   -6529    -6384    -6230    -6061    -6075    -6417    -6655    -6426 
   -6145    -6193    -6259    -6111    -6027    -6143    -6188    -6131 
   -6214    -6330    -6291    -6278    -6340    -6269    -6151    -6177 
   -6273    -6347    -6354    -6253    -6108    -6064    -6153    -6266 
   -6289    -6269    -6338    -6396    -6278    -6170    -6255    -6427 
   -6609    -6828    -6952    -6789    -6401    -6064    -5949    -6066 
   -6228    -6199    -6088    -6111    -6174    -6184    -6254    -6447 
   -6702    -6872    -6772    -6426    -6103    -5941    -5837    -5784 
   -5917    -6193    -6363    -6305    -6149    -6037    -6095    -6407 
   -6775    -6810    -6435    -6041    -5964    -6129    -6311    -6382 
   -6261    -6041    -6033    -6331    -6627    -6662    -6579    -6567 
   -6517    -6336    -6169    -6133    -6133    -6087    -6065    -6118 
   -6195    -6228    -6197    -6203    -6381    -6656    -6787    -6686 
   -6501    -6421    -6440    -6438    -6394    -6362    -6311    -6242 
   -6227    -6249    -6235    -6154    -5985    -5856    -5940    -6099 
   -6112    -6079    -6168    -6258    -6151    -5949    -5944    -6177 
   -6430    -6581    -6650    -6631    -6546    -6480    -6436    -6367 
   -6358    -6475    -6578    -6524    -6373    -6257    -6272    -6367 
   -6416    -6363    -6245    -6137    -6073    -6061    -6135    -6235 
   -6274    -6274    -6242    -6174    -6158    -6245    -6318    -6259 
   -6146    -6141    -6284    -6447    -6454    -6342    -6327    -6385 
   -6308    -6164    -6184    -6350    -6436    -6415    -6457    -6534 
   -6453    -6216    -6000    -5971    -6156    -6353    -6386    -6342 
   -6370    -6446    -6442    -6320    -6160    -6057    -6089    -6261 
   -6420    -6427    -6311    -6178    -6118    -6192    -6313    -6355 
   -6413    -6577    -6642    -6408    -6066    -5958    -6093    -6255 
   -6358    -6396    -6369    -6369    -6392    -6247    -5998    -5987 
   -6246    -6486    -6548    -6466    -6355    -6332    -6404    -6494 
   -6504    -6328    -6085    -6080    -6331    -6520    -6494    -6369 
   -6207    -6030    -5961    -6038    -6131    -6188    -6327    -6520 
   -6523    -6319    -6166    -6112    -6064    -6106    -6276    -6397 
   -6349    -6274    -6308    -6286    -6122    -6077    -6295    -6532 
   -6585    -6536    -6498    -6427    -6308    -6230    -6212    -6231 
   -6309    -6434    -6496    -6412    -6246    -6191    -6285    -6307 
   -6183    -6096    -6145    -6269    -6367    -6366    -6273    -6150 
   -6124    -6247    -6347    -6295    -6199    -6191    -6242    -6304 
   -6404    -6480    -6454    -6404    -6365    -6264    -6160    -6169 
   -6259    -6332    -6328    -6270    -6257    -6311    -6347    -6340 
   -6346    -6390    -6421    -6411    -6393    -6370    -6289    -6180 
   -6137    -6147    -6134    -6077    -6072    -6187    -6323    -6367 
   -6334    -6268    -6235    -6293    -6359    -6335    -6285    -6342 
   -6458    -6467    -6359    -6285    -6346    -6419    -6370    -6296 
