Origin Time       2025/02/01 08:16:00
Lat.              33.667
Long.             130.927
Depth. (km)       8
Mag.              3.1
Station Code      FKO001
Station Lat.      33.8425
Station Long.     130.5087
Station Height(m) 6
Record Time       2025/02/01 08:17:10
Sampling Freq(Hz) 100Hz
Duration Time(s)  60
Dir.              U-D
Scale Factor      7845(gal)/8223790
Max. Acc. (gal)   1.240
Last Correction   2025/02/01 08:17:10
Memo.             
[...]
  -14111   -14110   -14118   -14122   -14114   -14112   -14119   -14114 
  -14104   -14112   -14118   -14110   -14112   -14121   -14115   -14111 
  -14114   -14115   -14112   -14112   -14112   -14111   -14111   -14111 
  -14112   -14116   -14123   -14114   -14100   -14108   -14119   -14116 
  -14116   -14119   -14115   -14111   -14111   -14112   -14114   -14114 
  -14111   -14110   -14114   -14118   -14115   -14112   -14112   -14114 
  -14112   -14112   -14115   -14114   -14111   -14115   -14118   -14114 
  -14111   -14112   -14116   -14118   -14114   -14110   -14111   -14114 
  -14116   -14118   -14114   -14114   -14119   -14114   -14103   -14104 
  -14110   -14110   -14115   -14118   -14118   -14118   -14108   -14106 
  -14116   -14118   -14115   -14116   -14116   -14112   -14112   -14112 
  -14108   -14108   -14116   -14116   -14111   -14108   -14110   -14115 
  -14116   -14111   -14111   -14118   -14114   -14108   -14114   -14114 
  -14110   -14114   -14115   -14112   -14115   -14118   -14111   -14104 
  -14112   -14118   -14115   -14111   -14114   -14118   -14114   -14110 
  -14108   -14107   -14111   -14114   -14121   -14122   -14110   -14104 
  -14110   -14114   -14114   -14114   -14116   -14118   -14111   -14110 
  -14114   -14115   -14114   -14119   -14114   -14103   -14110   -14118 
  -14115   -14111   -14108   -14111   -14112   -14111   -14115   -14122 
  -14114   -14108   -14116   -14121   -14108   -14108   -14116   -14114 
  -14112   -14116   -14114   -14110   -14115   -14123   -14118   -14102 
  -14106   -14118   -14111   -14108   -14119   -14119   -14111   -14106 
  -14110   -14115   -14114   -14114   -14114   -14118   -14123   -14111 
  -14103   -14116   -14119   -14110   -14108   -14119   -14122   -14108 
  -14104   -14112   -14114   -14112   -14110   -14108   -14114   -14118 
  -14112   -14110   -14112   -14115   -14115   -14110   -14110   -14115 
  -14115   -14115   -14115   -14110   -14114   -14118   -14114   -14110 
  -14106   -14106   -14115   -14123   -14121   -14112   -14104   -14103 
  -14112   -14118   -14115   -14116   -14121   -14115   -14108   -14108 
  -14107   -14111   -14119   -14112   -14107   -14114   -14118   -14115 
  -14110   -14111   -14116   -14110   -14107   -14118   -14118   -14107 
  -14104   -14114   -14118   -14114   -14115   -14118   -14118   -14118 
  -14114   -14110   -14110   -14112   -14114   -14115   -14119   -14123 
  -14114   -14103   -14108   -14112   -14114   -14116   -14115   -14116 
  -14116   -14110   -14106   -14112   -14122   -14118   -14110   -14112 
  -14115   -14112   -14111   -14111   -14114   -14115   -14112   -14114 
  -14121   -14116   -14106   -14107   -14116   -14115   -14110   -14112 
  -14114   -14111   -14115   -14123   -14119   -14110   -14111   -14115 
  -14111   -14102   -14106   -14121   -14123   -14122   -14115   -14100 
  -14100   -14108   -14111   -14118   -14125   -14116   -14107   -14106 
  -14114   -14121   -14116   -14111   -14111   -14112   -14116   -14118 
  -14114   -14112   -14115   -14112   -14111   -14115   -14118   -14114 
  -14112   -14111   -14110   -14110   -14114   -14118   -14116   -14115 
  -14116   -14116   -14114   -14118   -14116   -14106   -14103   -14112 
  -14122   -14121   -14119   -14118   -14110   -14100   -14106   -14116 
  -14118   -14119   -14122   -14112   -14103   -14112   -14122   -14115 
  -14104   -14111   -14122   -14115   -14111   -14114   -14111   -14112 
  -14119   -14116   -14111   -14114   -14118   -14114   -14110   -14108 
  -14110   -14116   -14123   -14119   -14108   -14108   -14119   -14118 
  -14107   -14104   -14107   -14111   -14119   -14125   -14121   -14111 
  -14107   -14112   -14118   -14118   -14115   -14112   -14115   -14112 
  -14110   -14115   -14115   -14110   -14111   -14111   -14115   -14119 
  -14115   -14114   -14114   -14115   -14119   -14115   -14106   -14110 
  -14118   -14115   -14112   -14114   -14115   -14111   -14111   -14112 
  -14112   -14116   -14121   -14118   -14115   -14116   -14112   -14108 
  -14111   -14114   -14114   -14121   -14123   -14114   -14108   -14110 
  -14107   -14114   -14125   -14118   -14110   -14114   -14114   -14114 
  -14115   -14114   -14112   -14110   -14112   -14121   -14115   -14108 
  -14114   -14115   -14110   -14111   -14119   -14115   -14106   -14110 
  -14121   -14118   -14114   -14118   -14116   -14110   -14111   -14118 
  -14115   -14102   -14103   -14115   -14122   -14125   -14123   -14114 
  -14102   -14103   -14115   -14122   -14121   -14118   -14112   -14110 
  -14116   -14119   -14114   -14114   -14115   -14111   -14114   -14118 
  -14110   -14107   -14114   -14115   -14115   -14118   -14118   -14112 
  -14110   -14110   -14112   -14112   -14115   -14119   -14114   -14111 
  -14118   -14118   -14112   -14114   -14111   -14108   -14107   -14108 
  -14115   -14121   -14122   -14119   -14108   -14104   -14110   -14114 
  -14118   -14123   -14121   -14114   -14108   -14112   -14119   -14112 
  -14103   -14110   -14118   -14112   -14108   -14116   -14114   -14110 
  -14116   -14116   -14110   -14112   -14114   -14111   -14115   -14121 
  -14116   -14111   -14116   -14118   -14114   -14111   -14114   -14116 
  -14111   -14110   -14114   -14114   -14115   -14122   -14116   -14104 
  -14108   -14116   -14112   -14112   -14121   -14116   -14110   -14114 
  -14115   -14110   -14108   -14111   -14114   -14118   -14118   -14112 
  -14108   -14107   -14112   -14118   -14114   -14110   -14118   -14119 
  -14112   -14111   -14115   -14110   -14108   -14115   -14119   -14118 
  -14115   -14110   -14111   -14116   -14115   -14111   -14107   -14104 
  -14115   -14118   -14112   -14122   -14119   -14099   -14099   -14115 
  -14121   -14119   -14118   -14115   -14107   -14108   -14116   -14115 
  -14115   -14115   -14112   -14116   -14121   -14114   -14114   -14118 
  -14114   -14112   -14116   -14114   -14110   -14111   -14111   -14111 
  -14111   -14115   -14116   -14114   -14116   -14121   -14115   -14110 
  -14115   -14118   -14114   -14114   -14115   -14111   -14108   -14115 
  -14122   -14114   -14110   -14111   -14110   -14111   -14118   -14116 
  -14110   -14111   -14116   -14118   -14116   -14111   -14106   -14115 
  -14118   -14110   -14112   -14116   -14114   -14118   -14118   -14110 
  -14111   -14119   -14116   -14107   -14110   -14116   -14115   -14107 
  -14108   -14119   -14115   -14108   -14115   -14114   -14110   -14114 
  -14112   -14110   -14116   -14121   -14114   -14115   -14118   -14114 
  -14112   -14112   -14111   -14112   -14112   -14112   -14119   -14121 
  -14118   -14108   -14096   -14102   -14118   -14122   -14123   -14119 
  -14107   -14107   -14114   -14111   -14114   -14121   -14119   -14112 
  -14106   -14108   -14115   -14115   -14116   -14118   -14112   -14112 
  -14115   -14111   -14110   -14115   -14114   -14111   -14114   -14119 
  -14111   -14102   -14112   -14123   -14116   -14112   -14118   -14119 
  -14114   -14111   -14114   -14108   -14108   -14118   -14122   -14116 
  -14112   -14111   -14112   -14114   -14114   -14114   -14107   -14107 
  -14121   -14123   -14115   -14111   -14107   -14107   -14112   -14115 
  -14118   -14115   -14110   -14112   -14115   -14111   -14115   -14115 
  -14107   -14110   -14116   -14110   -14110   -14118   -14115   -14111 
  -14116   -14118   -14118   -14130   -14139   -14119   -14091   -14085 
  -14104   -14123   -14091   -14030   -14069   -14183   -14218   -14142 
  -14058   -14056   -14096   -14107   -14150   -14187   -14095   -14035 
  -14130   -14196   -14149   -14054   -14002   -14123   -14256   -14134 
  -13960   -14008   -14204   -14349   -14245   -14003   -13926   -14011 
  -14177   -14254   -14068   -13984   -14168   -14193   -14083   -14096 
  -14129   -14131   -14126   -14094   -14115   -14161   -14125   -14026 
  -14025   -14172   -14227   -14114   -14040   -14071   -14127   -14116 
  -14040   -14094   -14305   -14331   -14044   -13822   -13979   -14304 
  -14337   -14011   -13829   -14077   -14368   -14301   -14017   -13911 
  -14099   -14230   -14131   -14084   -14162   -14164   -14023   -13977 
  -14183   -14258   -14076   -14083   -14253   -14227   -14014   -13834 
  -13895   -14160   -14359   -14332   -14138   -14000   -14087   -14176 
  -14053   -13953   -14034   -14164   -14233   -14162   -14037   -14069 
  -14187   -14164   -14026   -14042   -14234   -14273   -14087   -13971 
  -14057   -14165   -14156   -14134   -14139   -14071   -14003   -14068 
  -14195   -14222   -14127   -14069   -14129   -14169   -14065   -13950 
  -14058   -14277   -14241   -13969   -13940   -14257   -14391   -14068 
  -13803   -14052   -14343   -14189   -13992   -14084   -14169   -14107 
  -14037   -14041   -14162   -14265   -14181   -14050   -13988   -13991 
  -14154   -14320   -14237   -14026   -13937   -14081   -14264   -14169 
  -13954   -14026   -14305   -14261   -13883   -13892   -14308   -14355 
  -14015   -13918   -14191   -14334   -14056   -13837   -14122   -14418 
  -14177   -13825   -13977   -14416   -14408   -13857   -13667   -14154 
  -14432   -14187   -13954   -13994   -14212   -14293   -14129   -14018 
  -14049   -14100   -14122   -14118   -14212   -14291   -14073   -13837 
  -13949   -14133   -14188   -14283   -14241   -13994   -13898   -14007 
  -14208   -14422   -14372   -14031   -13805   -13894   -14143   -14303 
  -14208   -14089   -14166   -14202   -14084   -13950   -13969   -14203 
  -14264   -14068   -14084   -14196   -14014   -13844   -14073   -14416 
  -14366   -13961   -13828   -14199   -14389   -14064   -13873   -14137 
  -14349   -14129   -13880   -14106   -14422   -14203   -13706   -13728 
  -14292   -14546   -14231   -13914   -13867   -14077   -14432   -14524 
  -14138   -13644   -13636   -14184   -14532   -14222   -13856   -13957 
  -14264   -14351   -14145   -13992   -14118   -14204   -14048   -13929 
  -14042   -14226   -14280   -14160   -14003   -14022   -14137   -14111 
  -14060   -14142   -14223   -14211   -14189   -14114   -13940   -13917 
  -14141   -14293   -14161   -13957   -14018   -14227   -14269   -14203 
  -14108   -14041   -14030   -13876   -13842   -14230   -14435   -14172 
  -14056   -14254   -14270   -13975   -13833   -14134   -14467   -14291 
  -13842   -13814   -14180   -14347   -14134   -13878   -13959   -14300 
  -14449   -14218   -13890   -13798   -13998   -14256   -14296   -14071 
  -13945   -14208   -14403   -14065   -13744   -14056   -14535   -14399 
  -13811   -13679   -14196   -14493   -14160   -13832   -14038   -14401 
  -14265   -13811   -13764   -14150   -14446   -14341   -13957   -13761 
  -14031   -14436   -14504   -14226   -13930   -13880   -14058   -14196 
  -14131   -14040   -14133   -14246   -14088   -13879   -13969   -14162 
  -14218   -14192   -14073   -13967   -14133   -14385   -14304   -13986 
  -13836   -13975   -14218   -14322   -14158   -13969   -14099   -14295 
  -14184   -13999   -14023   -14143   -14137   -13986   -13992   -14223 
  -14281   -14089   -13965   -14084   -14397   -14489   -13991   -13529 
  -13853   -14439   -14476   -14080   -13860   -14054   -14339   -14293 
  -13927   -13770   -14133   -14544   -14407   -13890   -13713   -14023 
  -14250   -14142   -13940   -13932   -14208   -14462   -14365   -14080 
  -13967   -13957   -13910   -14041   -14258   -14326   -14442   -14432 
  -13913   -13423   -13711   -14493   -14736   -14129   -13652   -13961 
  -14453   -14373   -13797   -13548   -14081   -14694   -14567   -13988 
  -13748   -13996   -14278   -14212   -13975   -14010   -14223   -14254 
  -14135   -14045   -14019   -13999   -14014   -14152   -14305   -14274 
  -14013   -13841   -14053   -14295   -14215   -14076   -14130   -14253 
  -14253   -14143   -14026   -13980   -14037   -14023   -13957   -14142 
  -14391   -14277   -13976   -13929   -14173   -14335   -14158   -13895 
  -13964   -14266   -14287   -13961   -13817   -14121   -14466   -14403 
  -14031   -13817   -14084   -14453   -14262   -13784   -13702   -14000 
  -14343   -14472   -14314   -14060   -13822   -13710   -13964   -14432 
  -14593   -14292   -13856   -13649   -13871   -14318   -14513   -14374 
  -14157   -13917   -13790   -14034   -14318   -14173   -13965   -14131 
  -14320   -14115   -13764   -13815   -14301   -14667   -14531   -14084 
  -13818   -13887   -13979   -13973   -14006   -14148   -14269   -14133 
  -13917   -14108   -14639   -14801   -14206   -13447   -13433   -14146 
  -14559   -14234   -13977   -14193   -14226   -13884   -13872   -14407 
  -14663   -14103   -13443   -13548   -14175   -14381   -13906   -13603 
  -14142   -14891   -14800   -13953   -13470   -13819   -14355   -14534 
  -14315   -13887   -13717   -14056   -14562   -14751   -14431   -13968 
  -13969   -14424   -14665   -14170   -13265   -12923   -13483   -14092 
  -14127   -14076   -14364   -14639   -14465   -14023   -13841   -14022 
  -14343   -14575   -14419   -13963   -13705   -13792   -14029   -14229 
  -14288   -14251   -14249   -14315   -14265   -13882   -13473   -13663 
  -14296   -14553   -14187   -13717   -13767   -14446   -15003   -14787 
  -14293   -14231   -14331   -14023   -13495   -13373   -13811   -14378 
  -14563   -14202   -13610   -13234   -13298   -13934   -14823   -15028 
  -14378   -13926   -14138   -14361   -14154   -13842   -13838   -14040 
  -14181   -14359   -14667   -14885   -14690   -13977   -13208   -13123 
  -13689   -14094   -14004   -13817   -13941   -14582   -15194   -14746 
  -13599   -13036   -13221   -13728   -14404   -14889   -14810   -14451 
  -14384   -14602   -14720   -14666   -14570   -14337   -13740   -12997 
  -12814   -13312   -13853   -14065   -14098   -14179   -14361   -14461 
  -14299   -14060   -14017   -14168   -14500   -14855   -14881   -14554 
  -14030   -13485   -13257   -13423   -13620   -13591   -13578   -13913 
  -14423   -14743   -14843   -14859   -14679   -14176   -13729   -13806 
  -14189   -14268   -13976   -13844   -13987   -14103   -14176   -14324 
  -14538   -14547   -14188   -13892   -13884   -13840   -13694   -13679 
  -13994   -14543   -14704   -14169   -13610   -13660   -13995   -13992 
  -13747   -13813   -14237   -14574   -14573   -14366   -14251   -14343 
  -14477   -14409   -14095   -13828   -13859   -14095   -14308   -14278 
  -13952   -13626   -13676   -13954   -14077   -14187   -14426   -14438 
  -14130   -13923   -14134   -14509   -14480   -14004   -13689   -13873 
  -14180   -14127   -13832   -13753   -13903   -13963   -14006   -14237 
  -14430   -14368   -14293   -14426   -14436   -14104   -13949   -14296 
  -14580   -14331   -13914   -13848   -14116   -14370   -14264   -13780 
  -13367   -13440   -13872   -14219   -14273   -14187   -14242   -14422 
  -14314   -13832   -13567   -13826   -14152   -14270   -14442   -14716 
  -14823   -14563   -14042   -13622   -13514   -13718   -14094   -14397 
  -14530   -14404   -14103   -14084   -14342   -14353   -14011   -13643 
  -13536   -13722   -13994   -14193   -14264   -14149   -13981   -14010 
  -14175   -14264   -14328   -14435   -14445   -14305   -14081   -13813 
  -13686   -13848   -14184   -14488   -14520   -14179   -13753   -13683 
  -14023   -14308   -14233   -14111   -14187   -14229   -14041   -13876 
  -14008   -14246   -14310   -14161   -13938   -13869   -14011   -14235 
  -14405   -14431   -14334   -14166   -14003   -13976   -14129   -14270 
  -14181   -13968   -13872   -13824   -13756   -13878   -14180   -14296 
  -14162   -14083   -14170   -14283   -14296   -14231   -14180   -14152 
  -14146   -14115   -13979   -13887   -14013   -14176   -14241   -14330 
  -14349   -14123   -13884   -13910   -14104   -14158   -14014   -13926 
  -13988   -14134   -14292   -14261   -14099   -14106   -14254   -14376 
  -14432   -14332   -14062   -13842   -13840   -13969   -14050   -14023 
  -13932   -13841   -13911   -14215   -14505   -14505   -14243   -13930 
  -13788   -13921   -14191   -14337   -14269   -14143   -14111   -14142 
  -14139   -14103   -14122   -14239   -14278   -14041   -13730   -13752 
  -14079   -14322   -14289   -14146   -14092   -14076   -13969   -13907 
  -14052   -14273   -14366   -14273   -14091   -13994   -14126   -14434 
  -14602   -14386   -13911   -13609   -13792   -14142   -14148   -13925 
  -13873   -14041   -14188   -14127   -13990   -14033   -14226   -14331 
  -14251   -14096   -14081   -14300   -14450   -14269   -14034   -14052 
  -14158   -14135   -14015   -13925   -13964   -14080   -14125   -14116 
  -14141   -14073   -13888   -13848   -14013   -14158   -14235   -14272 
  -14191   -14040   -13994   -14135   -14369   -14426   -14237   -14075 
  -14112   -14230   -14235   -14094   -13940   -13918   -13988   -14025 
  -14050   -14108   -14157   -14223   -14261   -14146   -14002   -14003 
  -14067   -14118   -14168   -14165   -14106   -14083   -14119   -14149 
  -14157   -14141   -14068   -14014   -14080   -14215   -14258   -14142 
  -14035   -14053   -14057   -13998   -13980   -14062   -14237   -14351 
  -14250   -14058   -13996   -14115   -14253   -14210   -14068   -14046 
  -14173   -14293   -14237   -14021   -13900   -14029   -14197   -14126 
  -13864   -13734   -13914   -14211   -14307   -14143   -13988   -14110 
  -14386   -14469   -14289   -14085   -14038   -14107   -14185   -14242 
  -14222   -14080   -13932   -13929   -13996   -13972   -13929   -14031 
  -14258   -14373   -14192   -13967   -14021   -14156   -14138   -14099 
  -14114   -14133   -14181   -14199   -14081   -13945   -13977   -14137 
  -14239   -14206   -14112   -14108   -14243   -14322   -14180   -14034 
  -14089   -14177   -14126   -13994   -13934   -14038   -14169   -14179 
  -14145   -14152   -14139   -14060   -13975   -13977   -14060   -14150 
  -14196   -14156   -14050   -14033   -14181   -14283   -14185   -14103 
  -14188   -14234   -14068   -13890   -14023   -14377   -14488   -14173 
  -13772   -13676   -13913   -14184   -14242   -14172   -14138   -14112 
  -14045   -14007   -14072   -14176   -14238   -14299   -14301   -14122 
  -13948   -14026   -14254   -14345   -14203   -14007   -13944   -13988 
  -14014   -13961   -13921   -14017   -14177   -14231   -14188   -14192 
  -14246   -14265   -14247   -14193   -14081   -13984   -13996   -14099 
  -14200   -14212   -14149   -14122   -14122   -14040   -13937   -13957 
  -14050   -14088   -14073   -14133   -14288   -14346   -14207   -14056 
  -14044   -14069   -14018   -13960   -14002   -14095   -14122   -14092 
  -14133   -14214   -14176   -14092   -14145   -14280   -14315   -14200 
  -14049   -13980   -14033   -14172   -14260   -14187   -14085   -14098 
  -14138   -14058   -13905   -13880   -14038   -14184   -14142   -14002 
  -13991   -14111   -14181   -14185   -14229   -14257   -14184   -14067 
  -13988   -14011   -14164   -14305   -14276   -14126   -14037   -14087 
  -14177   -14175   -14092   -14067   -14137   -14193   -14164   -14100 
  -14057   -14023   -14002   -14004   -14011   -14006   -14025   -14111 
  -14187   -14146   -14073   -14123   -14230   -14233   -14160   -14122 
  -14091   -14054   -14068   -14112   -14188   -14304   -14341   -14243 
  -14106   -13995   -13952   -13986   -14057   -14145   -14215   -14202 
  -14134   -14094   -14071   -14004   -13910   -13900   -14048   -14246 
  -14288   -14111   -13954   -14046   -14256   -14285   -14142   -14119 
  -14272   -14304   -14104   -13925   -13977   -14134   -14162   -14053 
  -13996   -14083   -14162   -14106   -14048   -14153   -14287   -14220 
  -14054   -14035   -14130   -14152   -14092   -14046   -14030   -14035 
