Origin Time       2025/02/01 08:16:00
Lat.              33.667
Long.             130.927
Depth. (km)       8
Mag.              3.1
Station Code      FKO001
Station Lat.      33.8425
Station Long.     130.5087
Station Height(m) 6
Record Time       2025/02/01 08:17:10
Sampling Freq(Hz) 100Hz
Duration Time(s)  60
Dir.              E-W
Scale Factor      7845(gal)/8223790
Max. Acc. (gal)   1.914
Last Correction   2025/02/01 08:17:10
Memo.             
[...]
    -345     -344     -349     -348     -342     -344     -346     -345 
    -346     -345     -341     -345     -346     -342     -348     -352 
    -344     -342     -351     -349     -344     -345     -346     -346 
    -346     -342     -348     -353     -349     -344     -341     -345 
    -351     -344     -342     -348     -342     -342     -349     -345 
    -340     -345     -346     -341     -344     -348     -340     -340 
    -351     -353     -349     -349     -348     -342     -344     -346 
    -345     -345     -348     -346     -344     -344     -348     -346 
    -345     -346     -346     -344     -348     -352     -348     -345 
    -344     -338     -340     -349     -357     -352     -345     -349 
    -345     -337     -342     -351     -349     -348     -349     -346 
    -346     -346     -341     -344     -348     -345     -345     -345 
    -345     -348     -345     -346     -348     -346     -346     -348 
    -344     -341     -348     -351     -346     -345     -345     -344 
    -345     -348     -348     -346     -348     -348     -346     -349 
    -346     -342     -342     -341     -342     -346     -348     -348 
    -345     -345     -346     -344     -342     -349     -352     -346 
    -344     -345     -346     -348     -344     -345     -348     -340 
    -342     -352     -351     -344     -349     -355     -346     -344 
    -349     -346     -341     -342     -346     -344     -342     -351 
    -352     -342     -344     -348     -345     -344     -348     -349 
    -346     -346     -344     -340     -345     -356     -352     -344 
    -345     -346     -348     -348     -345     -342     -344     -348 
    -344     -341     -348     -348     -344     -348     -348     -344 
    -344     -344     -346     -349     -351     -346     -345     -346 
    -346     -346     -345     -344     -341     -340     -345     -352 
    -351     -351     -352     -349     -344     -344     -346     -348 
    -348     -342     -342     -345     -345     -348     -348     -341 
    -342     -344     -344     -346     -348     -346     -344     -346 
    -349     -344     -337     -342     -351     -345     -344     -353 
    -346     -344     -352     -351     -346     -346     -345     -345 
    -342     -345     -349     -345     -341     -344     -342     -340 
    -352     -357     -349     -345     -342     -341     -344     -348 
    -352     -344     -341     -346     -346     -346     -346     -342 
    -346     -355     -351     -344     -344     -346     -346     -346 
    -348     -346     -345     -348     -349     -345     -345     -346 
    -345     -349     -349     -345     -348     -351     -346     -346 
    -348     -345     -345     -349     -346     -344     -346     -348 
    -344     -345     -348     -342     -341     -346     -351     -352 
    -349     -342     -344     -348     -349     -349     -348     -348 
    -346     -346     -345     -344     -342     -345     -351     -348 
    -346     -351     -346     -345     -345     -340     -342     -346 
    -345     -344     -349     -351     -345     -345     -346     -341 
    -342     -346     -348     -349     -349     -346     -344     -342 
    -345     -349     -349     -349     -349     -345     -342     -348 
    -348     -345     -348     -351     -348     -346     -348     -344 
    -341     -345     -351     -351     -349     -344     -342     -346 
    -346     -342     -348     -349     -340     -337     -345     -349 
    -348     -346     -351     -349     -345     -345     -346     -351 
    -353     -348     -341     -342     -346     -345     -345     -351 
    -344     -338     -346     -348     -341     -348     -353     -348 
    -346     -352     -351     -346     -346     -346     -348     -346 
    -341     -341     -346     -346     -345     -346     -348     -346 
    -345     -346     -348     -348     -346     -349     -348     -345 
    -341     -340     -345     -346     -345     -349     -349     -344 
    -342     -344     -345     -348     -351     -351     -349     -341 
    -340     -345     -344     -345     -352     -346     -341     -345 
    -346     -344     -344     -346     -348     -346     -346     -345 
    -344     -345     -346     -344     -342     -346     -345     -338 
    -344     -352     -345     -344     -355     -349     -340     -346 
    -351     -345     -341     -344     -348     -348     -349     -352 
    -345     -344     -346     -346     -345     -348     -348     -344 
    -344     -344     -344     -346     -344     -344     -345     -346 
    -344     -342     -348     -348     -342     -348     -355     -348 
    -338     -342     -346     -345     -349     -348     -341     -342 
    -344     -344     -351     -353     -348     -346     -349     -342 
    -341     -348     -346     -344     -346     -345     -340     -342 
    -346     -345     -346     -349     -348     -344     -346     -349 
    -346     -344     -349     -351     -345     -344     -349     -349 
    -344     -344     -351     -351     -345     -344     -342     -346 
    -351     -349     -345     -345     -345     -344     -346     -349 
    -346     -345     -346     -348     -348     -348     -351     -348 
    -341     -341     -346     -345     -342     -344     -342     -344 
    -349     -346     -344     -349     -351     -351     -352     -348 
    -342     -344     -342     -338     -345     -349     -342     -344 
    -349     -348     -344     -349     -353     -346     -344     -349 
    -348     -341     -346     -351     -348     -351     -348     -342 
    -346     -344     -341     -351     -351     -344     -342     -346 
    -351     -348     -345     -346     -345     -346     -344     -338 
    -344     -351     -345     -342     -349     -349     -345     -342 
    -344     -346     -346     -348     -346     -341     -345     -348 
    -342     -346     -349     -345     -345     -348     -345     -341 
    -345     -352     -349     -344     -345     -346     -344     -345 
    -351     -349     -349     -346     -341     -345     -349     -346 
    -345     -349     -348     -338     -341     -351     -345     -341 
    -348     -349     -348     -349     -348     -345     -346     -349 
    -349     -344     -341     -345     -341     -341     -349     -348 
    -345     -348     -348     -345     -341     -340     -344     -344 
    -342     -349     -352     -346     -346     -348     -344     -351 
    -352     -348     -351     -353     -351     -345     -341     -345 
    -348     -344     -344     -349     -349     -349     -348     -344 
    -345     -348     -344     -344     -342     -345     -349     -348 
    -348     -349     -345     -345     -344     -341     -342     -345 
    -345     -346     -349     -346     -346     -348     -349     -348 
    -341     -338     -342     -346     -351     -348     -346     -349 
    -348     -346     -349     -351     -345     -342     -346     -346 
    -342     -341     -342     -344     -346     -348     -346     -344 
    -344     -346     -348     -351     -349     -345     -344     -346 
    -349     -349     -349     -352     -351     -346     -345     -340 
    -338     -346     -346     -342     -346     -344     -341     -346 
    -349     -348     -348     -342     -341     -348     -349     -346 
    -349     -346     -344     -349     -352     -341     -333     -338 
    -346     -338     -326     -337     -351     -349     -355     -372 
    -379     -357     -341     -353     -359     -329     -307     -334 
    -369     -364     -349     -373     -391     -337     -286     -302 
    -314     -321     -383     -417     -359     -305     -307     -349 
    -405     -456     -419     -237      -95     -201     -422     -542 
    -518     -384     -274     -274     -294     -298     -307     -303 
    -303     -356     -449     -473     -376     -282     -272     -315 
    -425     -472     -313     -197     -263     -348     -434     -488 
    -444     -340     -190     -140     -321     -534     -580     -460 
    -237      -97     -197     -340     -330     -337     -454     -511 
    -468     -378     -245     -189     -276     -386     -402     -332 
    -268     -271     -341     -441     -500     -465     -351     -255 
    -193     -171     -313     -484     -475     -410     -361     -263 
    -220     -314     -422     -421     -353     -341     -372     -332 
    -290     -367     -433     -363     -275     -287     -326     -329 
    -363     -415     -409     -373     -371     -359     -276     -198 
    -260     -365     -392     -452     -464     -313     -237     -337 
    -403     -317     -217     -297     -423     -386     -332     -414 
    -484     -426     -310     -233     -217     -240     -352     -486 
    -463     -345     -279     -259     -297     -383     -411     -380 
    -353     -318     -267     -286     -411     -472     -345     -236 
    -345     -480     -399     -234     -245     -365     -361     -305 
    -383     -467     -392     -292     -307     -349     -294     -251 
    -328     -368     -337     -346     -346     -364     -434     -419 
    -345     -341     -329     -275     -287     -348     -342     -263 
    -248     -380     -510     -522     -433     -267     -182     -280 
    -411     -452     -391     -245     -193     -376     -562     -480 
    -294     -187     -112     -213     -537     -683     -432     -112 
    -120     -336     -421     -407     -437     -409     -298     -211 
    -226     -369     -459     -384     -355     -441     -484     -384 
    -176     -125     -329     -452     -390     -351     -284     -128 
    -135     -440     -716     -595     -261     -163     -284     -392 
    -499     -507     -268      -83     -280     -584     -542     -255 
    -132     -270     -453     -504     -368     -198     -218     -360 
    -391     -330     -336     -356     -284     -228     -280     -379 
    -477     -488     -352     -255     -340     -445     -400     -291 
    -249     -252     -301     -411     -423     -321     -355     -494 
    -432     -156      -72     -361     -583     -471     -361     -387 
    -345     -252     -267     -411     -502     -400     -232     -199 
    -275     -297     -318     -429     -498     -419     -297     -298 
    -382     -378     -278     -178     -174     -306     -495     -596 
    -503     -284     -166     -218     -287     -292     -295     -356 
    -457     -530     -534     -433     -288     -252     -256     -187 
    -241     -507     -603     -322     -128     -337     -548     -423 
    -199     -153     -236     -394     -618     -611     -276      -66 
    -194     -372     -411     -361     -329     -359     -407     -414 
    -344     -259     -282     -356     -369     -351     -349     -360 
    -342     -265     -288     -440     -483     -418     -319     -191 
    -221     -403     -460     -333     -202     -237     -429     -531 
    -429     -322     -344     -395     -352     -287     -299     -291 
    -270     -344     -391     -368     -433     -518     -440     -241 
    -132     -226     -340     -313     -291     -348     -395     -441 
    -476     -450     -337     -152     -102     -248     -359     -419 
    -552     -625     -477     -287     -253     -287     -272     -291 
    -402     -464     -383     -272     -256     -295     -282     -255 
    -351     -471     -405     -193      -63     -182     -523     -795 
    -731     -432     -176     -145     -214     -237     -297     -388 
    -430     -448     -395     -284     -278     -360     -383     -386 
    -382     -279     -230     -324     -384     -419     -441     -303 
    -108     -125     -379     -517     -387     -286     -317     -346 
    -363     -399     -441     -425     -349     -338     -413     -400 
    -243     -152     -248     -413     -534     -477     -275     -222 
    -353     -461     -515     -459     -226      -90     -241     -394 
    -382     -346     -309     -268     -310     -421     -457     -396 
    -394     -396     -245     -113     -210     -379     -407     -341 
    -251     -241     -396     -517     -504     -452     -317     -236 
    -396     -584     -554     -340      -94       -2     -124     -417 
    -768     -838     -507     -182     -135     -179     -180     -182 
    -279     -506     -614     -410      -41      324      471      211 
    -248     -579     -757     -862     -986    -1170    -1096     -627 
    -346     -637     -851     -156     1013     1306      471     -450 
    -872     -996     -936     -783     -704     -579     -164      549 
    1204     1020     -315    -1787    -2146    -1394     -529     -378 
    -743     -742      -31      766      919      464      -89     -494 
    -612     -252      274      171     -679    -1289    -1024     -442 
    -222     -415     -731     -853     -658     -325     -174     -224 
    -233     -217     -171      207      837      962      259     -514 
    -830    -1231    -1960    -2231    -1548     -504      120      172 
    -184     -608     -469      330     1051     1167      841      318 
    -298     -765     -765     -492     -665    -1470    -2226    -2254 
   -1483     -379      565     1154     1229      795      244     -130 
    -378     -588     -750     -772     -716     -708     -635     -457 
    -368     -271      130      608      571      -49     -676     -954 
   -1004     -781     -287      -63     -460     -980     -954     -464 
     -27       29     -471    -1289    -1555     -707      729     1660 
    1509      611     -456    -1364    -1786    -1540     -943     -469 
    -213        1      149      106      -16     -116     -201     -133 
     -22     -194     -391     -318     -419     -799     -908     -726 
    -685     -842     -773     -117      710     1030      807      284 
    -346     -891    -1274    -1409    -1381    -1449    -1487    -1134 
    -348      508      940      770      259     -234     -554     -734 
    -726     -457     -175     -149     -260     -271      -68      133 
     -55     -421     -445     -248     -187     -243     -344     -535 
    -699     -669     -496     -260       63      324      264      -22 
    -382     -873    -1321    -1445    -1161     -406      560     1075 
     712     -301    -1247    -1618    -1479     -962     -333     -101 
    -210     -145      130      337      288     -152     -823    -1224 
   -1112     -707     -349     -135       90      261      136     -184 
    -434     -446     -133      237      251      -82     -421     -550 
    -556     -580     -548     -342      -63      102       40     -226 
    -535     -772     -892     -854     -780     -764     -785     -864 
    -899     -691     -201      319      510      306       35      -76 
    -144     -275     -456     -680     -876     -908     -665     -243 
      52      199      417      530      318      -10     -334     -762 
   -1112    -1080     -811     -649     -611     -607     -583     -429 
    -238     -178     -139      -35      -21     -257     -687     -901 
    -639     -263     -186     -345     -442     -322     -190     -307 
    -569     -715     -633     -276      229      530      473      251 
      21     -206     -506     -915    -1229    -1158     -719     -216 
     116      207       95     -110     -310     -419     -468     -546 
    -599     -596     -589     -519     -364     -230     -183     -253 
    -409     -477     -400     -346     -417     -542     -567     -348 
     -49      -18     -213     -344     -365     -359     -328     -283 
    -275     -325     -419     -514     -564     -545     -441     -287 
    -218     -345     -580     -679     -535     -332     -206      -68 
     144      284      156     -205     -522     -569     -480     -503 
    -595     -608     -534     -394     -230     -128      -87      -36 
      -9     -164     -441     -561     -515     -548     -631     -562 
    -436     -473     -607     -615     -464     -274     -168     -155 
     -75       58       27     -162     -341     -477     -587     -679 
    -707     -585     -375     -241     -186     -106      -27      -44 
    -214     -499     -745     -837     -776     -558     -271      -89 
     -17      -18     -143     -344     -506     -554     -427     -216 
    -122     -176     -236     -232     -220     -280     -387     -475 
    -598     -727     -687     -467     -248     -117       14      190 
     278       99     -324     -729     -861     -746     -635     -616 
    -495     -303     -344     -522     -479     -278     -238     -391 
    -564     -662     -642     -464     -213      -68      -87     -121 
     -74      -56     -168     -310     -348     -278     -194     -216 
    -351     -490     -511     -379     -180      -49      -94     -332 
    -594     -670     -576     -464     -409     -476     -656     -720 
    -523     -230      -47      -29     -163     -315     -287     -153 
    -178     -306     -305     -282     -445     -577     -453     -349 
    -498     -612     -471     -201       52      141      -59     -426 
    -641     -573     -448     -490     -618     -627     -531     -423 
    -245      -75     -125     -291     -349     -337     -369     -387 
    -333     -319     -432     -526     -436     -261     -180     -170 
    -193     -263     -301     -257     -247     -309     -307     -194 
    -136     -256     -438     -511     -473     -409     -369     -414 
    -515     -531     -430     -326     -256     -226     -298     -460 
    -584     -576     -484     -419     -392     -334     -259     -214 
    -205     -261     -376     -417     -352     -282     -225     -166 
    -179     -307     -449     -502     -477     -436     -386     -298 
    -147        1        1     -180     -406     -521     -510     -461 
    -410     -330     -284     -326     -390     -422     -440     -442 
    -441     -448     -446     -429     -351     -232     -213     -286 
    -297     -264     -329     -499     -608     -522     -333     -218 
    -178     -108      -63     -164     -351     -469     -473     -438 
    -403     -342     -329     -387     -376     -318     -355     -437 
    -487     -545     -579     -465     -230      -86     -128     -225 
    -287     -355     -402     -418     -449     -442     -360     -276 
    -230     -207     -201     -230     -315     -402     -402     -321 
    -261     -284     -359     -409     -375     -291     -260     -310 
    -348     -291     -252     -409     -656     -761     -685     -491 
    -259     -124     -164     -302     -380     -321     -229     -248 
    -301     -270     -249     -319     -405     -464     -523     -531 
    -437     -310     -222     -152     -108     -160     -313     -461 
    -535     -530     -486     -469     -496     -459     -299     -167 
    -217     -368     -434     -359     -248     -202     -191     -191 
    -272     -423     -496     -421     -292     -229     -247     -292 
    -307     -288     -280     -330     -396     -399     -367     -332 
    -303     -349     -450     -473     -413     -349     -330     -382 
    -450     -454     -442     -479     -518     -506     -433     -337 
    -274     -222     -160     -170     -302     -442     -429     -272 
    -143     -136     -193     -247     -297     -346     -372     -342 
