Origin Time       2025/01/26 08:11:00
Lat.              34.975
Long.             138.213
Depth. (km)       21
Mag.              3.4
Station Code      SZO016
Station Lat.      34.8564
Station Long.     138.3120
Station Height(m) 3
Record Time       2025/01/26 08:11:37
Sampling Freq(Hz) 100Hz
Duration Time(s)  60
Dir.              N-S
Scale Factor      7845(gal)/8223790
Max. Acc. (gal)   1.826
Last Correction   2025/01/26 08:11:36
Memo.             
[...]
      44       32       28       36       36       43       51       47 
      17        6       40       43       21       48       64       27 
      22       44       17       16       60       45       16       36 
      35       10       32       67       51       18       24       39 
      33       45       68       52       22       27       31       31 
      60       51       -8        4       39       24       39       68 
      47       21       25       40       43       43       67       81 
      28      -25        5       58       70       56       21       14 
      49       44       13       29       63       52       17       18 
      59       71       41       43       59       22        6       52 
      66       27       16       27       31       58       82       55 
      14       12       16       22       52       68       45       25 
      28       37       44       43       41       44       33       28 
      43       52       47       33       32       47       40       20 
      28       45       39       41       55       36       22       36 
      33       27       35       47       54       49       35       32 
      44       43       32       29       28       22       32       45 
      49       52       39       20       33       52       41       29 
      32       27       25       48       58       40       24       22 
      25       22       24       40       44       36       43       47 
      27       20       32       36       29       17       27       54 
      56       35       31       44       35       22       33       47 
      41       32       32       33       29       21       25       37 
      27       12       37       63       43       25       33       31 
      28       31       27       31       48       59       37       24 
      49       51       24       25       32       27       33       44 
      40       29       21       27       49       48       17       14 
      45       58       43       31       33       31       21       35 
      44       28       29       48       47       33       22       21 
      37       48       31       20       37       52       51       37 
      16       13       31       41       48       49       33       25 
      29       31       39       56       60       33        4       12 
      43       64       52       25       28       47       43       32 
      44       55       39       21       27       43       48       40 
      36       29       18       22       51       66       43       18 
      32       47       32       29       43       44       40       36 
      43       55       51       40       39       31       18       29 
      48       44       39       45       48       43       35       29 
      33       36       39       40       27       28       47       47 
      37       41       43       29       17       28       45       45 
      39       41       36       29       36       47       48       43 
      35       21       25       43       43       32       35       32 
      29       45       54       37       22       31       37       37 
      47       54       39       22       32       41       36       33 
      28       25       48       70       54       24       18       27 
      29       28       25       40       55       44       29       31 
      43       49       41       36       44       52       43       22 
      14       39       47       22       29       55       45       29 
      24       16       25       45       52       49       39       29 
      29       35       33       31       36       36       41       47 
      32       22       32       44       48       44       49       54 
      36       27       31       32       21       18       45       71 
      56       28       16       27       33       25       40       52 
      37       36       41       36       31       25       43       49 
      16       32       58       35       43       37       17       47 
      54       43       44       17       24       51       39       32 
      36       25       28       55       54       37       44       39 
      21       21       37       54       55       33       24       39 
      28       20       44       45       33       29       18       29 
      44       35       39       39       14       18       43       40 
      35       40       41       37       27       24       43       49 
      40       31       27       41       59       54       40       21 
      13       25       36       44       43       21       13       28 
      44       56       54       33       17       18       31       47 
      43       33       47       48       22       17       31       47 
      54       28       18       47       48       20       25       54 
      55       31       22       47       60       39       31       41 
      41       36       35       29       24       27       44       59 
      45       33       33       32       39       44       28       27 
      45       43       29       40       51       41       27       24 
      32       35       37       40       40       41       39       35 
      39       39       36       40       41       36       39       39 
      36       40       33       32       39       32       36       49 
      40       32       36       37       41       43       43       44 
      36       24       28       41       45       36       18       20 
      43       48       44       47       37       35       47       45 
      39       39       35       29       29       32       41       48 
      43       31       24       41       56       39       29       35 
      25       28       47       48       37       33       33       33 
      32       41       59       54       35       32       29       22 
      36       43       36       44       43       25       25       36 
      35       28       29       41       39       27       31       40 
      47       51       49       45       41       33       29       25 
      20       32       49       48       39       39       39       35 
      37       39       32       35       47       45       25       13 
      22       35       39       43       51       54       33       20 
      39       44       36       43       45       36       27       22 
      40       55       29        6       28       51       41       24 
      22       32       40       47       49       40       31       32 
      36       48       48       28       27       40       40       41 
      44       28       17       31       43       49       54       45 
      35       21       14       28       43       51       45       35 
      36       41       39       43       43       35       44       55 
      36       20       21       21       31       43       40       39 
      44       43       39       36       39       41       35       31 
      39       55       59       33        8       21       41       45 
      45       39       35       41       33       25       33       41 
      41       39       35       39       41       31       25       36 
      49       49       47       39       27       29       44       40 
      22       28       41       47       49       36       25       37 
      43       29       29       35       32       35       40       37 
      32       28       27       40       49       41       36       40 
      47       44       29       21       29       40       41       37 
      36       36       37       41       35       22       35       48 
      39       32       39       35       27       35       41       37 
      37       43       45       39       18       16       35       36 
      35       41       40       39       40       33       28       40 
      58       54       45       44       32       20       22       25 
      29       43       47       40       40       29       16       25 
      47       59       54       39       25       27       40       37 
      28       40       48       41       36       21       14       37 
      49       36       37       52       51       37       18       14 
      41       64       51       27       18       24       37       45 
      40       37       41       37       29       29       35       39 
      45       47       36       21       16       27       43       41 
      29       24       31       48       59       55       45       35 
      28       35       41       39       37       37       37       35 
      33       39       39       31       29       36       44       48 
      49       47       37       29       28       39       51       47 
      32       22       25       35       47       51       40       29 
      39       47       40       39       39       41       47       35 
      21       43       58       41       29       18       18       37 
      39       36       49       47       32       33       37       39 
      43       44       36       31       29       36       40       43 
      47       37       25       25       29       39       51       47 
      37       36       39       39       39       40       44       39 
      29       41       52       44       37       36       32       31 
      25       32       49       49       40       39       29       25 
      31       35       45       54       44       33       29       31 
      31       29       39       48       43       32       25       28 
      36       41       41       41       31       24       29       28 
      27       33       22       13       32       55       55       40 
      -6      -94      -94       81      209      125       86      149 
       6     -199      -52      132       -2       27      334      283 
     -66     -164     -175     -247       51      490      280     -172 
       1      195     -286     -535       55      523      228     -156 
     -83       36      -28      113      367      244      -52      -64 
     -12     -133     -151      -59       60      251      149     -259 
    -413     -114      311      499      425      220       21       51 
      87      -97       -8      342      213     -236     -345     -260 
    -279     -182      118      149     -244     -364       55      402 
     448      336       86      -10      126      149      140      384 
     589      318     -252     -476     -129      284      298        6 
    -195     -172     -156     -191      -43      252      261     -152 
    -390     -194      -36      109      442      548      220     -148 
    -229     -187     -182       40      288      133     -110     -136 
     -64       58      136      136      207      291      275      276 
     311      211      -28     -183     -184     -225     -234      -49 
      14     -221     -332      -87      213      260      102       -2 
      24       74      124      199      237      225      207      137 
      -2     -105     -110      -74     -116     -220     -237     -153 
     -55       58      184      260      234      187      197      209 
     221      216       82      -87     -133      -49       35      -48 
    -162      -63      139      263      224       78       51       86 
      -2      -71      -66      -78      -29       49       41        2 
      33       67      -74     -232      -98      116      147      128 
     126       98      129      270      295       14     -187       20 
     224      120      -94     -278     -364     -256      -14      128 
      55      -41       45      195      174       45        8       22 
       2       79      344      569      518      252       14      -72 
    -126     -155      -27      114      112       60      -86     -363 
    -499     -372     -171      -13       94      136      130      163 
     259      321      301      240      106      -74     -128      -21 
      83       91       81       56     -122     -375     -469     -378 
     -67      368      550      422      228       58       12       99 
     145      148      148       62      -54      -90     -117     -182 
     -99      126      180        1     -151     -153      -81      -14 
     120      330      392      228       -1     -170     -193      -36 
     153      136     -101     -272     -220     -110      -24       93 
     151      103      137      319      445      387      252      120 
     -12      -56      -13      -45     -141     -163     -113      -54 
     -60     -108      -49       54       68       85      128      163 
     278      398      340      149       -9      -62      -36      -21 
     -79     -184     -249     -211     -156     -209     -299     -234 
     -24      143      255      409      459      338      282      295 
     225      139       97       81       33      -91     -125      -20 
     -27     -167     -287     -311     -166       86      220      125 
     -55     -126      -94        5      189      310      261      166 
     116       54       -9       33      187      270       86     -234 
    -352     -197       39      153       66      -52      -32       75 
     201      236      121       83      267      422      406      407 
     545      712      722      452        8     -342     -383     -190 
    -160     -518    -1069    -1522    -1661    -1451    -1046     -562 
      -9      625     1198     1433     1200      519     -383     -967 
    -915     -484      -13      311      423      538      918     1449 
    1648     1216      577      395      630      716      280     -641 
   -1582    -1877    -1290     -252      569      776      411     -109 
    -274      164      930     1298      741     -479    -1522    -1738 
   -1250     -679     -363     -228      -79      194      460      560 
     498      247     -140     -345     -178       91      145       68 
     102      328      685      945      877      471      -43     -213 
     203      805     1055      839      309     -260     -568     -546 
    -345     -225     -413     -753     -807     -357      411     1086 
    1263      827      -22     -822    -1086     -843     -561     -464 
    -403     -261      -90        6      -16      -45      101      406 
     560      256     -359     -738     -523       47      461      479 
     252      152      486     1129     1544     1337      665       20 
    -268     -217      -13      151      121     -170     -579     -908 
   -1040     -789      -81      710     1073      841      244     -315 
    -542     -433     -171       76      182      112       -8     -103 
    -195     -172       -2      106       83       28     -130     -418 
    -603     -495     -139      232      421      422      278      137 
     263      637      943      959      641      117     -326     -461 
    -348     -265     -392     -653     -758     -402      352      926 
     828      276     -145     -141      182      491      473      103 
    -278     -286       27      252      203       45      -82     -209 
    -336     -376     -292     -128        2      -48     -263     -418 
    -376     -244     -190     -195      -83      187      469      643 
     737      774      676      427      220      195      195      151 
     214      319      427      556      375     -225     -768     -866 
    -629     -379     -318     -477     -670     -637     -403     -166 
      31      225      427      588      621      537      387      194 
      54        9      -14      -67     -180     -329     -349     -182 
      66      292      399      342      199       87       29     -102 
    -291     -295      -82      125      205      156       70       74 
     170      245      230      175      205      292      284      140 
     -99     -315     -325     -162      -43     -108     -318     -521 
    -585     -465     -187       91      251      318      328      310 
     294      263      256      356      535      680      677      472 
     176       10       24       68       28      -93     -253     -359 
    -322     -236     -243     -306     -301     -193      -27      135 
     210      151       32      -20       -8        1        1      -24 
    -132     -307     -395     -259       16      213      241      182 
     153      143       89       64      155      307      394      378 
     352      380      413      359      217       78      -35     -171 
    -321     -406     -333     -120      108      244      240      179 
     211      326      411      438      429      400      351      247 
     108      -25     -209     -444     -591     -589     -522     -472 
    -436     -392     -369     -359     -310     -248     -210     -183 
    -176     -179     -156      -97       31      194      297      387 
     504      567      557      529      503      527      645      815 
     919      877      720      503      253       33     -126     -243 
    -295     -314     -417     -596     -691     -639     -550     -557 
    -660     -714     -654     -546     -426     -310     -189      -29 
     101      151      172      167      118      101      175      294 
     373      390      359      336      402      515      550      541 
     565      572      525      469      398      305      202       95 
      16      -48     -148     -263     -306     -259     -175      -87 
     -13       27       21      -25      -76     -128     -205     -284 
    -336     -329     -226     -101      -59      -93     -145     -186 
    -209     -205     -171     -114        4      203      369      421 
     395      314      226      240      329      395      437      433 
     321      137        0      -55      -74      -54      -18      -59 
    -167     -252     -260     -190     -108      -79      -86      -99 
    -149     -222     -267     -294     -295     -251     -205     -168 
    -110      -39       49      147      221      322      477      600 
     614      517      365      233      137       45      -70     -182 
    -221     -187     -102       48      191      264      291      260 
     187      144      132      121       83       -2      -58      -47 
     -17       39       95       86       17      -66     -109      -83 
     -56      -81     -124     -147     -133      -95      -67      -56 
     -67     -108     -122      -64       -6       21       60       79 
      66       81      149      249      318      305      253      247 
     280      303      306      276      201      114       63       32 
       2      -10      -48     -125     -160     -156     -157     -143 
    -121      -93      -43       -8       31       71       71       78 
     109      112       74        9      -55      -60      -16       -1 
     -47     -112     -151     -160     -122      -25       79      105 
      21     -103     -159     -101       41      186      261      294 
     318      352      399      409      372      318      230      103 
     -29     -129     -193     -234     -247     -255     -264     -225 
    -179     -162     -120      -43       25       63       81      101 
     120      124      114       98       58      -17      -45       10 
      82      108       89       59       48       52       82      117 
     122      125      137      144      149      141      103       39 
     -37      -79      -81      -94     -143     -183     -182     -136 
     -47       39       62       27       -2       43      157      263 
