Origin Time       2025/01/26 08:11:00
Lat.              34.975
Long.             138.213
Depth. (km)       21
Mag.              3.4
Station Code      SZO016
Station Lat.      34.8564
Station Long.     138.3120
Station Height(m) 3
Record Time       2025/01/26 08:11:37
Sampling Freq(Hz) 100Hz
Duration Time(s)  60
Dir.              U-D
Scale Factor      7845(gal)/8223790
Max. Acc. (gal)   1.716
Last Correction   2025/01/26 08:11:36
Memo.             
    3015     3022     3015     3021     3034     3038     3037     3040 
    3044     3048     3051     3033     3001     2986     2992     3010 
    3042     3065     3056     3053     3044     2988     2972     3026 
    3040     3022     3042     3051     3022     3032     3064     3059 
    3026     2998     2984     2982     2999     3034     3068     3087 
    3078     3024     2974     3005     3044     3014     3009     3051 
    3044     3013     3033     3048     3022     3018     3038     3041 
    3021     2997     3006     3048     3060     3037     3034     3028 
    3005     3011     3029     3026     3024     3030     3041     3037 
    3021     3026     3037     3025     3018     3024     3006     2999 
    3029     3049     3052     3055     3033     3007     3014     3021 
    3014     3018     3032     3042     3040     3040     3046     3028 
    3009     3028     3033     3013     3017     3034     3030     3022 
    3024     3024     3036     3046     3030     3017     3024     3037 
    3051     3044     3002     2983     3022     3057     3040     3014 
    3021     3029     3021     3011     3003     3019     3059     3063 
    3032     3028     3042     3042     3041     3032     2988     2957 
    2992     3064     3084     3032     3002     3040     3064     3033 
    3007     3009     3021     3040     3046     3030     3022     3022 
    3010     3015     3026     3006     2984     3010     3059     3072 
    3030     3017     3061     3063     3013     3005     3014     3015 
    3044     3042     3002     3017     3056     3036     3010     3032 
    3044     3021     3009     3021     3030     3026     3025     3040 
    3038     3024     3022     3019     3019     3029     3034     3025 
    3014     3021     3040     3053     3046     3029     3011     3003 
    3017     3036     3038     3030     3021     3025     3034     3026 
    3021     3029     3026     3024     3025     3022     3025     3030 
    3024     3025     3032     3033     3033     3025     3018     3021 
    3021     3021     3033     3037     3029     3022     3026     3034 
    3032     3022     3025     3030     3033     3037     3032     3030 
    3036     3030     3019     3014     3011     3018     3030     3034 
    3038     3037     3029     3026     3022     3021     3028     3022 
    3009     3017     3038     3051     3048     3032     3017     3018 
    3024     3029     3033     3022     3006     3014     3028     3032 
    3038     3041     3040     3042     3038     3026     3024     3036 
    3028     3003     3013     3042     3046     3029     3014     3003 
    3007     3030     3041     3036     3025     3015     3028     3057 
    3061     3029     3005     3015     3034     3029     3017     3028 
    3046     3046     3032     3015     3013     3022     3025     3021 
    3019     3018     3033     3055     3048     3015     2998     3013 
    3042     3053     3038     3018     3013     3022     3032     3030 
    3028     3029     3028     3026     3029     3028     3037     3045 
    3037     3024     3021     3034     3045     3030     3015     3028 
    3034     3029     3028     3022     3009     3006     3022     3042 
    3038     3019     3019     3034     3038     3026     3010     3011 
    3022     3025     3029     3045     3056     3049     3030     3010 
    3013     3036     3048     3042     3026     3013     3025     3045 
    3041     3026     3013     3005     3010     3026     3040     3042 
    3033     3021     3009     3007     3026     3048     3041     3022 
    3022     3030     3026     3025     3036     3041     3029     3021 
    3019     3018     3024     3034     3038     3037     3034     3034 
    3028     3015     3014     3025     3028     3025     3030     3032 
    3030     3026     3014     3018     3033     3040     3040     3028 
    3017     3026     3032     3022     3018     3018     3022     3034 
    3041     3037     3032     3024     3015     3017     3026     3040 
    3044     3045     3046     3036     3018     3017     3026     3029 
    3034     3042     3030     3014     3015     3015     3010     3011 
    3026     3051     3065     3055     3028     3009     3002     3007 
    3025     3042     3041     3026     3024     3034     3038     3034 
    3017     2995     3005     3046     3069     3056     3032     3011 
    3011     3032     3046     3045     3028     3006     3003     3021 
    3038     3036     3022     3017     3022     3038     3053     3041 
    3021     3013     3013     3032     3049     3038     3022     3013 
    3015     3029     3015     3014     3044     3030     3017     3040 
    3036     3041     3037     2994     3011     3032     3021     3052 
    3041     3010     3044     3041     3011     3034     3038     3024 
    3032     3022     3025     3048     3029     3014     3032     3021 
    3007     3036     3048     3036     3036     3021     3002     3019 
    3037     3034     3029     3015     3010     3030     3048     3045 
    3026     3005     3003     3013     3022     3041     3053     3048 
    3032     3006     3002     3033     3053     3049     3044     3033 
    3018     3013     3019     3032     3028     3017     3024     3037 
    3041     3036     3017     2999     3005     3025     3042     3051 
    3042     3033     3029     3018     3007     3014     3029     3037 
    3041     3042     3037     3022     3013     3022     3037     3041 
    3033     3024     3022     3026     3028     3029     3033     3034 
    3033     3028     3021     3019     3025     3032     3029     3015 
    3007     3024     3042     3040     3026     3025     3037     3044 
    3028     3011     3019     3029     3030     3030     3032     3036 
    3037     3028     3019     3022     3028     3026     3015     3014 
    3032     3040     3033     3026     3030     3045     3048     3032 
    3021     3019     3017     3018     3026     3034     3038     3036 
    3029     3022     3018     3021     3029     3028     3026     3036 
    3034     3025     3024     3028     3034     3032     3024     3029 
    3036     3032     3034     3030     3021     3015     3013     3017 
    3030     3037     3040     3042     3037     3030     3028     3028 
    3025     3028     3028     3018     3013     3024     3041     3041 
    3028     3026     3028     3028     3036     3034     3019     3017 
    3030     3038     3033     3018     3011     3018     3030     3037 
    3036     3033     3032     3021     3013     3029     3045     3040 
    3028     3024     3019     3024     3029     3033     3033     3026 
    3018     3018     3024     3024     3022     3029     3038     3040 
    3041     3041     3029     3015     3011     3021     3040     3046 
    3036     3025     3025     3029     3030     3032     3033     3033 
    3028     3014     3011     3025     3032     3024     3015     3024 
    3044     3044     3026     3015     3015     3026     3034     3029 
    3030     3040     3033     3018     3006     3009     3026     3042 
    3045     3041     3030     3022     3022     3021     3022     3032 
    3042     3049     3045     3022     3005     3006     3019     3036 
    3044     3030     3015     3019     3036     3037     3022     3015 
    3022     3033     3040     3033     3028     3034     3030     3010 
    3005     3025     3051     3060     3042     3015     3007     3025 
    3038     3029     3010     3013     3037     3044     3024     3009 
    3013     3028     3041     3037     3032     3038     3033     3017 
    3010     3019     3038     3042     3030     3029     3034     3033 
    3034     3029     3014     3009     3017     3034     3052     3041 
    3018     3007     3010     3028     3042     3036     3028     3030 
    3036     3040     3029     3010     3013     3028     3037     3044 
    3036     3024     3022     3022     3022     3028     3036     3042 
    3033     3014     3018     3038     3044     3033     3025     3022 
    3018     3018     3025     3032     3030     3021     3017     3028 
    3038     3037     3029     3025     3025     3029     3044     3046 
    3030     3018     3014     3015     3033     3046     3040     3028 
    3017     3017     3025     3024     3022     3028     3022     3022 
    3028     3026     3032     3046     3046     3037     3029     3032 
    3037     3024     3015     3028     3028     3025     3036     3036 
    3029     3026     3018     3015     3015     3014     3032     3057 
    3046     3019     3014     3017     3024     3037     3048     3049 
    3038     3024     3011     3003     3019     3045     3046     3037 
    3026     3014     3013     3013     3014     3022     3037     3059 
    3061     3033     3010     3010     3014     3022     3036     3048 
    3059     3052     3015     2987     2991     3011     3037     3057 
    3055     3030     3009     3010     3022     3028     3030     3033 
    3034     3038     3040     3033     3028     3025     3026     3033 
    3034     3029     3022     3009     3006     3024     3040     3044 
    3044     3036     3022     3011     3011     3029     3040     3025 
    3018     3032     3041     3042     3033     3013     3013     3026 
    3030     3037     3045     3036     3018     3018     3029     3034 
    3032     3028     3028     3029     3032     3033     3030     3029 
    3024     3019     3026     3036     3038     3032     3018     3013 
    3022     3032     3034     3034     3033     3032     3032     3033 
    3037     3032     3017     3018     3028     3026     3028     3032 
    3026     3025     3030     3029     3033     3032     3017     3021 
    3037     3036     3024     3019     3025     3030     3034     3036 
    3028     3021     3029     3037     3032     3025     3025     3026 
    3028     3032     3034     3034     3024     3019     3029     3030 
    3019     3014     3015     3026     3036     3034     3033     3034 
    3029     3030     3029     3024     3029     3030     3028     3033 
    3030     3026     3034     3034     3029     3026     3022     3021 
    3025     3026     3032     3032     3029     3029     3024     3018 
    3021     3028     3032     3032     3025     3032     3057     3099 
    3161     3213     3199     3119     3028     2997     3203     3761 
    4222     3916     3098     2625     2374     1757     1416     2014 
    2582     2554     2874     3385     2890     2000     2180     3256 
    4320     4827     4288     3172     2932     3446     3042     2014 
    2423     3855     3716     2020     1601     3171     4148     3338 
    2768     3397     3462     2415     2004     2843     3666     3809 
    3773     3850     3327     1906     1341     2775     4261     4002 
    2949     2577     2582     2440     2755     3213     2990     2874 
    3213     3082     2640     2685     3254     3904     4052     3460 
    2338     1617     2504     4091     4226     3030     2120     2114 
    2690     3076     3069     3406     3817     3364     2467     2212 
    2921     3827     4002     3514     2849     2428     2563     2995 
    3246     3234     3164     3022     2763     2744     2965     3137 
    3184     2843     2327     2374     3032     3649     3528     3038 
    3223     3437     2759     2412     3210     3978     3701     2872 
    2698     3096     2906     2272     2268     2878     3227     3088 
    3091     3391     3339     2898     2700     2731     2683     2944 
    3611     3812     3275     2883     3114     3267     2732     2235 
    2686     3585     3936     3677     3366     3133     2582     1972 
    2096     2717     3051     3169     3366     3411     3056     2604 
    2663     3217     3543     3339     3025     2870     2793     2944 
    3287     3210     2705     2538     2839     3146     3321     3331 
    3107     2894     3006     3273     3237     2886     2674     2772 
    3010     3268     3387     3257     3038     2902     2870     2879 
    2930     3068     3199     3217     3133     3064     3115     3125 
    2848     2462     2462     3063     3689     3586     3075     2840 
    2789     2724     2803     3087     3338     3296     3125     3011 
    2782     2575     2751     3114     3153     2837     2810     3356 
    3743     3420     2910     2867     3048     2965     2897     3106 
    3133     2816     2685     2941     3245     3298     3076     2889 
    2967     3088     3073     3028     3056     3137     3082     2853 
    2760     2963     3250     3307     3057     2755     2687     2974 
    3387     3411     3024     2693     2667     2961     3269     3210 
    2982     2911     3014     3150     3096     2936     2980     3106 
    3022     2847     2880     3099     3176     3110     3111     3106 
    3037     2938     2889     3026     3210     3308     3280     2963 
    2640     2710     2970     3102     3123     3125     3071     2988 
    3029     3063     2918     2874     3111     3295     3165     2922 
    2830     2853     2905     3067     3242     3168     2910     2785 
    2905     3076     3052     2963     3148     3472     3576     3419 
    3082     2737     2617     2685     2843     3025     3010     2820 
    2809     3013     3129     2991     2737     2732     3122     3549 
    3616     3339     2983     2787     2883     3148     3234     3045 
    2847     2799     2902     3032     2870     2540     2651     3242 
    3700     3553     3055     2918     3171     3287     3191     2994 
    2805     2856     3083     3186     3076     2944     2932     2910 
    2856     2907     2965     2990     3092     3184     3169     3067 
    2855     2705     2814     2987     3037     3121     3237     3172 
    2974     2878     3018     3254     3365     3369     3275     3018 
    2874     3002     3046     2839     2700     2851     3090     3084 
    2914     2910     3064     3184     3146     2926     2848     3030 
    3103     2983     2856     2775     2791     2925     3137     3254 
    3200     3217     3311     3275     3138     2956     2812     2890 
    3094     3105     2891     2741     2829     3051     3211     3215 
    3121     3030     3032     3110     3069     2894     2868     3094 
    3296     3207     2909     2813     3078     3269     3119     2866 
    2663     2602     2820     3154     3350     3316     3095     2902 
    2862     2920     3015     3007     2894     2916     3106     3238 
    3179     3075     3083     3084     3009     2984     3067     3123 
    3030     2960     3045     3073     3022     3015     2928     2822 
    2965     3269     3464     3411     3123     2878     2883     2983 
    3026     2955     2767     2666     2763     2983     3292     3532 
    3492     3153     2782     2713     2837     2810     2689     2697 
    2744     2691     2710     2967     3315     3527     3526     3379 
    3234     3207     3199     3073     2945     2990     3095     3046 
    2874     2798     2878     2995     3094     3171     3195     3140 
    3055     2988     2911     2879     2902     2876     2844     2859 
    2810     2794     3014     3304     3406     3337     3181     3063 
    3059     3011     2941     3030     3078     2840     2573     2592 
    2837     3119     3319     3300     3111     3011     3078     3213 
    3285     3219     3119     3065     3026     2991     2947     2916 
    2937     3007     3086     3095     3029     2943     2884     2952 
    3145     3299     3323     3275     3159     2936     2749     2801 
    3038     3153     2979     2779     2837     3026     3138     3171 
    3177     3150     3071     2957     2859     2841     2916     2960 
    2901     2826     2855     2987     3111     3161     3165     3121 
    3075     3111     3149     3179     3245     3202     3044     2871 
    2695     2671     2826     2959     3079     3146     3018     2926 
    3011     2995     2922     3061     3285     3302     3181     3181 
    3210     3079     2910     2889     2980     3009     3006     3117 
    3206     3132     3030     2991     2932     2855     2875     3037 
    3235     3271     3121     3018     3022     3017     2987     2953 
    2884     2808     2848     3002     3032     2934     2957     3065 
    3071     3030     3029     3042     3040     3018     3049     3125 
    3140     3118     3099     3044     2957     2890     2914     3018 
    3052     3022     3059     3076     2961     2803     2747     2809 
    2911     3033     3156     3215     3245     3292     3280     3188 
    3063     2926     2826     2802     2832     2883     2914     2889 
    2851     2874     2975     3083     3145     3195     3196     3138 
    3136     3198     3206     3129     3053     3025     2990     2949 
    2976     3064     3127     3099     3017     2971     2952     2949 
    2979     3005     3041     3121     3198     3234     3204     3146 
    3105     3076     3051     3003     2948     2949     3001     3010 
    2917     2818     2868     3024     3144     3122     2959     2864 
    2936     3032     3079     3076     3061     3119     3213     3240 
    3171     3036     2965     3013     3057     3034     2956     2852 
    2856     2975     3007     2887     2766     2821     3007     3109 
    3086     3059     3063     3065     3053     3018     2974     2970 
    3036     3134     3150     3095     3148     3267     3258     3142 
    3063     3064     3087     3057     2953     2816     2718     2728 
    2839     2974     3038     2991     2906     2884     2913     2937 
    3002     3129     3206     3163     3075     3013     2976     2997 
    3106     3240     3316     3316     3245     3122     3026     3021 
    3060     3080     3069     3014     2943     2933     2970     2972 
    2961     2990     3003     2961     2945     2998     3079     3142 
    3114     2991     2937     3006     3090     3142     3126     3006 
    2870     2806     2805     2822     2832     2833     2864     2948 
    3018     3030     3021     3040     3127     3253     3294     3223 
    3133     3098     3106     3064     2995     2980     2947     2867 
    2836     2876     2959     3025     3019     2976     2957     3005 
    3137     3246     3221     3161     3168     3179     3150     3119 
    3123     3164     3161     3068     2968     2949     2992     3026 
    2988     2897     2826     2830     2932     3065     3119     3086 
    3042     3033     3044     3064     3099     3136     3157     3171 
    3146     3073     3042     3046     3028     3024     3006     2928 
    2879     2899     2926     2926     2910     2925     2982     3009 
    3011     3009     2980     2964     2992     3034     3060     3068 
    3083     3082     3041     3028     3042     3011     2965     2957 
    2978     3022     3076     3106     3090     3042     3003     2971 
    2951     2975     3019     3026     2975     2909     2905     2976 
    3032     3013     2978     2955     2937     2965     3055     3129 
    3144     3148     3187     3264     3302     3225     3115     3091 
    3123     3137     3114     3059     2988     2959     3013     3067 
    3040     2994     2982     2995     3011     3001     2987     2991 
    2987     3002     3018     2994     2976     2983     2986     3001 
    3017     3028     3036     3042     3057     3067     3048     3024 
