Origin Time       2025/01/26 08:11:00
Lat.              34.975
Long.             138.213
Depth. (km)       21
Mag.              3.4
Station Code      SZO016
Station Lat.      34.8564
Station Long.     138.3120
Station Height(m) 3
Record Time       2025/01/26 08:11:37
Sampling Freq(Hz) 100Hz
Duration Time(s)  60
Dir.              E-W
Scale Factor      7845(gal)/8223790
Max. Acc. (gal)   1.429
Last Correction   2025/01/26 08:11:36
Memo.             
[...]
   11291    11298    11315    11329    11314    11290    11294    11307 
   11315    11314    11307    11304    11314    11333    11319    11284 
   11291    11317    11317    11311    11327    11335    11315    11308 
   11317    11300    11292    11307    11314    11326    11337    11313 
   11295    11307    11313    11311    11306    11299    11308    11317 
   11310    11314    11322    11308    11298    11317    11325    11318 
   11326    11317    11304    11318    11311    11303    11313    11310 
   11318    11326    11307    11296    11299    11302    11325    11341 
   11319    11311    11319    11287    11281    11342    11350    11303 
   11300    11318    11318    11314    11306    11315    11323    11302 
   11292    11315    11329    11325    11318    11307    11300    11310 
   11311    11303    11310    11313    11299    11310    11325    11313 
   11300    11310    11313    11311    11325    11314    11295    11304 
   11304    11303    11325    11333    11325    11311    11295    11296 
   11303    11311    11330    11329    11304    11303    11314    11306 
   11306    11319    11321    11319    11304    11286    11308    11331 
   11307    11298    11321    11319    11308    11310    11307    11310 
   11313    11313    11313    11308    11308    11315    11318    11321 
   11318    11300    11295    11314    11319    11310    11313    11321 
   11318    11300    11296    11313    11321    11313    11299    11303 
   11321    11327    11318    11303    11302    11303    11303    11323 
   11335    11315    11298    11295    11307    11321    11313    11304 
   11322    11334    11307    11281    11306    11325    11314    11311 
   11306    11298    11303    11308    11315    11329    11326    11302 
   11290    11307    11310    11299    11314    11330    11314    11290 
   11295    11317    11318    11306    11308    11322    11321    11302 
   11294    11311    11323    11318    11307    11299    11306    11314 
   11315    11314    11311    11302    11295    11308    11322    11314 
   11303    11307    11314    11315    11319    11314    11306    11306 
   11303    11304    11318    11315    11308    11318    11317    11295 
   11290    11303    11307    11307    11323    11323    11306    11308 
   11310    11299    11311    11326    11315    11313    11318    11302 
   11291    11310    11317    11308    11303    11304    11315    11317 
   11308    11323    11341    11322    11287    11280    11303    11326 
   11338    11333    11311    11294    11292    11304    11318    11321 
   11321    11315    11300    11299    11315    11326    11319    11299 
   11292    11308    11321    11315    11317    11318    11304    11298 
   11306    11308    11311    11323    11325    11319    11315    11310 
   11313    11315    11302    11299    11321    11327    11317    11308 
   11303    11302    11303    11314    11323    11306    11291    11307 
   11321    11319    11322    11319    11308    11311    11315    11303 
   11303    11318    11327    11334    11326    11299    11284    11291 
   11302    11317    11326    11323    11318    11310    11296    11294 
   11302    11314    11318    11306    11303    11319    11319    11311 
   11319    11317    11306    11314    11306    11294    11308    11321 
   11321    11318    11311    11308    11299    11302    11315    11310 
   11313    11322    11310    11311    11325    11308    11290    11298 
   11315    11327    11322    11302    11299    11308    11303    11307 
   11322    11319    11299    11290    11303    11322    11330    11311 
   11290    11307    11329    11314    11303    11303    11302    11317 
   11327    11319    11314    11299    11291    11310    11306    11311 
   11340    11308    11288    11303    11294    11315    11329    11311 
   11315    11299    11280    11307    11319    11303    11319    11329 
   11300    11302    11319    11303    11311    11330    11306    11303 
   11326    11307    11295    11306    11306    11317    11311    11284 
   11300    11321    11303    11307    11322    11318    11325    11315 
   11298    11304    11306    11306    11329    11327    11298    11281 
   11287    11310    11325    11325    11323    11310    11298    11315 
   11317    11307    11321    11327    11322    11322    11308    11299 
   11304    11306    11302    11296    11303    11319    11325    11317 
   11310    11300    11290    11310    11335    11318    11296    11310 
   11319    11317    11315    11310    11308    11310    11308    11318 
   11322    11306    11295    11306    11317    11315    11308    11310 
   11314    11313    11307    11308    11310    11307    11314    11315 
   11310    11314    11315    11313    11315    11313    11306    11306 
   11308    11315    11325    11321    11310    11310    11313    11317 
   11311    11304    11306    11307    11311    11329    11335    11318 
   11306    11303    11294    11299    11315    11323    11323    11313 
   11302    11302    11303    11308    11315    11313    11311    11310 
   11307    11315    11321    11314    11310    11306    11306    11313 
   11326    11322    11300    11294    11302    11303    11303    11314 
   11319    11307    11296    11295    11304    11321    11318    11307 
   11308    11314    11313    11311    11310    11311    11303    11288 
   11298    11317    11317    11308    11307    11299    11290    11299 
   11317    11314    11307    11313    11318    11314    11299    11296 
   11313    11325    11323    11308    11294    11307    11334    11323 
   11288    11288    11313    11319    11318    11317    11307    11300 
   11302    11304    11307    11321    11334    11322    11299    11296 
   11313    11326    11322    11317    11311    11298    11306    11325 
   11315    11295    11296    11311    11319    11318    11313    11311 
   11317    11325    11322    11311    11304    11303    11313    11321 
   11315    11314    11315    11311    11318    11321    11307    11298 
   11302    11318    11330    11331    11319    11300    11294    11308 
   11321    11315    11310    11304    11296    11302    11319    11335 
   11329    11313    11308    11303    11300    11313    11330    11334 
   11321    11302    11291    11296    11298    11310    11333    11333 
   11310    11294    11294    11307    11315    11327    11330    11304 
   11290    11306    11314    11317    11325    11321    11311    11298 
   11284    11296    11323    11330    11313    11294    11302    11319 
   11322    11317    11310    11306    11308    11315    11319    11311 
   11302    11304    11319    11325    11300    11271    11284    11327 
   11340    11315    11302    11303    11299    11303    11318    11322 
   11315    11311    11307    11314    11326    11318    11306    11310 
   11302    11296    11319    11326    11311    11303    11296    11303 
   11325    11317    11290    11281    11299    11321    11317    11298 
   11299    11310    11317    11323    11314    11300    11303    11310 
   11310    11311    11314    11313    11303    11302    11307    11306 
   11311    11333    11325    11298    11300    11313    11306    11302 
   11313    11318    11310    11303    11308    11317    11310    11313 
   11321    11310    11300    11303    11306    11319    11329    11317 
   11303    11299    11304    11314    11317    11318    11315    11299 
   11298    11310    11314    11322    11319    11307    11308    11304 
   11303    11322    11322    11313    11322    11318    11304    11308 
   11308    11310    11319    11315    11311    11315    11307    11306 
   11314    11302    11300    11319    11323    11317    11304    11295 
   11313    11323    11315    11319    11317    11307    11315    11311 
   11299    11302    11314    11333    11329    11300    11295    11304 
   11300    11304    11311    11317    11322    11313    11307    11319 
   11307    11287    11302    11318    11311    11315    11318    11307 
   11310    11315    11311    11308    11304    11311    11319    11308 
   11304    11317    11318    11306    11294    11302    11322    11319 
   11302    11308    11326    11331    11321    11303    11304    11321 
   11319    11314    11298    11279    11291    11318    11335    11341 
   11314    11290    11304    11314    11303    11310    11327    11330 
   11315    11303    11300    11300    11315    11326    11307    11298 
   11318    11323    11323    11330    11313    11292    11304    11319 
   11321    11315    11311    11310    11300    11296    11317    11323 
   11306    11303    11306    11302    11307    11319    11322    11315 
   11304    11300    11313    11338    11344    11318    11298    11303 
   11318    11315    11306    11307    11303    11295    11294    11306 
   11322    11322    11311    11304    11307    11318    11321    11308 
   11318    11335    11317    11291    11299    11311    11311    11304 
   11300    11311    11315    11302    11306    11322    11321    11318 
   11313    11295    11300    11327    11340    11323    11304    11299 
   11296    11296    11314    11318    11295    11292    11314    11318 
   11314    11314    11311    11317    11321    11318    11311    11302 
   11303    11317    11319    11317    11313    11302    11299    11302 
   11296    11306    11313    11311    11322    11322    11296    11284 
   11300    11317    11323    11321    11311    11314    11311    11294 
   11310    11365    11368    11299    11257    11260    11250    11265 
   11342    11367    11287    11268    11317    11244    11196    11360 
   11452    11357    11385    11452    11264    11110    11269    11422 
   11369    11318    11348    11326    11160    10980    11106    11520 
   11709    11480    11265    11263    11254    11215    11276    11399 
   11481    11450    11313    11222    11165    11098    11238    11504 
   11527    11349    11226    11106    10994    11234    11641    11574 
   11246    11184    11184    11156    11330    11516    11504    11435 
   11404    11287    11082    11105    11449    11645    11449    11268 
   11286    11203    10944    10875    11294    11732    11523    11032 
   10964    11167    11317    11539    11715    11470    11121    11206 
   11394    11254    11117    11225    11318    11331    11439    11489 
   11280    11132    11337    11565    11472    11279    11354    11547 
   11419    11167    11271    11493    11364    11056    11020    11172 
   11156    11079    11225    11418    11365    11176    11126    11213 
   11237    11242    11412    11585    11515    11377    11403    11493 
   11584    11716    11669    11317    11101    11268    11418    11315 
   11165    11113    11134    11167    11136    11070    11098    11256 
   11398    11391    11318    11295    11268    11213    11248    11402 
   11499    11446    11356    11327    11307    11242    11192    11233 
   11403    11635    11646    11372    11194    11205    11141    11114 
   11325    11483    11367    11218    11199    11226    11284    11385 
   11433    11380    11296    11242    11250    11357    11479    11438 
   11237    11098    11199    11387    11430    11418    11434    11369 
   11238    11164    11160    11144    11191    11371    11416    11227 
   11105    11183    11342    11465    11514    11497    11473    11485 
   11454    11335    11263    11254    11207    11119    11037    11028 
   11171    11356    11404    11333    11307    11387    11446    11421 
   11395    11384    11310    11236    11276    11335    11373    11477 
   11537    11431    11288    11232    11219    11175    11133    11145 
   11136    11074    11083    11205    11272    11215    11242    11473 
   11691    11728    11673    11570    11437    11345    11326    11360 
   11353    11248    11115    10975    10833    10876    11082    11191 
   11227    11326    11392    11384    11412    11465    11487    11516 
   11558    11610    11611    11427    11202    11188    11314    11421 
   11427    11279    11125    11133    11218    11249    11265    11341 
   11410    11364    11226    11129    11155    11259    11373    11491 
   11551    11461    11250    11067    11025    11113    11207    11233 
   11241    11269    11321    11407    11469    11443    11381    11353 
   11381    11419    11346    11194    11144    11245    11396    11491 
   11416    11188    11056    11172    11371    11462    11434    11415 
   11497    11576    11568    11483    11265    11025    11025    11249 
   11421    11371    11169    11003    11013    11114    11098    11010 
   11049    11221    11465    11668    11630    11376    11203    11342 
   11681    11936    11948    11720    11377    11146    11133    11184 
   11146    11094    11124    11163    11144    11075    10926    10771 
   10821    11114    11454    11631    11574    11381    11271    11344 
   11483    11601    11720    11801    11753    11535    11229    10983 
   10909    11041    11323    11566    11538    11273    11099    11188 
   11484    11850    12047    11929    11618    11272    11007    10989 
   11257    11605    11819    11901    11952    11978    11880    11577 
   11091    10621    10426    10512    10631    10594    10427    10300 
   10480    10990    11477    11670    11550    11249    11047    11086 
   11190    11133    10882    10621    10593    10885    11275    11453 
   11335    11055    10921    11245    11915    12411    12384    12002 
   11596    11272    11053    11014    11157    11418    11672    11715 
   11500    11342    11574    12070    12268    11785    10910    10347 
   10571    11412    12124    12037    11146    10130     9813    10374 
   11257    11859    11917    11480    10944    10783    11088    11485 
   11596    11446    11268    11173    11165    11217    11365    11704 
   12106    12244    11965    11461    11107    11163    11512    11739 
   11591    11232    10925    10827    11045    11468    11803    11919 
   11789    11433    11075    11018    11394    11943    12143    11851 
   11422    11107    10854    10613    10488    10581    10835    11020 
   10917    10546    10223    10282    10782    11480    11946    11938 
   11634    11322    11156    11219    11530    11934    12121    11951 
   11624    11352    11133    10975    10937    10989    11061    11128 
   11103    10920    10697    10732    11200    11865    12325    12537 
   12640    12583    12309    11923    11460    10906    10482    10442 
   10629    10697    10615    10646    10949    11422    11782    11871 
   11770    11566    11341    11245    11198    10936    10511    10314 
   10629    11284    11757    11682    11232    10898    11001    11488 
   12059    12361    12252    11875    11470    11192    11043    10966 
   10987    11163    11403    11526    11496    11383    11192    10972 
   10858    10922    11140    11404    11541    11479    11296    11125 
   11078    11146    11219    11248    11219    11130    11109    11330 
   11658    11655    11298    11029    11064    11396    11799    11796 
   11367    10967    10920    11233    11634    11792    11626    11362 
   11300    11450    11556    11429    11144    10926    10966    11253 
   11577    11716    11569    11214    10955    11007    11257    11504 
   11650    11674    11608    11526    11468    11342    11128    10995 
   11059    11236    11346    11315    11214    11122    11083    11101 
   11098    11041    11020    11080    11164    11219    11253    11342 
   11503    11599    11569    11497    11449    11497    11642    11681 
   11502    11217    10953    10833    10947    11186    11375    11462 
   11488    11491    11483    11438    11321    11165    11076    11140 
   11302    11385    11296    11102    10928    10882    10970    11152 
   11431    11682    11739    11622    11415    11242    11230    11331 
   11450    11545    11533    11346    11078    10930    11020    11310 
   11630    11770    11674    11475    11327    11294    11373    11483 
   11519    11506    11475    11394    11284    11176    11070    11010 
   11024    11060    11055    11053    11137    11275    11392    11485 
   11592    11674    11651    11530    11348    11117    10921    10831 
   10828    10876    10949    11017    11057    11087    11160    11286 
   11475    11709    11885    11890    11765    11649    11600    11581 
   11537    11422    11268    11152    11124    11183    11296    11383 
   11357    11244    11156    11164    11286    11464    11593    11616 
   11534    11391    11252    11151    11084    11070    11153    11311 
   11448    11480    11392    11244    11125    11082    11107    11145 
   11126    11032    10903    10814    10801    10835    10899    11025 
   11187    11321    11402    11425    11435    11527    11696    11816 
   11844    11823    11765    11708    11673    11578    11414    11300 
   11302    11383    11493    11574    11584    11507    11384    11276 
   11186    11110    11078    11071    11024    10951    10932    10971 
   11049    11153    11207    11210    11237    11273    11310    11348 
   11325    11245    11172    11140    11186    11315    11445    11502 
   11524    11577    11659    11740    11778    11708    11523    11346 
   11300    11365    11450    11508    11491    11365    11178    11006 
   10890    10840    10859    10932    10997    11032    11080    11130 
   11178    11249    11323    11375    11410    11422    11402    11334 
   11241    11203    11246    11334    11479    11637    11731    11757 
   11711    11593    11473    11398    11388    11442    11489    11479 
   11400    11276    11164    11092    11065    11115    11205    11218 
   11172    11152    11137    11134    11187    11236    11260    11303 
   11333    11345    11342    11271    11203    11229    11264    11281 
   11334    11385    11425    11476    11497    11484    11465    11421 
   11364    11330    11267    11160    11106    11132    11183    11244 
   11272    11250    11253    11300    11356    11402    11408    11399 
   11408    11412    11433    11437    11360    11276    11256    11263 
   11281    11310    11290    11209    11129    11110    11149    11236 
   11317    11330    11281    11232    11248    11350    11465    11495 
   11453    11443    11480    11523    11541    11452    11287    11190 
   11164    11169    11234    11307    11322    11302    11259    11209 
   11183    11169    11179    11225    11263    11269    11242    11173 
   11117    11125    11176    11230    11257    11252    11260    11318 
   11364    11364    11380    11400    11404    11449    11512    11566 
   11638    11681    11661    11604    11530    11516    11569    11584 
   11537    11434    11275    11111    10998    10949    10959    11002 
   11041    11075    11152    11268    11375    11446    11445    11396 
   11368    11372    11388    11360    11261    11125    10986    10917 
   10921    10947    10983    11006    10998    10989    11005    11102 
   11264    11441    11623    11763    11836    11847    11808    11788 
   11799    11800    11777    11751    11730    11673    11580    11454 
   11317    11221    11190    11227    11267    11215    11137    11083 
   11021    10979    10994    11045    11101    11144    11171    11210 
   11245    11210    11145    11134    11173    11241    11321    11364 
   11354    11325    11300    11292    11294    11267    11227    11225 
   11233    11223    11190    11117    11028    10997    11040    11119 
