Origin Time       2025/01/26 08:11:00
Lat.              34.975
Long.             138.213
Depth. (km)       21
Mag.              3.4
Station Code      AIC010
Station Lat.      34.9803
Station Long.     137.4297
Station Height(m) 539
Record Time       2025/01/26 08:11:50
Sampling Freq(Hz) 100Hz
Duration Time(s)  60
Dir.              E-W
Scale Factor      7845(gal)/8223790
Max. Acc. (gal)   1.349
Last Correction   2025/01/26 08:11:50
Memo.             
[...]
   -6872    -6870    -6868    -6868    -6868    -6870    -6870    -6868 
   -6868    -6870    -6870    -6872    -6871    -6867    -6868    -6871 
   -6870    -6868    -6868    -6870    -6870    -6868    -6868    -6868 
   -6868    -6871    -6870    -6870    -6871    -6871    -6871    -6870 
   -6870    -6871    -6870    -6867    -6867    -6870    -6871    -6868 
   -6868    -6870    -6867    -6867    -6870    -6868    -6867    -6867 
   -6868    -6872    -6871    -6870    -6870    -6871    -6870    -6868 
   -6871    -6870    -6868    -6871    -6868    -6868    -6870    -6867 
   -6868    -6870    -6868    -6868    -6868    -6866    -6868    -6872 
   -6867    -6866    -6871    -6871    -6867    -6867    -6868    -6870 
   -6870    -6870    -6872    -6871    -6870    -6867    -6867    -6868 
   -6870    -6870    -6870    -6870    -6871    -6870    -6866    -6866 
   -6868    -6870    -6868    -6867    -6866    -6867    -6870    -6868 
   -6868    -6871    -6868    -6867    -6868    -6870    -6871    -6874 
   -6872    -6868    -6867    -6868    -6868    -6870    -6868    -6867 
   -6870    -6870    -6867    -6867    -6868    -6868    -6870    -6871 
   -6870    -6868    -6867    -6870    -6871    -6870    -6870    -6871 
   -6871    -6870    -6870    -6871    -6871    -6870    -6870    -6871 
   -6871    -6868    -6867    -6868    -6868    -6868    -6867    -6870 
   -6870    -6870    -6870    -6868    -6867    -6868    -6868    -6868 
   -6868    -6868    -6867    -6870    -6871    -6868    -6867    -6867 
   -6867    -6868    -6870    -6871    -6868    -6868    -6871    -6868 
   -6867    -6868    -6870    -6870    -6870    -6868    -6867    -6867 
   -6867    -6867    -6867    -6868    -6868    -6867    -6868    -6870 
   -6870    -6870    -6871    -6870    -6870    -6868    -6870    -6871 
   -6868    -6867    -6868    -6868    -6868    -6870    -6870    -6870 
   -6868    -6870    -6872    -6868    -6867    -6870    -6867    -6867 
   -6868    -6866    -6867    -6870    -6870    -6872    -6871    -6867 
   -6868    -6872    -6871    -6870    -6870    -6871    -6868    -6868 
   -6868    -6866    -6867    -6874    -6875    -6871    -6871    -6870 
   -6868    -6867    -6867    -6864    -6866    -6867    -6866    -6868 
   -6874    -6871    -6866    -6868    -6872    -6871    -6868    -6867 
   -6868    -6870    -6871    -6871    -6870    -6866    -6867    -6870 
   -6871    -6868    -6867    -6868    -6870    -6870    -6868    -6868 
   -6868    -6866    -6866    -6871    -6871    -6868    -6871    -6871 
   -6868    -6868    -6868    -6868    -6867    -6868    -6872    -6872 
   -6872    -6871    -6870    -6871    -6870    -6867    -6870    -6870 
   -6868    -6868    -6868    -6868    -6868    -6867    -6867    -6866 
   -6867    -6867    -6868    -6868    -6868    -6868    -6871    -6870 
   -6870    -6870    -6870    -6870    -6870    -6867    -6867    -6871 
   -6871    -6868    -6871    -6870    -6866    -6867    -6867    -6867 
   -6870    -6867    -6866    -6870    -6868    -6867    -6870    -6872 
   -6871    -6868    -6871    -6871    -6868    -6870    -6870    -6867 
   -6870    -6870    -6866    -6866    -6868    -6868    -6870    -6870 
   -6866    -6864    -6867    -6870    -6870    -6867    -6868    -6871 
   -6871    -6868    -6867    -6868    -6871    -6871    -6867    -6868 
   -6871    -6871    -6870    -6870    -6872    -6872    -6868    -6867 
   -6866    -6866    -6868    -6871    -6868    -6868    -6872    -6872 
   -6870    -6871    -6871    -6868    -6866    -6867    -6871    -6872 
   -6868    -6868    -6871    -6870    -6868    -6868    -6870    -6871 
   -6870    -6867    -6867    -6867    -6867    -6870    -6867    -6863 
   -6864    -6867    -6866    -6868    -6872    -6874    -6871    -6868 
   -6868    -6870    -6870    -6870    -6870    -6870    -6870    -6871 
   -6872    -6871    -6867    -6867    -6871    -6871    -6867    -6866 
   -6868    -6868    -6867    -6867    -6867    -6866    -6867    -6868 
   -6868    -6867    -6867    -6870    -6872    -6872    -6872    -6868 
   -6866    -6870    -6874    -6874    -6870    -6868    -6867    -6866 
   -6870    -6870    -6866    -6864    -6867    -6867    -6867    -6867 
   -6868    -6870    -6871    -6872    -6870    -6871    -6871    -6870 
   -6868    -6871    -6871    -6871    -6870    -6870    -6870    -6870 
   -6868    -6866    -6870    -6874    -6871    -6867    -6867    -6867 
   -6868    -6870    -6868    -6868    -6868    -6866    -6866    -6867 
   -6870    -6871    -6871    -6868    -6868    -6868    -6868    -6870 
   -6870    -6868    -6868    -6867    -6868    -6870    -6867    -6868 
   -6871    -6870    -6867    -6867    -6867    -6868    -6868    -6868 
   -6868    -6871    -6870    -6867    -6868    -6875    -6875    -6872 
   -6875    -6878    -6870    -6852    -6840    -6843    -6852    -6855 
   -6856    -6876    -6897    -6894    -6875    -6862    -6860    -6868 
   -6885    -6898    -6903    -6901    -6891    -6872    -6859    -6879 
   -6924    -6936    -6890    -6835    -6822    -6824    -6809    -6809 
   -6847    -6880    -6876    -6852    -6829    -6817    -6826    -6859 
   -6898    -6921    -6917    -6907    -6890    -6848    -6840    -6916 
   -7003    -6998    -6907    -6816    -6783    -6799    -6831    -6871 
   -6894    -6862    -6805    -6787    -6829    -6894    -6910    -6871 
   -6841    -6841    -6848    -6863    -6876    -6866    -6860    -6907 
   -6967    -6980    -6960    -6924    -6883    -6882    -6897    -6879 
   -6839    -6789    -6750    -6768    -6832    -6880    -6903    -6910 
   -6890    -6843    -6782    -6750    -6793    -6864    -6903    -6902 
   -6876    -6876    -6929    -6976    -6976    -6941    -6898    -6872 
   -6863    -6866    -6871    -6858    -6840    -6856    -6882    -6864 
   -6812    -6790    -6820    -6844    -6829    -6810    -6821    -6841 
   -6851    -6864    -6893    -6914    -6916    -6921    -6941    -6948 
   -6924    -6886    -6864    -6870    -6891    -6903    -6891    -6864 
   -6847    -6851    -6859    -6849    -6820    -6797    -6805    -6810 
   -6794    -6814    -6858    -6860    -6870    -6921    -6949    -6949 
   -6956    -6940    -6891    -6862    -6863    -6863    -6860    -6867 
   -6847    -6828    -6885    -6951    -6910    -6840    -6831    -6831 
   -6808    -6790    -6808    -6858    -6878    -6847    -6862    -6933 
   -6957    -6921    -6886    -6860    -6831    -6809    -6825    -6880 
   -6920    -6928    -6928    -6891    -6835    -6848    -6898    -6872 
   -6813    -6822    -6866    -6871    -6844    -6820    -6836    -6876 
   -6886    -6887    -6902    -6889    -6871    -6882    -6882    -6870 
   -6890    -6922    -6918    -6894    -6898    -6889    -6840    -6809 
   -6810    -6809    -6821    -6848    -6859    -6843    -6825    -6835 
   -6868    -6887    -6879    -6902    -6959    -6971    -6921    -6863 
   -6828    -6853    -6914    -6917    -6867    -6837    -6852    -6895 
   -6920    -6894    -6849    -6810    -6774    -6756    -6790    -6853 
   -6867    -6845    -6879    -6924    -6883    -6847    -6909    -6961 
   -6941    -6899    -6862    -6851    -6863    -6855    -6853    -6886 
   -6890    -6851    -6837    -6875    -6907    -6895    -6872    -6867 
   -6858    -6822    -6795    -6814    -6855    -6872    -6885    -6912 
   -6898    -6852    -6852    -6895    -6928    -6916    -6843    -6775 
   -6798    -6872    -6907    -6895    -6871    -6872    -6905    -6910 
   -6889    -6909    -6929    -6866    -6778    -6768    -6817    -6839 
   -6848    -6890    -6916    -6897    -6886    -6890    -6887    -6889 
   -6903    -6890    -6826    -6782    -6808    -6863    -6898    -6903 
   -6921    -6953    -6932    -6866    -6833    -6853    -6874    -6862 
   -6858    -6886    -6871    -6789    -6772    -6835    -6862    -6891 
   -6924    -6871    -6826    -6864    -6870    -6855    -6886    -6882 
   -6852    -6880    -6897    -6868    -6876    -6903    -6910    -6914 
   -6893    -6870    -6897    -6914    -6885    -6864    -6849    -6829 
   -6816    -6808    -6821    -6856    -6872    -6870    -6862    -6837 
   -6821    -6845    -6889    -6909    -6889    -6870    -6876    -6870 
   -6847    -6872    -6928    -6934    -6901    -6882    -6886    -6898 
   -6887    -6863    -6856    -6845    -6816    -6798    -6808    -6832 
   -6845    -6858    -6897    -6920    -6890    -6856    -6851    -6845 
   -6860    -6916    -6941    -6924    -6930    -6926    -6862    -6808 
   -6824    -6870    -6887    -6864    -6821    -6791    -6805    -6839 
   -6851    -6853    -6862    -6876    -6916    -6945    -6899    -6836 
   -6852    -6899    -6894    -6868    -6878    -6918    -6934    -6882 
   -6822    -6840    -6901    -6929    -6913    -6867    -6809    -6793 
   -6817    -6837    -6849    -6848    -6843    -6866    -6891    -6866 
   -6829    -6832    -6845    -6874    -6929    -6939    -6886    -6860 
   -6876    -6893    -6932    -6979    -6986    -6934    -6848    -6795 
   -6804    -6808    -6794    -6816    -6858    -6864    -6862    -6868 
   -6840    -6799    -6816    -6871    -6883    -6855    -6852    -6885 
   -6920    -6953    -6960    -6929    -6906    -6902    -6901    -6898 
   -6862    -6801    -6797    -6844    -6864    -6855    -6844    -6840 
   -6837    -6822    -6826    -6868    -6887    -6872    -6872    -6874 
   -6856    -6860    -6906    -6941    -6922    -6889    -6880    -6890 
   -6903    -6922    -6922    -6889    -6845    -6814    -6816    -6856 
   -6872    -6829    -6789    -6786    -6789    -6790    -6837    -6929 
   -6952    -6886    -6870    -6920    -6921    -6883    -6871    -6878 
   -6903    -6936    -6926    -6885    -6868    -6890    -6907    -6880 
   -6805    -6755    -6783    -6821    -6805    -6790    -6814    -6848 
   -6853    -6836    -6824    -6822    -6858    -6953    -7040    -7045 
   -7010    -7001    -7003    -6963    -6887    -6862    -6914    -6951 
   -6910    -6875    -6876    -6835    -6758    -6705    -6679    -6690 
   -6724    -6739    -6755    -6782    -6790    -6797    -6833    -6875 
   -6910    -6956    -6997    -7002    -7001    -7013    -7009    -6997 
   -7010    -7022    -6983    -6897    -6799    -6725    -6702    -6721 
   -6759    -6804    -6824    -6804    -6787    -6790    -6778    -6775 
   -6813    -6870    -6912    -6947    -6988    -7007    -6978    -6941 
   -6936    -6939    -6918    -6875    -6860    -6910    -6964    -6944 
   -6870    -6806    -6775    -6764    -6771    -6795    -6813    -6818 
   -6828    -6822    -6795    -6786    -6814    -6883    -6976    -7024 
   -6971    -6872    -6824    -6853    -6936    -7005    -7002    -6966 
   -6940    -6889    -6805    -6733    -6737    -6825    -6907    -6901 
   -6835    -6772    -6736    -6756    -6843    -6903    -6886    -6867 
   -6885    -6903    -6895    -6868    -6862    -6897    -6948    -6974 
   -6940    -6844    -6770    -6818    -6943    -6998    -6967    -6917 
   -6879    -6848    -6825    -6812    -6817    -6833    -6822    -6798 
   -6810    -6816    -6778    -6770    -6847    -6939    -6963    -6929 
   -6898    -6887    -6898    -6917    -6910    -6891    -6910    -6940 
   -6914    -6855    -6841    -6883    -6922    -6921    -6880    -6820 
   -6763    -6710    -6682    -6729    -6840    -6926    -6941    -6924 
   -6926    -6932    -6899    -6876    -6899    -6917    -6913    -6909 
   -6887    -6840    -6813    -6841    -6885    -6899    -6901    -6889 
   -6855    -6835    -6858    -6875    -6855    -6829    -6828    -6835 
   -6843    -6844    -6841    -6862    -6895    -6893    -6872    -6890 
   -6920    -6922    -6913    -6903    -6874    -6831    -6809    -6824 
   -6843    -6853    -6887    -6928    -6926    -6895    -6853    -6808 
   -6831    -6905    -6901    -6835    -6808    -6813    -6826    -6860 
   -6894    -6917    -6933    -6913    -6880    -6872    -6867    -6851 
   -6852    -6879    -6913    -6943    -6944    -6902    -6849    -6817 
   -6812    -6831    -6853    -6852    -6841    -6843    -6843    -6831 
   -6836    -6860    -6856    -6829    -6831    -6852    -6864    -6894 
   -6936    -6926    -6874    -6858    -6903    -6957    -6971    -6947 
   -6912    -6886    -6882    -6889    -6874    -6841    -6828    -6847 
   -6858    -6816    -6747    -6733    -6778    -6814    -6828    -6848 
   -6851    -6825    -6825    -6853    -6886    -6957    -7041    -7064 
   -7030    -6976    -6930    -6924    -6922    -6887    -6862    -6852 
   -6798    -6737    -6747    -6793    -6826    -6836    -6813    -6787 
   -6794    -6808    -6813    -6816    -6821    -6847    -6906    -6955 
   -6951    -6926    -6953    -7020    -7025    -6941    -6859    -6836 
   -6844    -6836    -6804    -6793    -6837    -6876    -6860    -6832 
   -6818    -6801    -6794    -6812    -6837    -6859    -6863    -6832 
   -6810    -6856    -6932    -6970    -6976    -6994    -7024    -7026 
   -6979    -6903    -6855    -6853    -6872    -6880    -6872    -6852 
   -6818    -6790    -6810    -6879    -6925    -6944    -6978    -6991 
   -6968    -6945    -6897    -6798    -6704    -6644    -6593    -6567 
   -6621    -6737    -6836    -6852    -6791    -6701    -6621    -6569 
   -6566    -6652    -6825    -6999    -7129    -7268    -7458    -7643 
   -7746    -7763    -7732    -7612    -7338    -6963    -6610    -6405 
   -6392    -6436    -6380    -6251    -6126    -5989    -5837    -5760 
   -5886    -6241    -6669    -6945    -6987    -6903    -6893    -7074 
   -7395    -7719    -7970    -8148    -8264    -8283    -8117    -7740 
   -7294    -6949    -6750    -6585    -6339    -6050    -5842    -5722 
   -5633    -5626    -5746    -5922    -6097    -6261    -6430    -6693 
   -7086    -7452    -7626    -7615    -7520    -7416    -7396    -7519 
   -7716    -7861    -7835    -7615    -7341    -7130    -6934    -6729 
   -6562    -6417    -6250    -6079    -5972    -6018    -6254    -6552 
   -6737    -6805    -6852    -6872    -6818    -6774    -6836    -6959 
   -7030    -7020    -7011    -7083    -7171    -7196    -7156    -7048 
   -6898    -6793    -6768    -6785    -6809    -6859    -6928    -6940 
   -6844    -6710    -6650    -6700    -6840    -6998    -7076    -7044 
   -6979    -6947    -6906    -6820    -6743    -6721    -6732    -6760 
   -6848    -7024    -7190    -7196    -7033    -6812    -6643    -6604 
   -6696    -6837    -6960    -7029    -7003    -6898    -6789    -6732 
   -6721    -6723    -6704    -6678    -6669    -6662    -6679    -6755 
   -6844    -6893    -6922    -6943    -6947    -6982    -7091    -7223 
   -7306    -7314    -7254    -7161    -7065    -6940    -6775    -6658 
   -6655    -6716    -6754    -6740    -6733    -6768    -6783    -6691 
   -6492    -6299    -6261    -6417    -6713    -7034    -7269    -7398 
   -7450    -7427    -7335    -7199    -7048    -6930    -6876    -6848 
   -6812    -6770    -6729    -6689    -6643    -6582    -6534    -6542 
   -6562    -6558    -6610    -6751    -6890    -6970    -6997    -6978 
   -6943    -6968    -7098    -7291    -7458    -7503    -7422    -7264 
   -7059    -6837    -6632    -6484    -6424    -6447    -6505    -6552 
   -6602    -6720    -6878    -6968    -6947    -6836    -6679    -6582 
   -6633    -6740    -6793    -6868    -7049    -7241    -7303    -7210 
   -7060    -6999    -7045    -7071    -7007    -6913    -6859    -6831 
   -6801    -6760    -6700    -6640    -6627    -6647    -6677    -6687 
   -6677    -6706    -6802    -6883    -6878    -6778    -6675    -6701 
   -6852    -7026    -7159    -7230    -7249    -7256    -7254    -7179 
   -7033    -6913    -6868    -6889    -6951    -7015    -7040    -7021 
   -6971    -6894    -6772    -6593    -6396    -6261    -6234    -6312 
   -6448    -6567    -6662    -6772    -6886    -6957    -6979    -6967 
   -6968    -7014    -7074    -7144    -7271    -7437    -7534    -7491 
   -7346    -7173    -7022    -6889    -6725    -6561    -6477    -6475 
   -6482    -6462    -6413    -6378    -6435    -6571    -6679    -6727 
   -6778    -6837    -6874    -6909    -6957    -7024    -7128    -7238 
   -7306    -7375    -7462    -7468    -7354    -7180    -6966    -6744 
   -6589    -6494    -6393    -6320    -6381    -6569    -6764    -6887 
   -6939    -6926    -6841    -6727    -6666    -6675    -6723    -6799 
   -6907    -7033    -7176    -7292    -7285    -7150    -6990    -6898 
   -6889    -6933    -6986    -7013    -6987    -6891    -6782    -6744 
   -6751    -6751    -6756    -6771    -6777    -6767    -6758    -6751 
   -6691    -6559    -6474    -6525    -6675    -6866    -7013    -7076 
   -7133    -7218    -7233    -7137    -7015    -6929    -6880    -6867 
   -6878    -6905    -6979    -7072    -7063    -6943    -6816    -6737 
   -6678    -6598    -6538    -6583    -6716    -6814    -6835    -6841 
   -6876    -6918    -6932    -6891    -6862    -6929    -7024    -7033 
   -6966    -6872    -6825    -6879    -6972    -7020    -7010    -6961 
   -6895    -6818    -6752    -6723    -6712    -6696    -6681    -6678 
   -6701    -6758    -6849    -6952    -7026    -7048    -7020    -6988 
   -6986    -6971    -6906    -6835    -6829    -6891    -6978    -7038 
   -7022    -6949    -6886    -6832    -6755    -6700    -6716    -6724 
   -6667    -6658    -6778    -6925    -6987    -6952    -6880    -6874 
   -6933    -6960    -6916    -6839    -6777    -6775    -6825    -6866 
   -6887    -6929    -6967    -6955    -6893    -6832    -6836    -6903 
   -6947    -6907    -6840    -6836    -6907    -6982    -6993    -6945 
   -6890    -6852    -6828    -6816    -6802    -6751    -6685    -6683 
   -6756    -6828    -6859    -6878    -6871    -6840    -6853    -6945 
   -7036    -7040    -6975    -6937    -6947    -6936    -6909    -6891 
   -6870    -6866    -6898    -6901    -6852    -6833    -6847    -6797 
   -6710    -6686    -6733    -6805    -6862    -6883    -6890    -6901 
   -6893    -6875    -6883    -6882    -6840    -6831    -6887    -6949 
   -6980    -7002    -7005    -6947    -6872    -6845    -6859    -6870 
   -6868    -6862    -6840    -6794    -6763    -6774    -6793    -6795 
   -6798    -6814    -6852    -6895    -6907    -6895    -6891    -6890 
   -6875    -6882    -6920    -6944    -6926    -6876    -6840    -6848 
   -6876    -6898    -6920    -6936    -6918    -6893    -6878    -6821 
   -6745    -6747    -6821    -6876    -6866    -6809    -6772    -6790 
   -6820    -6833    -6879    -6966    -7006    -6964    -6925    -6961 
   -7029    -7034    -6943    -6821    -6774    -6810    -6844    -6852 
   -6887    -6925    -6893    -6799    -6718    -6698    -6728    -6770 
   -6818    -6870    -6906    -6922    -6925    -6906    -6875    -6885 
   -6948    -7003    -7011    -6993    -6955    -6905    -6863    -6849 
   -6878    -6906    -6882    -6828    -6805    -6812    -6812    -6802 
   -6785    -6759    -6747    -6756    -6759    -6766    -6816    -6863 
   -6868    -6883    -6922    -6940    -6949    -6967    -6974    -6967 
   -6948    -6924    -6940    -6993    -7015    -6970    -6886    -6813 
   -6781    -6782    -6781    -6772    -6764    -6744    -6724    -6750 
   -6813    -6859    -6875    -6901    -6951    -6980    -6943    -6887 
   -6885    -6926    -6959    -6943    -6887    -6864    -6907    -6951 
   -6924    -6845    -6794    -6814    -6863    -6885    -6874    -6847 
