Origin Time       2025/01/26 08:11:00
Lat.              34.975
Long.             138.213
Depth. (km)       21
Mag.              3.4
Station Code      AIC010
Station Lat.      34.9803
Station Long.     137.4297
Station Height(m) 539
Record Time       2025/01/26 08:11:50
Sampling Freq(Hz) 100Hz
Duration Time(s)  60
Dir.              N-S
Scale Factor      7845(gal)/8223790
Max. Acc. (gal)   1.383
Last Correction   2025/01/26 08:11:50
Memo.             
[...]
   -1252    -1251    -1248    -1251    -1254    -1252    -1251    -1251 
   -1252    -1254    -1254    -1252    -1252    -1251    -1250    -1250 
   -1251    -1250    -1250    -1252    -1251    -1250    -1251    -1254 
   -1252    -1251    -1251    -1252    -1252    -1250    -1248    -1251 
   -1251    -1251    -1254    -1254    -1252    -1251    -1247    -1248 
   -1250    -1250    -1251    -1254    -1252    -1251    -1251    -1250 
   -1250    -1252    -1252    -1252    -1252    -1248    -1248    -1254 
   -1251    -1247    -1250    -1252    -1252    -1254    -1254    -1254 
   -1254    -1252    -1251    -1250    -1250    -1250    -1248    -1251 
   -1252    -1251    -1251    -1252    -1252    -1251    -1250    -1251 
   -1252    -1251    -1250    -1250    -1250    -1250    -1251    -1254 
   -1254    -1255    -1255    -1252    -1248    -1250    -1252    -1251 
   -1250    -1251    -1252    -1252    -1252    -1251    -1251    -1252 
   -1251    -1250    -1251    -1252    -1254    -1252    -1248    -1247 
   -1251    -1252    -1252    -1254    -1254    -1250    -1250    -1252 
   -1251    -1250    -1250    -1250    -1250    -1251    -1252    -1252 
   -1252    -1251    -1254    -1255    -1254    -1252    -1252    -1251 
   -1250    -1248    -1250    -1250    -1251    -1252    -1250    -1250 
   -1251    -1251    -1252    -1252    -1251    -1252    -1251    -1250 
   -1251    -1251    -1251    -1255    -1254    -1248    -1252    -1256 
   -1252    -1251    -1252    -1252    -1254    -1252    -1254    -1255 
   -1252    -1251    -1252    -1252    -1251    -1252    -1252    -1254 
   -1252    -1250    -1250    -1252    -1254    -1252    -1252    -1251 
   -1251    -1251    -1254    -1255    -1252    -1250    -1250    -1252 
   -1252    -1250    -1250    -1252    -1251    -1248    -1251    -1252 
   -1252    -1252    -1251    -1251    -1251    -1251    -1250    -1250 
   -1251    -1251    -1250    -1251    -1251    -1252    -1251    -1250 
   -1252    -1255    -1254    -1254    -1255    -1251    -1248    -1251 
   -1252    -1252    -1252    -1251    -1250    -1251    -1252    -1251 
   -1248    -1250    -1252    -1251    -1250    -1250    -1252    -1251 
   -1250    -1251    -1251    -1251    -1254    -1254    -1251    -1251 
   -1252    -1252    -1251    -1254    -1252    -1250    -1250    -1248 
   -1248    -1252    -1252    -1251    -1251    -1252    -1251    -1250 
   -1248    -1250    -1251    -1251    -1251    -1251    -1252    -1250 
   -1248    -1250    -1252    -1254    -1255    -1254    -1251    -1251 
   -1251    -1252    -1251    -1251    -1251    -1252    -1255    -1252 
   -1251    -1251    -1251    -1251    -1251    -1250    -1250    -1250 
   -1251    -1251    -1251    -1252    -1254    -1252    -1248    -1248 
   -1252    -1252    -1251    -1251    -1252    -1251    -1250    -1251 
   -1252    -1251    -1250    -1251    -1254    -1254    -1251    -1248 
   -1248    -1250    -1248    -1250    -1254    -1254    -1251    -1251 
   -1251    -1251    -1250    -1250    -1252    -1254    -1252    -1254 
   -1255    -1254    -1250    -1248    -1251    -1252    -1252    -1252 
   -1254    -1254    -1251    -1248    -1250    -1251    -1251    -1254 
   -1255    -1254    -1250    -1247    -1250    -1251    -1252    -1255 
   -1256    -1255    -1251    -1250    -1250    -1251    -1254    -1255 
   -1252    -1252    -1255    -1254    -1250    -1250    -1251    -1252 
   -1254    -1252    -1252    -1254    -1252    -1250    -1246    -1244 
   -1248    -1252    -1252    -1254    -1252    -1248    -1250    -1252 
   -1251    -1252    -1252    -1252    -1251    -1251    -1250    -1248 
   -1250    -1251    -1251    -1248    -1251    -1255    -1255    -1255 
   -1251    -1250    -1250    -1250    -1250    -1251    -1250    -1250 
   -1252    -1251    -1251    -1254    -1252    -1250    -1252    -1252 
   -1252    -1252    -1251    -1250    -1250    -1250    -1248    -1248 
   -1251    -1252    -1251    -1251    -1252    -1251    -1248    -1248 
   -1252    -1254    -1250    -1251    -1254    -1252    -1250    -1250 
   -1252    -1252    -1254    -1256    -1255    -1254    -1255    -1250 
   -1247    -1248    -1248    -1250    -1251    -1250    -1248    -1250 
   -1251    -1254    -1252    -1251    -1252    -1254    -1251    -1250 
   -1252    -1254    -1254    -1251    -1250    -1250    -1252    -1255 
   -1252    -1248    -1255    -1259    -1244    -1237    -1252    -1263 
   -1252    -1242    -1252    -1267    -1263    -1254    -1251    -1244 
   -1236    -1232    -1225    -1228    -1239    -1255    -1275    -1290 
   -1291    -1296    -1277    -1215    -1189    -1246    -1298    -1282 
   -1239    -1216    -1229    -1267    -1312    -1333    -1275    -1169 
   -1136    -1196    -1263    -1281    -1269    -1258    -1221    -1212 
   -1298    -1355    -1269    -1154    -1148    -1221    -1291    -1329 
   -1314    -1269    -1247    -1255    -1282    -1293    -1259    -1239 
   -1242    -1217    -1204    -1209    -1224    -1264    -1294    -1298 
   -1281    -1251    -1259    -1264    -1223    -1192    -1170    -1154 
   -1192    -1266    -1327    -1325    -1264    -1244    -1285    -1316 
   -1332    -1328    -1271    -1206    -1182    -1204    -1246    -1254 
   -1243    -1251    -1239    -1220    -1251    -1275    -1242    -1208 
   -1197    -1197    -1242    -1310    -1309    -1231    -1198    -1260 
   -1320    -1328    -1312    -1287    -1254    -1216    -1197    -1223 
   -1247    -1254    -1283    -1291    -1263    -1259    -1264    -1240 
   -1204    -1182    -1197    -1221    -1235    -1274    -1289    -1233 
   -1213    -1256    -1277    -1297    -1320    -1274    -1202    -1192 
   -1212    -1220    -1266    -1364    -1397    -1324    -1274    -1262 
   -1216    -1185    -1190    -1177    -1175    -1208    -1242    -1273 
   -1269    -1212    -1183    -1224    -1293    -1345    -1324    -1262 
   -1256    -1256    -1213    -1227    -1291    -1294    -1256    -1263 
   -1293    -1273    -1208    -1208    -1275    -1283    -1220    -1210 
   -1233    -1200    -1192    -1270    -1321    -1291    -1255    -1231 
   -1198    -1181    -1196    -1250    -1310    -1312    -1294    -1310 
   -1308    -1278    -1240    -1194    -1196    -1229    -1233    -1248 
   -1281    -1267    -1224    -1201    -1227    -1283    -1294    -1256 
   -1224    -1196    -1197    -1254    -1300    -1314    -1316    -1277 
   -1250    -1258    -1221    -1188    -1240    -1306    -1317    -1300 
   -1279    -1255    -1216    -1194    -1208    -1217    -1223    -1262 
   -1289    -1262    -1213    -1188    -1204    -1220    -1205    -1221 
   -1263    -1262    -1267    -1347    -1404    -1339    -1233    -1217 
   -1262    -1255    -1206    -1224    -1286    -1275    -1225    -1233 
   -1281    -1283    -1225    -1166    -1146    -1185    -1243    -1256 
   -1267    -1294    -1273    -1229    -1240    -1291    -1321    -1320 
   -1324    -1318    -1266    -1206    -1175    -1166    -1188    -1240 
   -1285    -1287    -1242    -1192    -1208    -1248    -1258    -1275 
   -1289    -1266    -1278    -1309    -1250    -1165    -1192    -1242 
   -1225    -1239    -1301    -1312    -1283    -1291    -1312    -1255 
   -1156    -1158    -1263    -1323    -1293    -1248    -1197    -1170 
   -1254    -1366    -1370    -1312    -1248    -1170    -1162    -1219 
   -1210    -1182    -1223    -1244    -1240    -1285    -1310    -1267 
   -1237    -1247    -1251    -1258    -1297    -1332    -1310    -1258 
   -1209    -1178    -1208    -1255    -1252    -1242    -1239    -1240 
   -1275    -1294    -1258    -1247    -1281    -1279    -1248    -1231 
   -1213    -1193    -1206    -1256    -1297    -1308    -1291    -1269 
   -1252    -1216    -1166    -1186    -1246    -1263    -1293    -1318 
   -1248    -1182    -1235    -1306    -1305    -1275    -1283    -1298 
   -1267    -1227    -1210    -1181    -1151    -1171    -1228    -1282 
   -1302    -1297    -1298    -1290    -1266    -1273    -1297    -1281 
   -1223    -1202    -1244    -1270    -1247    -1229    -1229    -1236 
   -1270    -1302    -1279    -1215    -1156    -1132    -1181    -1274 
   -1333    -1336    -1301    -1244    -1216    -1242    -1270    -1258 
   -1247    -1273    -1287    -1266    -1248    -1244    -1231    -1212 
   -1220    -1258    -1273    -1235    -1215    -1246    -1263    -1247 
   -1236    -1232    -1237    -1266    -1290    -1314    -1332    -1296 
   -1232    -1219    -1233    -1221    -1202    -1212    -1236    -1263 
   -1290    -1301    -1270    -1216    -1213    -1262    -1271    -1242 
   -1235    -1251    -1256    -1240    -1231    -1251    -1275    -1302 
   -1324    -1289    -1219    -1210    -1232    -1192    -1170    -1233 
   -1274    -1255    -1254    -1264    -1231    -1183    -1208    -1293 
   -1328    -1300    -1293    -1293    -1240    -1186    -1189    -1227 
   -1291    -1360    -1368    -1317    -1281    -1262    -1217    -1178 
   -1192    -1200    -1188    -1217    -1267    -1277    -1266    -1259 
   -1232    -1178    -1156    -1206    -1266    -1279    -1282    -1279 
   -1237    -1204    -1228    -1291    -1354    -1354    -1287    -1283 
   -1340    -1316    -1243    -1227    -1223    -1175    -1143    -1166 
   -1202    -1215    -1232    -1264    -1259    -1225    -1235    -1297 
   -1325    -1264    -1173    -1151    -1204    -1270    -1335    -1382 
   -1343    -1264    -1258    -1279    -1263    -1250    -1247    -1225 
   -1205    -1240    -1344    -1412    -1341    -1221    -1190    -1231 
   -1220    -1162    -1182    -1236    -1223    -1209    -1216    -1170 
   -1109    -1113    -1173    -1246    -1291    -1285    -1269    -1287 
   -1293    -1286    -1325    -1363    -1360    -1355    -1344    -1291 
   -1217    -1174    -1183    -1244    -1329    -1352    -1283    -1217 
   -1181    -1131    -1119    -1166    -1210    -1269    -1329    -1312 
   -1235    -1200    -1225    -1255    -1264    -1294    -1347    -1358 
   -1314    -1274    -1232    -1156    -1123    -1194    -1293    -1325 
   -1285    -1198    -1148    -1174    -1219    -1242    -1254    -1262 
   -1271    -1291    -1321    -1341    -1329    -1289    -1256    -1262 
   -1293    -1321    -1310    -1251    -1197    -1190    -1192    -1174 
   -1178    -1193    -1183    -1186    -1200    -1186    -1169    -1204 
   -1298    -1383    -1386    -1340    -1314    -1302    -1293    -1281 
   -1252    -1242    -1259    -1275    -1314    -1341    -1267    -1146 
   -1101    -1146    -1212    -1254    -1262    -1236    -1198    -1196 
   -1232    -1251    -1246    -1260    -1278    -1289    -1310    -1312 
   -1283    -1277    -1304    -1308    -1293    -1312    -1325    -1266 
   -1178    -1142    -1140    -1136    -1151    -1196    -1248    -1291 
   -1327    -1343    -1309    -1236    -1183    -1179    -1188    -1183 
   -1220    -1316    -1379    -1362    -1323    -1285    -1243    -1217 
   -1217    -1248    -1294    -1309    -1287    -1263    -1229    -1181 
   -1154    -1150    -1155    -1204    -1286    -1318    -1281    -1260 
   -1286    -1289    -1279    -1300    -1278    -1216    -1204    -1219 
   -1209    -1221    -1264    -1285    -1274    -1260    -1289    -1339 
   -1339    -1293    -1229    -1185    -1212    -1256    -1231    -1186 
   -1171    -1155    -1158    -1229    -1325    -1364    -1329    -1251 
   -1175    -1162    -1205    -1233    -1235    -1262    -1286    -1267 
   -1262    -1331    -1417    -1426    -1374    -1327    -1285    -1232 
   -1197    -1174    -1121    -1073    -1104    -1171    -1219    -1263 
   -1289    -1266    -1224    -1197    -1196    -1228    -1270    -1297 
   -1324    -1347    -1333    -1291    -1278    -1297    -1304    -1297 
   -1323    -1344    -1282    -1182    -1139    -1146    -1154    -1173 
   -1197    -1205    -1212    -1229    -1235    -1239    -1277    -1323 
   -1350    -1364    -1337    -1259    -1183    -1148    -1158    -1206 
   -1275    -1325    -1323    -1294    -1269    -1232    -1192    -1169 
   -1178    -1219    -1248    -1252    -1255    -1255    -1255    -1285 
   -1324    -1337    -1343    -1358    -1364    -1347    -1286    -1188 
   -1125    -1139    -1194    -1235    -1242    -1221    -1166    -1100 
   -1111    -1188    -1243    -1308    -1382    -1359    -1252    -1182 
   -1185    -1217    -1237    -1264    -1336    -1416    -1443    -1412 
   -1345    -1278    -1243    -1228    -1212    -1196    -1186    -1175 
   -1136    -1086    -1093    -1155    -1204    -1232    -1269    -1278 
   -1252    -1219    -1173    -1132    -1129    -1167    -1235    -1314 
   -1372    -1390    -1379    -1375    -1381    -1378    -1386    -1431 
   -1483    -1490    -1459    -1413    -1341    -1279    -1254    -1215 
   -1152    -1117    -1108    -1094    -1107    -1129    -1058     -864 
    -657     -556     -587     -733     -966    -1256    -1570    -1833 
   -1938    -1864    -1714    -1610    -1559    -1533    -1590    -1765 
   -1923    -1899    -1686    -1408    -1174     -977     -797     -685 
    -664     -662     -583     -398     -214     -162     -261     -488 
    -831    -1262    -1713    -2052    -2174    -2123    -1993    -1868 
   -1869    -2039    -2238    -2284    -2097    -1717    -1277     -889 
    -600     -488     -618     -918    -1242    -1397    -1210     -734 
    -238       68      110     -175     -745    -1360    -1771    -1858 
   -1688    -1439    -1279    -1317    -1605    -2014    -2282    -2270 
   -2023    -1618    -1148     -834     -888    -1293    -1818    -2180 
   -2162    -1753    -1161     -565      -54      199       54     -382 
    -838    -1113    -1146     -965     -692     -562     -805    -1382 
   -1929    -2139    -2052    -1852    -1598    -1329    -1224    -1455 
   -1908    -2272    -2392    -2293    -1946    -1364     -780     -423 
    -345     -523     -862    -1124    -1113     -905     -707     -558 
    -464     -572     -907    -1246    -1409    -1435    -1404    -1310 
   -1228    -1340    -1657    -1984    -2169    -2184    -2023    -1692 
   -1304    -1028     -915     -908     -977    -1066    -1093    -1038 
    -926     -812     -792     -903    -1066    -1151    -1146    -1146 
   -1151    -1147    -1237    -1439    -1690    -1957    -2124    -2076 
   -1902    -1728    -1514    -1205     -924     -805     -803     -835 
    -889     -920     -870     -777     -743     -831    -1024    -1274 
   -1502    -1614    -1582    -1470    -1363    -1293    -1255    -1263 
   -1304    -1351    -1433    -1529    -1563    -1512    -1412    -1345 
   -1314    -1210    -1036     -888     -787     -768     -882    -1080 
   -1273    -1422    -1491    -1453    -1351    -1259    -1259    -1383 
   -1564    -1672    -1603    -1383    -1136     -947     -870     -949 
   -1161    -1399    -1552    -1561    -1428    -1213    -1027     -926 
    -907     -950    -1007    -1058    -1127    -1210    -1266    -1318 
   -1439    -1605    -1698    -1626    -1418    -1194    -1057     -997 
    -976     -999    -1055    -1125    -1232    -1344    -1395    -1390 
   -1368    -1358    -1360    -1339    -1287    -1250    -1247    -1291 
   -1351    -1333    -1248    -1242    -1362    -1493    -1547    -1522 
   -1425    -1275    -1101     -923     -776     -714     -810    -1066 
   -1341    -1501    -1521    -1410    -1212    -1039     -967     -984 
   -1050    -1156    -1282    -1368    -1385    -1354    -1287    -1237 
   -1275    -1371    -1431    -1424    -1383    -1355    -1364    -1390 
   -1443    -1544    -1594    -1485    -1281    -1123    -1034     -950 
    -839     -754     -795     -965    -1154    -1223    -1111     -962 
   -1016    -1294    -1576    -1732    -1776    -1707    -1552    -1418 
   -1351    -1300    -1271    -1313    -1371    -1367    -1310    -1221 
   -1100     -994     -947     -950     -977    -1004    -1009     -965 
    -927    -1038    -1251    -1401    -1487    -1566    -1582    -1521 
   -1424    -1297    -1197    -1212    -1314    -1410    -1478    -1498 
   -1436    -1332    -1244    -1182    -1142    -1140    -1185    -1220 
   -1194    -1154    -1134    -1082    -1013     -994    -1024    -1109 
   -1256    -1385    -1426    -1386    -1290    -1192    -1132    -1115 
   -1146    -1232    -1339    -1399    -1402    -1402    -1389    -1345 
   -1351    -1414    -1436    -1394    -1331    -1278    -1244    -1200 
   -1163    -1175    -1167    -1108    -1070    -1093    -1120    -1115 
   -1132    -1209    -1294    -1348    -1362    -1318    -1225    -1113 
   -1057    -1116    -1243    -1366    -1470    -1512    -1453    -1366 
   -1333    -1336    -1316    -1251    -1185    -1156    -1146    -1127 
   -1136    -1186    -1266    -1352    -1387    -1337    -1239    -1138 
   -1067    -1043    -1071    -1142    -1239    -1332    -1362    -1308 
   -1251    -1233    -1229    -1258    -1336    -1387    -1381    -1359 
   -1301    -1209    -1183    -1223    -1246    -1279    -1362    -1440 
   -1447    -1347    -1175    -1062    -1070    -1123    -1169    -1236 
   -1309    -1328    -1296    -1247    -1202    -1183    -1194    -1216 
   -1224    -1193    -1116    -1058    -1065    -1100    -1173    -1329 
   -1493    -1557    -1552    -1506    -1387    -1246    -1188    -1236 
   -1310    -1312    -1237    -1179    -1162    -1142    -1123    -1117 
   -1154    -1244    -1304    -1277    -1225    -1166    -1073    -1030 
   -1138    -1340    -1494    -1556    -1579    -1567    -1472    -1340 
   -1263    -1231    -1177    -1120    -1088    -1038     -955     -907 
    -935    -1008    -1116    -1262    -1386    -1435    -1420    -1370 
   -1309    -1255    -1252    -1317    -1383    -1413    -1431    -1420 
   -1390    -1399    -1436    -1447    -1406    -1306    -1155     -999 
    -882     -827     -820     -869     -980    -1143    -1341    -1510 
   -1582    -1559    -1466    -1323    -1200    -1165    -1193    -1225 
   -1250    -1267    -1283    -1318    -1362    -1386    -1367    -1287 
   -1182    -1139    -1167    -1179    -1162    -1159    -1163    -1171 
   -1204    -1240    -1270    -1323    -1391    -1424    -1381    -1281 
   -1174    -1077    -1011    -1036    -1147    -1263    -1335    -1363 
   -1355    -1317    -1283    -1301    -1356    -1410    -1449    -1449 
   -1381    -1279    -1206    -1185    -1204    -1228    -1229    -1197 
   -1154    -1113    -1055     -984     -973    -1081    -1243    -1341 
   -1375    -1401    -1390    -1320    -1270    -1277    -1285    -1277 
   -1285    -1285    -1250    -1260    -1332    -1352    -1304    -1273 
   -1270    -1263    -1240    -1170    -1074    -1062    -1165    -1266 
   -1275    -1224    -1197    -1221    -1282    -1348    -1381    -1362 
   -1320    -1264    -1183    -1116    -1113    -1161    -1221    -1287 
   -1348    -1363    -1313    -1270    -1297    -1325    -1278    -1213 
   -1198    -1227    -1258    -1255    -1209    -1177    -1208    -1273 
   -1305    -1302    -1294    -1281    -1252    -1220    -1208    -1224 
   -1259    -1291    -1294    -1251    -1189    -1151    -1173    -1270 
   -1354    -1320    -1236    -1217    -1236    -1237    -1239    -1263 
   -1285    -1274    -1247    -1250    -1278    -1291    -1278    -1262 
   -1255    -1246    -1225    -1212    -1204    -1189    -1178    -1201 
   -1259    -1300    -1293    -1267    -1229    -1200    -1224    -1279 
   -1289    -1251    -1259    -1318    -1345    -1313    -1271    -1235 
