Origin Time       2025/01/26 08:11:00
Lat.              34.975
Long.             138.213
Depth. (km)       21
Mag.              3.4
Station Code      AIC010
Station Lat.      34.9803
Station Long.     137.4297
Station Height(m) 539
Record Time       2025/01/26 08:11:50
Sampling Freq(Hz) 100Hz
Duration Time(s)  60
Dir.              U-D
Scale Factor      7845(gal)/8223790
Max. Acc. (gal)   0.423
Last Correction   2025/01/26 08:11:50
Memo.             
[...]
    2234     2232     2234     2234     2232     2234     2235     2234 
    2232     2232     2236     2236     2232     2232     2234     2234 
    2235     2234     2231     2232     2232     2231     2235     2236 
    2231     2231     2235     2234     2232     2234     2235     2234 
    2232     2234     2235     2234     2234     2234     2234     2236 
    2235     2235     2235     2235     2236     2236     2234     2232 
    2234     2234     2234     2235     2235     2234     2234     2235 
    2234     2235     2235     2232     2234     2235     2238     2238 
    2235     2234     2234     2234     2234     2235     2236     2234 
    2234     2236     2235     2235     2236     2234     2231     2234 
    2236     2234     2232     2234     2235     2235     2232     2232 
    2235     2232     2232     2236     2236     2231     2230     2234 
    2234     2232     2232     2235     2234     2235     2238     2235 
    2234     2235     2236     2236     2235     2232     2232     2235 
    2235     2235     2234     2234     2235     2234     2234     2235 
    2234     2232     2234     2234     2234     2232     2234     2235 
    2236     2235     2234     2234     2232     2232     2232     2235 
    2234     2232     2234     2235     2232     2234     2236     2236 
    2236     2235     2234     2234     2235     2235     2232     2232 
    2236     2238     2234     2235     2235     2232     2232     2235 
    2234     2234     2235     2234     2234     2235     2235     2232 
    2234     2235     2235     2235     2234     2235     2236     2232 
    2230     2231     2235     2236     2236     2236     2234     2232 
    2234     2235     2234     2235     2236     2235     2235     2236 
    2235     2232     2232     2235     2236     2235     2234     2235 
    2235     2234     2236     2236     2234     2235     2235     2231 
    2231     2232     2234     2236     2235     2235     2234     2234 
    2236     2236     2234     2234     2235     2232     2231     2232 
    2232     2232     2235     2235     2234     2236     2235     2231 
    2234     2236     2232     2232     2235     2235     2235     2235 
    2231     2231     2234     2236     2235     2234     2234     2235 
    2234     2234     2236     2238     2235     2234     2235     2235 
    2235     2235     2234     2232     2234     2236     2235     2235 
    2235     2235     2235     2235     2235     2235     2236     2236 
    2235     2235     2235     2235     2234     2234     2234     2234 
    2234     2235     2235     2236     2238     2238     2236     2234 
    2232     2234     2235     2238     2236     2231     2232     2235 
    2234     2234     2236     2236     2234     2234     2234     2235 
    2235     2236     2235     2235     2234     2234     2234     2235 
    2236     2236     2236     2236     2235     2232     2234     2234 
    2234     2234     2235     2238     2236     2234     2234     2235 
    2235     2234     2234     2236     2236     2234     2234     2234 
    2235     2234     2231     2232     2235     2235     2234     2234 
    2236     2238     2236     2234     2234     2235     2232     2231 
    2234     2236     2235     2235     2235     2232     2231     2232 
    2234     2236     2236     2236     2234     2231     2232     2235 
    2235     2238     2235     2230     2232     2236     2235     2235 
    2238     2236     2234     2234     2235     2234     2231     2235 
    2238     2235     2234     2231     2231     2235     2236     2234 
    2231     2234     2234     2232     2235     2235     2234     2232 
    2234     2232     2231     2234     2236     2235     2234     2236 
    2236     2231     2231     2234     2235     2234     2234     2236 
    2235     2234     2236     2234     2232     2234     2232     2232 
    2235     2235     2234     2234     2234     2236     2238     2235 
    2234     2234     2234     2235     2235     2232     2232     2234 
    2236     2236     2235     2234     2234     2234     2238     2236 
    2231     2230     2235     2235     2234     2234     2234     2232 
    2234     2236     2235     2234     2234     2234     2235     2236 
    2234     2232     2235     2238     2241     2241     2235     2231 
    2234     2231     2214     2200     2211     2231     2234     2235 
    2265     2286     2253     2203     2199     2223     2228     2223 
    2249     2293     2317     2304     2236     2155     2147     2220 
    2296     2292     2209     2166     2196     2218     2239     2311 
    2334     2228     2127     2149     2207     2231     2253     2276 
    2285     2272     2253     2255     2224     2177     2211     2270 
    2266     2189     2147     2215     2251     2227     2262     2293 
    2259     2218     2212     2230     2227     2228     2249     2236 
    2232     2254     2241     2228     2250     2255     2230     2214 
    2212     2201     2199     2228     2274     2286     2253     2238 
    2247     2232     2231     2239     2216     2199     2192     2218 
    2273     2253     2195     2214     2223     2191     2230     2313 
    2327     2253     2191     2215     2239     2219     2219     2226 
    2227     2254     2259     2227     2223     2265     2278     2197 
    2134     2209     2277     2223     2193     2228     2238     2247 
    2282     2331     2327     2227     2168     2169     2146     2189 
    2265     2249     2242     2289     2281     2220     2187     2247 
    2288     2187     2141     2219     2235     2253     2338     2300 
    2165     2161     2255     2259     2196     2246     2308     2214 
    2193     2326     2284     2135     2169     2236     2219     2253 
    2284     2230     2223     2268     2222     2168     2208     2232 
    2197     2220     2319     2336     2218     2168     2297     2339 
    2188     2146     2235     2205     2120     2170     2327     2378 
    2250     2173     2220     2205     2174     2266     2323     2219 
    2145     2201     2235     2253     2312     2290     2236     2234 
    2187     2172     2259     2296     2255     2224     2241     2265 
    2197     2160     2249     2295     2277     2246     2181     2189 
    2238     2212     2200     2224     2224     2203     2201     2268 
    2340     2297     2203     2200     2258     2258     2200     2185 
    2232     2274     2269     2239     2227     2239     2249     2227 
    2196     2208     2205     2174     2203     2250     2272     2319 
    2308     2227     2216     2223     2178     2223     2326     2272 
    2120     2126     2261     2301     2258     2249     2239     2215 
    2216     2228     2242     2253     2224     2201     2224     2235 
    2223     2226     2266     2335     2313     2187     2151     2216 
    2220     2181     2193     2251     2277     2258     2270     2272 
    2236     2235     2226     2187     2185     2212     2251     2258 
    2227     2277     2319     2189     2085     2189     2303     2296 
    2285     2269     2173     2135     2247     2313     2242     2223 
    2266     2208     2158     2239     2304     2273     2215     2205 
    2231     2188     2165     2255     2274     2227     2262     2249 
    2201     2282     2293     2181     2226     2297     2191     2150 
    2232     2235     2208     2255     2296     2251     2188     2195 
    2250     2292     2276     2212     2200     2251     2235     2176 
    2191     2243     2289     2328     2289     2185     2135     2180 
    2232     2250     2268     2250     2196     2193     2223     2220 
    2232     2288     2311     2251     2192     2220     2263     2212 
    2177     2258     2290     2218     2222     2272     2223     2166 
    2215     2290     2274     2207     2218     2250     2236     2249 
    2257     2209     2181     2216     2268     2259     2219     2219 
    2238     2263     2276     2239     2236     2258     2201     2150 
    2203     2254     2254     2249     2218     2195     2243     2281 
    2239     2191     2195     2226     2282     2332     2277     2182 
    2185     2216     2201     2230     2289     2284     2236     2218 
    2238     2259     2230     2189     2211     2219     2172     2204 
    2299     2308     2259     2234     2215     2203     2195     2172 
    2203     2288     2303     2254     2228     2228     2251     2276 
    2250     2204     2200     2247     2286     2245     2180     2199 
    2238     2212     2182     2222     2277     2262     2232     2245 
    2234     2207     2236     2272     2239     2215     2251     2239 
    2199     2255     2299     2235     2224     2284     2238     2126 
    2127     2227     2286     2278     2265     2238     2207     2235 
    2259     2219     2212     2259     2257     2191     2170     2255 
    2295     2246     2280     2303     2168     2089     2200     2300 
    2281     2232     2211     2196     2216     2277     2274     2214 
    2227     2272     2246     2208     2222     2241     2269     2295 
    2207     2083     2154     2297     2295     2270     2297     2281 
    2238     2232     2247     2208     2139     2176     2249     2226 
    2195     2253     2307     2273     2211     2200     2232     2245 
    2224     2216     2199     2178     2265     2369     2316     2224 
    2254     2301     2249     2150     2112     2166     2251     2288 
    2272     2259     2245     2178     2142     2193     2216     2201 
    2242     2270     2251     2247     2231     2211     2232     2246 
    2224     2235     2278     2286     2286     2297     2262     2216 
    2216     2223     2230     2254     2247     2214     2208     2209 
    2173     2143     2176     2218     2242     2300     2313     2243 
    2235     2249     2187     2188     2288     2323     2284     2285 
    2309     2241     2114     2099     2197     2277     2296     2284 
    2250     2191     2128     2104     2172     2315     2370     2276 
    2196     2220     2257     2235     2200     2199     2230     2284 
    2299     2246     2201     2209     2263     2296     2257     2212 
    2178     2176     2247     2297     2263     2224     2209     2203 
    2205     2211     2195     2191     2228     2219     2180     2247 
    2344     2322     2242     2230     2277     2289     2238     2193 
    2187     2189     2220     2288     2309     2251     2212     2208 
    2173     2151     2180     2188     2207     2293     2326     2251 
    2222     2259     2247     2220     2258     2270     2204     2188 
    2277     2319     2250     2216     2231     2192     2153     2184 
    2207     2203     2242     2286     2269     2234     2246     2269 
    2243     2211     2218     2250     2282     2278     2249     2232 
    2216     2187     2157     2172     2262     2308     2232     2191 
    2255     2282     2239     2226     2243     2236     2230     2245 
    2227     2181     2223     2292     2247     2197     2212     2195 
    2214     2300     2307     2234     2197     2196     2199     2216 
    2255     2292     2278     2231     2197     2180     2212     2284 
    2278     2199     2170     2212     2245     2257     2273     2266 
    2251     2249     2204     2177     2251     2309     2265     2222 
    2230     2205     2160     2197     2262     2263     2249     2231 
    2209     2219     2249     2281     2295     2246     2187     2189 
    2209     2211     2231     2231     2197     2214     2272     2281 
    2238     2205     2204     2226     2261     2274     2258     2261 
    2262     2228     2216     2249     2266     2257     2239     2211 
    2185     2176     2189     2215     2238     2246     2222     2205 
    2245     2292     2285     2257     2249     2220     2189     2219 
    2251     2253     2273     2259     2191     2174     2218     2232 
    2239     2286     2309     2257     2215     2218     2205     2181 
    2193     2238     2277     2269     2226     2201     2192     2188 
    2218     2250     2254     2254     2251     2236     2241     2254 
    2231     2197     2226     2261     2207     2176     2263     2309 
    2255     2231     2231     2212     2218     2230     2222     2226 
    2243     2238     2209     2201     2224     2258     2285     2273 
    2239     2236     2230     2207     2207     2220     2222     2224 
    2251     2295     2278     2196     2162     2188     2222     2270 
    2269     2214     2201     2174     2099     2101     2173     2196 
    2188     2214     2259     2254     2230     2265     2288     2261 
    2280     2304     2268     2268     2331     2377     2401     2448 
    2475     2413     2343     2346     2327     2246     2187     2155 
    2097     2046     2052     2060     2054     2111     2193     2207 
    2185     2181     2182     2158     2134     2169     2242     2242 
    2139     2050     2070     2184     2322     2421     2484     2498 
    2407     2262     2180     2143     2165     2286     2397     2409 
    2361     2254     2162     2214     2347     2407     2407     2401 
    2300     2084     1894     1809     1840     1995     2182     2289 
    2324     2305     2216     2110     2076     2138     2273     2434 
    2544     2565     2493     2369     2249     2174     2151     2137 
    2115     2101     2095     2104     2101     2087     2176     2332 
    2359     2257     2172     2160     2166     2127     2103     2214 
    2434     2610     2677     2636     2466     2200     1961     1864 
    1937     2137     2363     2489     2473     2371     2247     2126 
    2029     2011     2084     2157     2204     2274     2339     2361 
    2355     2327     2277     2227     2199     2155     2031     1899 
    1910     2014     2070     2160     2361     2504     2508     2500 
    2496     2409     2293     2266     2274     2191     2080     2066 
    2120     2180     2249     2340     2428     2471     2459     2359 
    2164     1999     1953     1966     2018     2101     2187     2288 
    2376     2407     2401     2362     2303     2203     2050     1979 
    2066     2195     2284     2330     2285     2145     2042     2100 
    2247     2390     2508     2511     2367     2199     2100     2088 
    2119     2161     2230     2293     2293     2273     2286     2300 
    2296     2303     2286     2215     2172     2207     2250     2261 
    2269     2245     2180     2157     2182     2197     2214     2254 
    2299     2304     2265     2257     2278     2226     2124     2091 
    2128     2157     2164     2214     2269     2295     2350     2365 
    2265     2173     2143     2134     2180     2281     2331     2299 
    2295     2313     2242     2181     2230     2272     2257     2277 
    2326     2300     2199     2147     2191     2247     2270     2273 
    2254     2212     2158     2133     2149     2165     2154     2145 
    2172     2226     2251     2230     2226     2266     2312     2351 
    2365     2331     2304     2268     2169     2118     2170     2211 
    2236     2317     2358     2288     2222     2220     2180     2093 
    2089     2166     2199     2191     2245     2301     2254     2196 
    2222     2261     2263     2276     2288     2250     2195     2191 
    2218     2254     2327     2398     2405     2370     2342     2312 
    2238     2131     2070     2080     2103     2118     2157     2216 
    2253     2265     2265     2227     2199     2232     2265     2263 
    2272     2290     2292     2273     2215     2158     2209     2304 
    2324     2331     2380     2362     2249     2151     2108     2064 
    2066     2138     2142     2077     2077     2128     2169     2215 
    2263     2304     2328     2336     2342     2334     2317     2317 
    2330     2355     2385     2350     2243     2173     2164     2134 
    2089     2091     2124     2168     2204     2200     2182     2197 
    2231     2242     2228     2263     2335     2322     2265     2281 
    2320     2316     2289     2250     2227     2230     2228     2220 
    2227     2239     2234     2196     2185     2226     2258     2284 
    2303     2281     2277     2288     2238     2188     2187     2180 
    2142     2108     2149     2243     2280     2246     2214     2211 
    2228     2230     2219     2220     2223     2228     2246     2269 
    2315     2370     2382     2339     2253     2153     2110     2142 
    2166     2143     2141     2182     2208     2214     2241     2301 
    2357     2371     2347     2282     2189     2126     2135     2197 
    2249     2265     2268     2258     2234     2214     2195     2192 
    2209     2211     2211     2245     2257     2231     2258     2319 
    2311     2254     2220     2212     2211     2215     2205     2192 
    2220     2257     2250     2243     2247     2219     2195     2207 
    2232     2253     2257     2250     2231     2200     2178     2177 
    2200     2254     2320     2361     2334     2241     2161     2138 
    2162     2227     2270     2234     2181     2196     2223     2205 
    2211     2272     2320     2344     2359     2320     2207     2103 
    2101     2153     2181     2232     2323     2335     2258     2232 
    2249     2203     2176     2218     2205     2157     2184     2245 
    2277     2309     2330     2307     2276     2261     2251     2261 
    2272     2253     2216     2168     2137     2176     2238     2243 
    2223     2242     2276     2247     2200     2231     2282     2263 
    2234     2239     2219     2165     2147     2189     2222     2205 
    2197     2214     2218     2253     2313     2320     2290     2255 
    2208     2203     2242     2247     2230     2241     2255     2235 
    2207     2211     2236     2249     2239     2234     2236     2193 
    2131     2147     2211     2243     2269     2288     2284     2299 
    2315     2266     2211     2232     2261     2230     2219     2262 
    2257     2195     2191     2232     2231     2212     2228     2241 
    2216     2173     2157     2178     2216     2265     2297     2289 
    2262     2251     2250     2230     2212     2234     2251     2249 
    2258     2238     2204     2251     2301     2253     2196     2200 
    2209     2192     2165     2172     2219     2269     2295     2299 
    2284     2257     2243     2249     2238     2223     2227     2205 
    2176     2192     2212     2211     2236     2276     2284     2288 
    2312     2311     2251     2195     2176     2176     2205     2247 
    2236     2197     2201     2238     2255     2253     2265     2268 
    2230     2191     2169     2151     2147     2177     2258     2343 
    2357     2323     2281     2228     2219     2249     2242     2201 
    2178     2172     2160     2166     2208     2255     2284     2304 
    2301     2261     2208     2195     2218     2226     2219     2228 
    2236     2247     2281     2299     2265     2230     2218     2188 
    2172     2215     2273     2282     2250     2220     2212     2203 
    2201     2241     2286     2284     2241     2205     2204     2222 
    2241     2257     2254     2219     2195     2203     2204     2200 
    2230     2284     2292     2247     2228     2254     2262     2251 
    2258     2265     2232     2174     2157     2180     2197     2220 
