Origin Time       2025/01/26 08:11:00
Lat.              34.975
Long.             138.213
Depth. (km)       21
Mag.              3.4
Station Code      SZO021
Station Lat.      35.0978
Station Long.     138.1332
Station Height(m) 441
Record Time       2025/01/26 08:11:37
Sampling Freq(Hz) 100Hz
Duration Time(s)  60
Dir.              U-D
Scale Factor      7845(gal)/8223790
Max. Acc. (gal)   2.369
Last Correction   2025/01/26 08:11:36
Memo.             
   11801    11800    11803    11801    11801    11800    11800    11800 
   11800    11801    11803    11801    11801    11803    11801    11800 
   11799    11800    11803    11803    11800    11800    11801    11801 
   11800    11800    11801    11801    11801    11803    11803    11801 
   11801    11800    11800    11800    11801    11799    11799    11803 
   11804    11803    11801    11801    11799    11800    11803    11801 
   11800    11803    11803    11801    11800    11799    11800    11799 
   11799    11803    11803    11800    11800    11800    11799    11797 
   11801    11803    11799    11797    11799    11801    11801    11801 
   11799    11800    11803    11801    11799    11800    11801    11799 
   11800    11801    11800    11800    11801    11800    11801    11804 
   11801    11800    11801    11801    11800    11801    11800    11799 
   11800    11799    11801    11801    11801    11804    11803    11800 
   11800    11800    11800    11801    11799    11797    11803    11801 
   11801    11804    11803    11803    11803    11799    11799    11801 
   11801    11801    11804    11801    11799    11797    11797    11800 
   11800    11799    11800    11801    11801    11801    11800    11800 
   11801    11800    11801    11803    11799    11796    11800    11801 
   11797    11799    11803    11800    11799    11801    11803    11803 
   11803    11799    11799    11800    11803    11801    11799    11799 
   11800    11799    11799    11801    11803    11800    11800    11801 
   11801    11799    11799    11800    11801    11801    11800    11800 
   11801    11801    11800    11800    11803    11803    11800    11800 
   11800    11800    11803    11800    11800    11804    11804    11804 
   11804    11799    11799    11800    11800    11800    11800    11801 
   11801    11801    11800    11801    11801    11800    11800    11800 
   11800    11801    11801    11801    11804    11803    11799    11800 
   11801    11799    11800    11804    11803    11800    11801    11800 
   11800    11801    11801    11801    11801    11799    11799    11800 
   11799    11800    11800    11800    11803    11800    11800    11800 
   11797    11797    11801    11804    11801    11801    11804    11803 
   11797    11800    11803    11801    11800    11800    11800    11800 
   11801    11803    11800    11799    11799    11799    11800    11800 
   11800    11800    11800    11800    11801    11803    11800    11799 
   11800    11801    11800    11801    11801    11800    11800    11799 
   11799    11801    11801    11797    11799    11801    11801    11800 
   11801    11801    11801    11801    11800    11799    11799    11799 
   11800    11801    11800    11799    11799    11801    11803    11800 
   11799    11801    11803    11800    11799    11799    11799    11801 
   11801    11800    11800    11801    11801    11800    11800    11800 
   11800    11801    11800    11800    11801    11799    11799    11801 
   11801    11800    11800    11799    11800    11801    11801    11799 
   11800    11803    11803    11801    11801    11801    11801    11803 
   11801    11800    11803    11801    11797    11797    11800    11799 
   11800    11801    11800    11801    11803    11799    11797    11804 
   11804    11799    11797    11801    11803    11800    11800    11803 
   11800    11800    11803    11801    11799    11801    11803    11801 
   11803    11804    11800    11800    11803    11801    11800    11800 
   11800    11801    11804    11803    11800    11801    11803    11803 
   11800    11801    11803    11801    11800    11801    11800    11800 
   11803    11801    11800    11800    11800    11801    11800    11800 
   11801    11800    11800    11801    11803    11800    11800    11801 
   11803    11803    11801    11801    11800    11799    11801    11803 
   11800    11800    11803    11804    11801    11800    11801    11801 
   11800    11801    11804    11804    11801    11801    11801    11801 
   11800    11801    11801    11800    11800    11799    11800    11801 
   11801    11803    11801    11800    11800    11801    11800    11800 
   11801    11801    11803    11803    11803    11803    11801    11800 
   11800    11800    11801    11800    11801    11803    11803    11801 
   11800    11800    11800    11800    11800    11803    11801    11799 
   11800    11801    11800    11800    11800    11799    11797    11800 
   11801    11801    11803    11801    11801    11801    11800    11801 
   11803    11801    11800    11801    11804    11804    11803    11801 
   11801    11800    11801    11801    11801    11801    11801    11801 
   11801    11800    11803    11803    11801    11800    11800    11803 
   11801    11799    11801    11801    11799    11799    11801    11803 
   11801    11800    11800    11801    11801    11801    11803    11801 
   11801    11799    11799    11801    11801    11799    11800    11801 
   11801    11799    11800    11800    11800    11799    11800    11801 
   11801    11801    11800    11800    11803    11801    11800    11800 
   11800    11800    11800    11800    11800    11799    11799    11800 
   11799    11799    11800    11801    11800    11801    11801    11801 
   11801    11803    11803    11801    11800    11797    11796    11799 
   11800    11799    11800    11800    11799    11799    11800    11801 
   11800    11799    11799    11800    11800    11800    11803    11803 
   11799    11799    11801    11801    11803    11801    11797    11800 
   11803    11799    11800    11803    11801    11801    11803    11801 
   11801    11801    11800    11799    11801    11803    11801    11801 
   11800    11801    11801    11800    11801    11801    11800    11801 
   11801    11800    11800    11799    11799    11801    11803    11800 
   11799    11801    11803    11800    11801    11803    11801    11801 
   11804    11803    11801    11801    11799    11800    11801    11801 
   11801    11800    11803    11804    11800    11800    11800    11800 
   11803    11801    11800    11803    11803    11800    11800    11801 
   11803    11801    11800    11801    11800    11797    11797    11799 
   11800    11800    11801    11800    11800    11803    11803    11800 
   11800    11800    11799    11803    11803    11801    11799    11800 
   11803    11803    11801    11800    11799    11801    11804    11803 
   11800    11799    11800    11800    11799    11799    11803    11803 
   11799    11799    11800    11801    11801    11801    11800    11800 
   11801    11800    11797    11799    11804    11804    11800    11799 
   11799    11799    11800    11801    11801    11801    11800    11799 
   11800    11801    11800    11800    11801    11801    11800    11800 
   11803    11803    11800    11799    11801    11800    11799    11800 
   11800    11801    11801    11799    11801    11805    11801    11799 
   11800    11801    11801    11800    11799    11800    11801    11801 
   11799    11800    11801    11803    11803    11800    11799    11799 
   11800    11801    11801    11803    11801    11801    11801    11800 
   11799    11800    11801    11801    11800    11799    11800    11800 
   11797    11797    11800    11801    11800    11799    11800    11804 
   11803    11799    11800    11801    11799    11801    11804    11801 
   11801    11803    11799    11797    11800    11800    11799    11801 
   11801    11799    11800    11801    11799    11801    11803    11800 
   11799    11801    11801    11800    11801    11801    11803    11803 
   11801    11801    11801    11801    11800    11801    11801    11799 
   11797    11800    11801    11797    11796    11800    11803    11800 
   11797    11800    11800    11799    11799    11801    11800    11799 
   11801    11801    11799    11799    11801    11801    11800    11800 
   11800    11801    11801    11801    11800    11801    11801    11801 
   11801    11801    11800    11803    11801    11799    11800    11800 
   11799    11800    11800    11799    11800    11803    11803    11800 
   11800    11803    11801    11799    11800    11800    11800    11803 
   11803    11800    11803    11803    11801    11800    11800    11803 
   11803    11800    11801    11801    11800    11799    11801    11804 
   11803    11800    11800    11803    11803    11801    11801    11801 
   11803    11804    11803    11801    11801    11801    11801    11803 
   11801    11800    11801    11800    11800    11800    11801    11801 
   11800    11801    11800    11799    11800    11801    11799    11801 
   11803    11799    11797    11797    11800    11804    11803    11801 
   11803    11801    11799    11800    11799    11799    11803    11800 
   11797    11800    11803    11800    11801    11804    11801    11800 
   11800    11800    11801    11801    11800    11799    11801    11803 
   11803    11801    11800    11797    11800    11803    11799    11799 
   11801    11801    11800    11800    11800    11800    11799    11800 
   11801    11801    11801    11801    11800    11800    11800    11799 
   11800    11801    11800    11800    11801    11801    11799    11799 
   11800    11800    11800    11799    11800    11800    11800    11803 
   11801    11799    11799    11801    11800    11799    11800    11800 
   11799    11800    11800    11797    11799    11801    11803    11803 
   11801    11800    11799    11803    11804    11800    11799    11801 
   11804    11803    11801    11799    11800    11803    11803    11800 
   11800    11803    11800    11800    11803    11801    11800    11800 
   11800    11800    11800    11801    11800    11800    11803    11801 
   11800    11800    11801    11803    11800    11799    11801    11801 
   11800    11803    11801    11797    11800    11801    11800    11800 
   11800    11800    11799    11799    11800    11801    11803    11803 
   11801    11800    11800    11801    11800    11800    11801    11801 
   11800    11799    11799    11800    11800    11800    11801    11803 
   11801    11800    11801    11801    11799    11800    11800    11800 
   11801    11803    11804    11803    11800    11800    11803    11803 
   11801    11803    11800    11800    11801    11803    11801    11801 
   11801    11800    11800    11800    11801    11803    11803    11800 
   11799    11800    11800    11801    11803    11801    11800    11800 
   11800    11799    11800    11800    11800    11801    11803    11800 
   11800    11801    11800    11800    11801    11800    11799    11799 
   11800    11801    11801    11801    11803    11801    11800    11800 
   11801    11794    11785    11780    11774    11746    11724    11757 
   11688    11511    11682    12082    11989    11803    12191    12145 
   10986    10380    11526    12903    13383    13601    12603     9998 
    9317    11643    13066    12263    11534    11777    12195    12102 
   11661    11538    11607    11568    11762    11893    11433    11164 
   11736    12245    12280    12519    12364    11315    11072    11913 
   11898    11275    11519    12078    12055    11751    11718    12133 
   12390    11751    11051    11545    12297    12009    11429    11308 
   11608    12283    12479    11780    11194    11298    11893    12370 
   11990    11331    11423    12025    12306    11819    11249    11727 
   12425    12019    11495    11745    11888    11772    11928    11965 
   11713    11614    11785    12066    11904    11304    11426    12302 
   12448    11627    11157    11510    11932    11994    11859    11661 
   11632    12101    12519    11874    10839    11145    12386    12523 
   11587    11341    11921    12127    11813    11596    11654    11861 
   11943    11762    11659    11832    11881    11691    11703    11904 
   12004    12019    11785    11369    11538    12178    12129    11526 
   11454    11805    11923    11796    11772    12012    12090    11697 
   11394    11562    11915    12112    12050    11927    11816    11650 
   11642    11836    12035    12086    11817    11438    11437    11793 
   12004    11800    11549    11673    11979    12154    12118    11705 
   11186    11379    12089    12148    11646    11612    11896    11889 
   11848    11907    11840    11767    11723    11628    11631    11685 
   11819    12247    12391    11700    11200    11781    12417    12116 
   11476    11294    11504    11828    12251    12425    11772    10997 
   11361    12214    12160    11591    11469    11672    11902    12154 
   12075    11587    11430    11875    12229    12028    11610    11560 
   11813    11781    11564    11753    12104    11970    11585    11612 
   11958    12000    11677    11542    11754    11967    12015    11875 
   11618    11692    12109    11997    11412    11473    12000    11997 
   11730    11808    11858    11649    11665    11942    12019    11912 
   11815    11635    11523    11763    12098    11974    11541    11716 
   12351    12100    11253    11361    12070    12064    11600    11507 
   11781    12079    12086    11746    11491    11614    11866    11869 
   11666    11688    11923    12028    12016    11880    11643    11647 
   11809    11824    11800    11754    11655    11776    11985    11929 
   11794    11746    11723    11882    11981    11581    11329    11862 
   12343    12066    11601    11561    11885    12101    11870    11587 
   11688    11772    11641    11790    12051    11817    11462    11649 
   12118    12113    11604    11477    11863    11893    11649    11857 
   12128    11843    11488    11638    11944    11969    11880    11858 
   11759    11669    11867    12071    11788    11407    11587    11946 
   11878    11765    11982    11974    11592    11589    11947    11871 
   11542    11695    12055    11954    11664    11770    11880    11588 
   11639    12199    12171    11578    11489    11831    11966    11915 
   11812    11611    11562    11901    12129    11838    11522    11630 
   11947    12077    11935    11724    11507    11410    11765    12206 
   12004    11550    11589    11803    11797    11850    12033    12054 
   11812    11566    11649    11973    12123    12035    11913    11676 
   11303    11214    11601    11961    11938    11935    12121    12075 
   11853    11819    11745    11445    11340    11680    12129    12259 
   11988    11730    11811    11855    11704    11844    12148    12016 
   11568    11265    11287    11599    11927    12125    12345    12289 
   11645    11164    11449    11927    12120    12048    11692    11284 
   11211    11422    11732    12136    12433    12343    12010    11824 
   11815    11723    11533    11514    11703    11823    11739    11661 
   11796    11948    11753    11456    11716    12195    12025    11611 
   11722    12029    12117    12000    11765    11735    11934    11900 
   11734    11801    11816    11557    11387    11507    11776    12001 
   11988    11804    11772    11950    11975    11704    11654    12067 
   12282    11911    11453    11358    11578    11830    11832    11705 
   11781    11954    11950    11836    11726    11604    11677    12024 
   12118    11770    11616    11934    12181    11988    11597    11438 
   11676    11969    11875    11569    11542    11728    11776    11785 
   11931    12001    11892    11797    11712    11599    11631    11785 
   11917    12020    11993    11815    11654    11577    11661    11862 
   11884    11746    11747    11861    11956    12021    11929    11658 
   11570    11826    11988    11884    11866    11882    11735    11763 
   11911    11707    11496    11696    11826    11734    11866    12048 
   11929    11739    11753    11907    11954    11800    11685    11750 
   11807    11801    11862    11866    11630    11446    11707    12086 
   11962    11502    11375    11658    11893    11870    11762    11763 
   11885    12001    12004    11885    11746    11723    11813    11880 
   11874    11785    11657    11626    11705    11859    12020    11989 
   11846    11800    11750    11708    11844    11919    11745    11691 
   11842    11889    11866    11877    11842    11781    11681    11589 
   11732    11969    11919    11763    11869    11963    11774    11659 
   11736    11745    11766    11878    11838    11649    11600    11740 
   11834    11848    11907    11870    11672    11612    11816    12024 
   12033    11871    11763    11857    11892    11677    11549    11753 
   11966    11913    11800    11817    11830    11731    11678    11772 
   11858    11809    11731    11736    11811    11871    11824    11734 
   11695    11681    11691    11749    11842    11925    11898    11774 
   11811    11982    11912    11677    11686    11905    11982    11844 
   11788    11844    11691    11518    11767    12067    11897    11642 
   11728    11847    11801    11836    11920    11824    11665    11684 
   11840    11873    11696    11595    11786    11966    11880    11777 
   11794    11758    11719    11828    11981    11978    11830    11699 
   11707    11901    12079    11908    11600    11659    11890    11847 
   11726    11763    11823    11824    11750    11684    11808    11920 
   11754    11600    11734    11940    11935    11715    11553    11681 
   11881    11831    11715    11777    11875    11877    11838    11824 
   11851    11893    11925    11911    11805    11665    11596    11712 
   11936    11947    11735    11685    11853    11944    11858    11735 
   11743    11853    11854    11745    11709    11753    11819    11869 
   11836    11789    11772    11712    11657    11695    11785    11861 
   11877    11828    11778    11701    11595    11654    11897    12020 
   11898    11770    11804    11884    11850    11735    11705    11759 
   11817    11928    11993    11839    11646    11723    11969    12015 
   11807    11626    11658    11821    11902    11809    11689    11728 
   11888    11989    11944    11772    11643    11732    11893    11915 
   11804    11693    11703    11780    11835    11898    11877    11712 
   11709    11948    11988    11716    11556    11695    11896    11911 
   11777    11715    11799    11874    11828    11788    11844    11816 
   11670    11650    11776    11877    11865    11738    11635    11723 
   11890    11878    11734    11693    11778    11862    11902    11947 
   11908    11753    11759    11905    11897    11847    11816    11682 
   11681    11853    11831    11700    11766    11857    11772    11672 
   11712    11843    11932    11866    11705    11700    11865    11893 
   11755    11712    11801    11880    11884    11839    11800    11766 
   11766    11848    11886    11803    11776    11863    11897    11842 
   11782    11735    11726    11735    11723    11755    11807    11755 
   11728    11834    11881    11781    11719    11803    11921    11861 
   11678    11718    11917    11901    11758    11734    11761    11807 
   11857    11796    11731    11819    11905    11853    11763    11704 
   11749    11889    11884    11750    11742    11793    11770    11790 
   11861    11832    11745    11735    11800    11866    11880    11770 
   11645    11753    11994    11998    11778    11703    11854    11943 
   11835    11719    11720    11750    11754    11774    11819    11815 
   11780    11827    11878    11792    11722    11762    11784    11811 
   11871    11843    11792    11800    11792    11803    11826    11751 
