Origin Time       2025/01/26 08:11:00
Lat.              34.975
Long.             138.213
Depth. (km)       21
Mag.              3.4
Station Code      SZO021
Station Lat.      35.0978
Station Long.     138.1332
Station Height(m) 441
Record Time       2025/01/26 08:11:37
Sampling Freq(Hz) 100Hz
Duration Time(s)  60
Dir.              N-S
Scale Factor      7845(gal)/8223790
Max. Acc. (gal)   4.272
Last Correction   2025/01/26 08:11:36
Memo.             
[...]
    2481     2481     2482     2482     2481     2482     2482     2482 
    2482     2481     2482     2482     2482     2484     2482     2482 
    2484     2482     2482     2485     2484     2481     2481     2481 
    2479     2481     2481     2481     2482     2484     2484     2482 
    2481     2482     2485     2484     2481     2482     2485     2484 
    2482     2482     2482     2481     2481     2481     2482     2481 
    2481     2484     2484     2481     2479     2482     2482     2481 
    2482     2482     2481     2481     2484     2485     2482     2481 
    2484     2485     2482     2481     2484     2485     2484     2482 
    2484     2485     2484     2484     2484     2482     2481     2481 
    2482     2484     2484     2484     2482     2484     2484     2482 
    2485     2485     2481     2479     2482     2484     2484     2482 
    2481     2481     2484     2481     2481     2484     2482     2481 
    2482     2482     2482     2484     2482     2482     2482     2481 
    2481     2482     2481     2482     2481     2481     2484     2482 
    2482     2484     2482     2481     2482     2481     2481     2485 
    2484     2482     2485     2484     2481     2484     2484     2482 
    2482     2485     2484     2481     2479     2481     2484     2482 
    2481     2484     2484     2481     2482     2484     2481     2481 
    2484     2484     2484     2485     2484     2484     2484     2484 
    2484     2482     2479     2479     2481     2482     2484     2485 
    2482     2479     2481     2484     2484     2484     2484     2482 
    2481     2482     2484     2485     2484     2484     2485     2484 
    2481     2485     2486     2479     2478     2482     2485     2484 
    2482     2482     2482     2481     2481     2484     2485     2484 
    2481     2482     2485     2485     2482     2482     2482     2482 
    2484     2484     2482     2484     2481     2479     2482     2482 
    2481     2482     2484     2484     2481     2481     2484     2486 
    2486     2484     2481     2484     2481     2479     2482     2482 
    2481     2482     2481     2482     2484     2479     2481     2484 
    2481     2478     2482     2484     2481     2482     2484     2484 
    2482     2481     2481     2482     2484     2482     2481     2484 
    2488     2485     2481     2482     2484     2485     2482     2481 
    2482     2482     2482     2484     2484     2484     2482     2482 
    2485     2488     2484     2481     2482     2482     2485     2486 
    2482     2479     2484     2482     2478     2479     2482     2484 
    2485     2485     2482     2481     2481     2481     2481     2484 
    2484     2482     2482     2484     2484     2484     2485     2484 
    2482     2484     2484     2484     2484     2482     2481     2482 
    2485     2484     2481     2482     2484     2482     2484     2484 
    2482     2482     2484     2482     2482     2482     2482     2484 
    2482     2484     2485     2482     2482     2484     2482     2485 
    2485     2482     2484     2485     2482     2482     2484     2484 
    2484     2482     2482     2484     2486     2484     2481     2484 
    2486     2484     2481     2479     2481     2485     2484     2482 
    2484     2484     2482     2482     2482     2484     2481     2478 
    2484     2485     2484     2484     2484     2482     2484     2485 
    2484     2482     2482     2484     2482     2481     2484     2484 
    2482     2482     2484     2482     2482     2484     2484     2482 
    2482     2482     2484     2482     2481     2481     2481     2482 
    2482     2482     2484     2482     2477     2479     2484     2482 
    2481     2482     2482     2482     2481     2484     2481     2479 
    2485     2485     2482     2484     2482     2482     2482     2481 
    2481     2482     2482     2482     2484     2482     2481     2482 
    2482     2484     2484     2482     2484     2484     2482     2481 
    2481     2482     2485     2482     2481     2484     2485     2482 
    2484     2484     2482     2479     2481     2482     2482     2481 
    2482     2485     2481     2478     2482     2482     2479     2484 
    2484     2479     2481     2482     2482     2484     2482     2482 
    2486     2485     2481     2479     2482     2484     2482     2482 
    2482     2481     2482     2484     2482     2482     2484     2482 
    2479     2479     2482     2482     2479     2481     2481     2482 
    2482     2479     2481     2484     2484     2484     2484     2484 
    2484     2482     2482     2482     2482     2485     2485     2482 
    2482     2481     2479     2482     2481     2479     2481     2481 
    2479     2482     2485     2484     2481     2482     2484     2482 
    2484     2484     2482     2484     2484     2482     2482     2484 
    2485     2485     2485     2485     2484     2482     2484     2488 
    2488     2484     2482     2482     2482     2484     2484     2484 
    2485     2484     2482     2482     2484     2485     2484     2481 
    2481     2484     2482     2481     2484     2486     2486     2484 
    2482     2482     2482     2485     2484     2481     2484     2486 
    2482     2479     2482     2484     2482     2482     2482     2484 
    2484     2482     2482     2482     2485     2485     2481     2482 
    2486     2484     2481     2484     2482     2481     2482     2484 
    2484     2484     2484     2485     2485     2482     2482     2484 
    2484     2482     2482     2482     2485     2484     2482     2484 
    2484     2482     2482     2481     2481     2481     2482     2482 
    2481     2482     2482     2481     2484     2485     2484     2479 
    2479     2482     2484     2482     2481     2482     2485     2482 
    2481     2484     2484     2484     2484     2482     2482     2482 
    2482     2484     2485     2485     2484     2484     2484     2484 
    2482     2481     2481     2482     2482     2481     2482     2484 
    2482     2482     2485     2484     2482     2484     2482     2481 
    2484     2485     2482     2481     2482     2482     2484     2482 
    2481     2484     2484     2482     2482     2482     2482     2484 
    2481     2479     2485     2484     2481     2481     2481     2482 
    2484     2482     2482     2485     2481     2478     2481     2482 
    2482     2482     2482     2484     2484     2482     2481     2482 
    2482     2482     2484     2484     2482     2481     2479     2482 
    2485     2485     2484     2484     2485     2484     2481     2482 
    2484     2482     2481     2481     2482     2481     2479     2482 
    2484     2481     2479     2481     2481     2482     2482     2479 
    2482     2485     2484     2484     2484     2484     2484     2484 
    2481     2478     2478     2481     2484     2482     2481     2479 
    2482     2482     2479     2482     2484     2481     2482     2482 
    2481     2482     2482     2482     2484     2484     2481     2482 
    2485     2481     2479     2482     2482     2481     2484     2484 
    2482     2484     2482     2481     2484     2484     2481     2481 
    2482     2484     2484     2482     2481     2481     2484     2484 
    2484     2484     2482     2481     2481     2482     2485     2485 
    2485     2484     2482     2481     2481     2482     2484     2484 
    2481     2479     2481     2482     2482     2482     2482     2482 
    2484     2484     2481     2482     2485     2484     2482     2484 
    2485     2484     2484     2482     2482     2485     2482     2481 
    2484     2482     2481     2482     2479     2481     2485     2485 
    2485     2482     2481     2479     2481     2485     2488     2484 
    2479     2481     2481     2482     2485     2485     2485     2482 
    2479     2481     2485     2485     2484     2481     2482     2484 
    2482     2482     2482     2481     2482     2481     2481     2482 
    2484     2484     2484     2481     2482     2484     2482     2484 
    2484     2484     2481     2481     2486     2489     2484     2481 
    2481     2481     2482     2486     2486     2484     2482     2481 
    2481     2485     2485     2484     2482     2481     2477     2479 
    2482     2484     2485     2484     2481     2481     2481     2485 
    2484     2478     2479     2484     2481     2482     2485     2485 
    2484     2482     2484     2485     2485     2484     2484     2484 
    2482     2482     2482     2481     2484     2484     2481     2481 
    2484     2484     2482     2482     2482     2482     2482     2481 
    2481     2484     2481     2481     2485     2484     2481     2481 
    2481     2482     2484     2484     2485     2484     2481     2482 
    2482     2481     2484     2484     2482     2482     2482     2481 
    2482     2484     2484     2484     2482     2482     2484     2484 
    2484     2482     2484     2482     2481     2482     2482     2481 
    2482     2481     2482     2484     2481     2481     2485     2485 
    2479     2479     2484     2485     2484     2481     2481     2482 
    2482     2481     2482     2482     2481     2482     2484     2482 
    2481     2482     2484     2482     2482     2482     2482     2481 
    2484     2484     2484     2482     2481     2482     2484     2482 
    2482     2482     2482     2482     2482     2482     2481     2479 
    2481     2481     2481     2484     2485     2481     2478     2481 
    2481     2485     2486     2481     2479     2482     2484     2485 
    2485     2484     2481     2482     2484     2482     2482     2482 
    2481     2481     2484     2486     2482     2479     2482     2482 
    2481     2482     2482     2481     2482     2482     2482     2485 
    2482     2481     2482     2481     2479     2482     2482     2481 
    2481     2484     2484     2479     2475     2471     2471     2470 
    2451     2446     2482     2458     2394     2524     2712     2567 
    2331     2438     2455     2004     1995     2924     3662     3474 
    2619     1217      261     1391     3839     4779     3503     1922 
    1372     1857     2559     2362     1931     2740     3867     3694 
    2521     1343      990     1923     3295     3916     3454     2010 
     588      885     2717     3944     3688     2979     2482     2015 
    1611     1563     2234     3343     3549     2790     2574     2737 
    2058     1075     1077     2133     3406     4012     3608     2841 
    2273     1653     1124     1297     2261     3631     4591     4152 
    2242      357      218     1659     3187     3904     3788     3203 
    2416     1549     1107     1680     2988     3888     3572     2378 
    1209     1059     2295     3591     3601     2886     2450     2284 
    2088     1919     1965     2500     3400     3547     2393     1309 
    1628     2646     2957     2573     2493     2965     3110     2384 
    1518     1512     2409     3188     3096     2695     2519     2212 
    1921     2188     2687     2910     2808     2361     2016     2465 
    3063     2775     2124     2016     2334     2678     2871     2770 
    2500     2390     2355     2199     2239     2546     2685     2624 
    2590     2552     2450     2308     2247     2400     2597     2592 
    2501     2590     2752     2590     2166     2065     2458     2810 
    2744     2462     2232     2207     2500     2810     2627     2142 
    2042     2462     2986     3105     2532     1833     1873     2471 
    2891     2964     2771     2386     2184     2251     2230     2290 
    2766     3072     2682     2092     1918     2303     3024     3389 
    2867     1941     1564     2070     2886     3117     2608     2096 
    2150     2641     2932     2486     1875     2046     2759     3179 
    2978     2343     1858     1969     2354     2559     2741     2975 
    2844     2367     2114     2247     2435     2461     2431     2619 
    2918     2794     2168     1715     2058     2863     3164     2841 
    2597     2506     2200     1946     2142     2566     2918     3024 
    2705     2199     1868     1722     1946     2775     3650     3676 
    2748     1668     1362     1938     2643     2991     3204     3146 
    2407     1521     1448     2284     3219     3353     2695     2178 
    2295     2444     2222     2134     2474     2911     3096     2767 
    2104     1788     2043     2520     2995     3244     2907     2211 
    1858     2042     2350     2517     2651     2837     2947     2686 
    2006     1656     2254     3060     3175     2739     2265     2085 
    2145     2145     2269     2806     3257     3013     2377     1977 
    1834     1885     2409     3179     3391     2787     2088     1992 
    2270     2377     2385     2628     2941     2907     2565     2285 
    2203     2101     1919     2128     2922     3468     3091     2230 
    1707     1841     2317     2729     3003     3102     2787     2166 
    1935     2293     2548     2447     2498     2801     2840     2442 
    2076     2096     2334     2647     2979     2983     2533     2049 
    1934     2235     2614     2673     2533     2664     2944     2821 
    2376     2119     2185     2439     2677     2774     2864     2955 
    2855     2666     2620     2655     2706     2814     2685     1984 
    1100      915     1929     3574     4353     3295     1038     -764 
    -621     1591     4307     5562     4526     1933     -400     -477 
    2289     5802     6961     4947     1836      324     1163     2565 
    2401      762     -286      927     3905     6332     6265     3865 
     945     -522      361     2671     4234     3703     1811      270 
     228     1804     3811     4650     4174     3438     2929     2346 
    1611     1237     1755     2876     3492     3111     2563     2435 
    2236     1686     1394     1981     3100     3674     3312     2673 
    2214     1810     1557     1922     2808     3225     2725     2057 
    1775     1775     2083     2735     3323     3288     2562     1956 
    2386     3484     3856     3041     2016     1651     1912     2398 
    2614     2315     1853     1771     2265     3064     3503     2938 
    1688     1028     1567     2529     3153     3464     3599     3512 
    3060     2273     1707     1818     2276     2544     2590     2659 
    2809     2943     2816     2131     1237     1109     2053     3213 
    3574     2897     1865     1441     1850     2548     3164     3647 
    3588     2632     1451      920     1134     1969     3159     3946 
    3929     3350     2538     1912     1787     2004     2357     2857 
    3334     3348     2744     1977     1651     1891     2308     2583 
    2767     2791     2448     2043     2025     2246     2434     2538 
    2497     2431     2504     2505     2336     2451     2953     3167 
    2762     2147     1787     2002     2668     3142     3103     2747 
    2246     1829     1890     2408     2857     3011     3018     2836 
    2505     2285     2154     2015     2056     2527     3261     3522 
    2816     1683     1170     1733     2762     3287     3057     2475 
    1895     1598     1895     2658     3234     3219     2806     2361 
    2092     2031     2197     2562     2818     2636     2245     2199 
    2463     2560     2471     2465     2519     2477     2377     2436 
    2718     2893     2670     2309     2193     2261     2386     2679 
    2999     3038     2835     2513     2200     2147     2371     2601 
    2727     2717     2427     2041     2058     2425     2623     2540 
    2424     2425     2504     2428     2153     2084     2447     2847 
    2901     2824     2890     2795     2288     1813     1906     2478 
    2964     2960     2600     2212     1952     1869     2046     2471 
    2863     2964     2853     2619     2288     2087     2205     2501 
    2667     2558     2342     2335     2546     2689     2670     2646 
    2655     2494     2231     2272     2612     2824     2798     2732 
    2590     2246     1948     2079     2559     2925     2905     2627 
    2389     2315     2309     2373     2533     2563     2355     2205 
    2292     2430     2500     2593     2717     2776     2708     2440 
    2138     2160     2444     2660     2747     2668     2355     2147 
    2370     2740     2820     2593     2328     2258     2380     2463 
    2428     2467     2544     2401     2204     2300     2528     2585 
    2577     2718     2922     2798     2214     1703     1838     2457 
    2945     3010     2775     2424     2182     2257     2581     2813 
    2655     2311     2301     2585     2651     2469     2452     2713 
    2884     2652     2223     2108     2415     2704     2698     2585 
    2477     2232     1907     1892     2350     2876     2938     2533 
    2160     2110     2241     2397     2594     2826     2922     2770 
    2511     2290     2079     1949     2165     2749     3333     3456 
    2968     2242     1768     1729     2080     2628     3021     2963 
    2581     2223     2046     2046     2228     2606     2998     3015 
    2577     2126     2057     2247     2380     2385     2435     2609 
    2758     2710     2465     2249     2326     2629     2884     2920 
    2677     2308     2143     2343     2694     2791     2573     2435 
    2569     2694     2535     2142     1941     2249     2718     2878 
    2790     2641     2417     2218     2207     2366     2555     2597 
    2428     2304     2479     2700     2597     2324     2246     2370 
    2431     2358     2339     2408     2489     2575     2620     2632 
    2574     2369     2242     2477     2833     2808     2421     2178 
    2265     2450     2598     2667     2627     2578     2496     2350 
    2397     2629     2666     2485     2380     2419     2474     2454 
    2382     2323     2353     2470     2527     2451     2369     2401 
    2547     2631     2494     2281     2261     2519     2840     2907 
    2721     2484     2297     2285     2488     2698     2722     2590 
    2474     2442     2381     2290     2330     2498     2606     2538 
    2417     2451     2569     2556     2440     2427     2548     2582 
    2435     2331     2397     2490     2479     2359     2263     2358 
    2552     2629     2596     2524     2407     2326     2416     2605 
    2712     2664     2474     2315     2409     2617     2610     2394 
    2255     2340     2485     2494     2447     2536     2690     2647 
    2419     2288     2324     2382     2425     2465     2502     2550 
    2546     2505     2508     2477     2367     2296     2334     2462 
    2617     2720     2740     2673     2592     2570     2565     2527 
    2419     2312     2412     2650     2710     2547     2363     2300 
    2332     2357     2373     2479     2651     2748     2658     2398 
    2130     2100     2392     2706     2728     2538     2392     2382 
    2444     2486     2529     2605     2556     2353     2292     2481 
    2639     2578     2415     2330     2378     2470     2496     2516 
    2593     2582     2427     2335     2417     2600     2786     2813 
    2597     2303     2123     2135     2347     2629     2760     2671 
    2489     2319     2203     2195     2344     2589     2697     2558 
    2400     2400     2516     2663     2659     2448     2296     2359 
