Origin Time       2025/01/26 08:11:00
Lat.              34.975
Long.             138.213
Depth. (km)       21
Mag.              3.4
Station Code      SZO021
Station Lat.      35.0978
Station Long.     138.1332
Station Height(m) 441
Record Time       2025/01/26 08:11:37
Sampling Freq(Hz) 100Hz
Duration Time(s)  60
Dir.              E-W
Scale Factor      7845(gal)/8223790
Max. Acc. (gal)   5.112
Last Correction   2025/01/26 08:11:36
Memo.             
[...]
   -3547    -3549    -3549    -3546    -3545    -3549    -3550    -3547 
   -3547    -3547    -3549    -3549    -3547    -3546    -3549    -3549 
   -3545    -3547    -3550    -3547    -3547    -3547    -3546    -3549 
   -3550    -3547    -3547    -3549    -3549    -3549    -3550    -3547 
   -3547    -3549    -3547    -3547    -3549    -3547    -3546    -3547 
   -3549    -3549    -3547    -3546    -3547    -3549    -3547    -3546 
   -3547    -3550    -3550    -3549    -3547    -3547    -3549    -3549 
   -3549    -3547    -3546    -3549    -3550    -3547    -3546    -3546 
   -3547    -3550    -3549    -3547    -3547    -3549    -3551    -3549 
   -3543    -3546    -3551    -3550    -3547    -3547    -3550    -3550 
   -3546    -3547    -3550    -3547    -3546    -3549    -3549    -3549 
   -3546    -3543    -3545    -3546    -3546    -3547    -3545    -3545 
   -3550    -3551    -3549    -3547    -3549    -3549    -3550    -3551 
   -3547    -3546    -3547    -3547    -3547    -3547    -3547    -3549 
   -3549    -3547    -3546    -3547    -3549    -3546    -3547    -3551 
   -3549    -3547    -3549    -3549    -3547    -3550    -3549    -3546 
   -3547    -3550    -3550    -3550    -3550    -3549    -3549    -3547 
   -3550    -3551    -3549    -3550    -3553    -3549    -3546    -3549 
   -3551    -3549    -3546    -3546    -3551    -3551    -3547    -3547 
   -3550    -3550    -3547    -3549    -3547    -3546    -3549    -3550 
   -3549    -3547    -3549    -3550    -3546    -3546    -3550    -3550 
   -3547    -3546    -3547    -3550    -3551    -3549    -3546    -3547 
   -3549    -3547    -3546    -3547    -3547    -3549    -3547    -3546 
   -3547    -3549    -3547    -3547    -3547    -3547    -3547    -3550 
   -3549    -3547    -3550    -3551    -3550    -3549    -3546    -3547 
   -3547    -3547    -3547    -3547    -3547    -3546    -3547    -3549 
   -3550    -3550    -3547    -3547    -3550    -3550    -3547    -3547 
   -3549    -3547    -3547    -3546    -3545    -3547    -3549    -3547 
   -3549    -3549    -3547    -3547    -3547    -3549    -3549    -3549 
   -3549    -3547    -3546    -3549    -3550    -3547    -3547    -3550 
   -3549    -3547    -3547    -3549    -3550    -3547    -3545    -3549 
   -3550    -3547    -3546    -3547    -3550    -3550    -3546    -3546 
   -3547    -3547    -3549    -3549    -3543    -3546    -3550    -3547 
   -3545    -3547    -3546    -3547    -3549    -3547    -3547    -3547 
   -3549    -3549    -3546    -3547    -3547    -3549    -3549    -3547 
   -3546    -3547    -3547    -3549    -3549    -3547    -3547    -3549 
   -3547    -3547    -3550    -3549    -3549    -3547    -3546    -3549 
   -3549    -3547    -3547    -3547    -3549    -3549    -3547    -3549 
   -3549    -3547    -3547    -3549    -3549    -3547    -3546    -3546 
   -3549    -3550    -3550    -3547    -3549    -3547    -3546    -3547 
   -3547    -3547    -3549    -3549    -3549    -3547    -3546    -3547 
   -3550    -3547    -3545    -3547    -3550    -3549    -3547    -3546 
   -3547    -3547    -3547    -3549    -3549    -3546    -3546    -3549 
   -3549    -3547    -3550    -3551    -3547    -3546    -3549    -3550 
   -3547    -3546    -3546    -3547    -3547    -3547    -3547    -3547 
   -3547    -3546    -3549    -3549    -3546    -3547    -3553    -3553 
   -3549    -3547    -3549    -3549    -3547    -3547    -3550    -3549 
   -3547    -3549    -3550    -3547    -3546    -3547    -3549    -3549 
   -3549    -3550    -3551    -3547    -3549    -3551    -3551    -3549 
   -3547    -3549    -3547    -3547    -3549    -3549    -3549    -3549 
   -3550    -3550    -3549    -3549    -3550    -3550    -3547    -3546 
   -3549    -3550    -3547    -3547    -3549    -3550    -3549    -3547 
   -3550    -3551    -3549    -3546    -3547    -3549    -3547    -3546 
   -3549    -3549    -3550    -3550    -3549    -3547    -3549    -3549 
   -3547    -3549    -3549    -3549    -3549    -3547    -3546    -3547 
   -3549    -3549    -3549    -3549    -3549    -3549    -3549    -3550 
   -3547    -3546    -3549    -3549    -3547    -3549    -3547    -3547 
   -3550    -3550    -3549    -3547    -3547    -3547    -3547    -3549 
   -3549    -3547    -3549    -3549    -3546    -3547    -3549    -3549 
   -3549    -3549    -3546    -3547    -3550    -3549    -3549    -3550 
   -3549    -3549    -3549    -3550    -3547    -3547    -3549    -3549 
   -3549    -3550    -3549    -3546    -3547    -3551    -3551    -3549 
   -3547    -3549    -3551    -3551    -3549    -3550    -3550    -3550 
   -3550    -3549    -3547    -3549    -3550    -3547    -3545    -3546 
   -3549    -3550    -3547    -3545    -3550    -3553    -3547    -3545 
   -3549    -3549    -3547    -3547    -3547    -3547    -3549    -3550 
   -3547    -3547    -3550    -3549    -3547    -3549    -3550    -3550 
   -3547    -3546    -3547    -3547    -3546    -3549    -3551    -3550 
   -3550    -3549    -3549    -3547    -3546    -3549    -3550    -3547 
   -3545    -3546    -3547    -3546    -3547    -3549    -3547    -3547 
   -3547    -3546    -3546    -3549    -3549    -3546    -3547    -3550 
   -3550    -3549    -3546    -3546    -3547    -3547    -3549    -3547 
   -3547    -3547    -3550    -3550    -3546    -3546    -3547    -3546 
   -3547    -3551    -3549    -3546    -3546    -3546    -3547    -3550 
   -3547    -3545    -3547    -3549    -3547    -3546    -3546    -3546 
   -3546    -3549    -3549    -3547    -3547    -3549    -3547    -3547 
   -3550    -3550    -3549    -3549    -3549    -3547    -3549    -3547 
   -3543    -3546    -3550    -3549    -3549    -3550    -3550    -3549 
   -3547    -3547    -3546    -3547    -3547    -3549    -3550    -3547 
   -3546    -3549    -3551    -3550    -3547    -3546    -3547    -3550 
   -3551    -3547    -3547    -3549    -3547    -3546    -3549    -3547 
   -3546    -3547    -3547    -3546    -3547    -3547    -3547    -3545 
   -3545    -3547    -3549    -3547    -3549    -3550    -3549    -3547 
   -3546    -3547    -3550    -3550    -3549    -3550    -3550    -3547 
   -3550    -3549    -3546    -3549    -3550    -3546    -3547    -3549 
   -3549    -3549    -3547    -3547    -3549    -3549    -3549    -3549 
   -3549    -3546    -3545    -3549    -3549    -3546    -3546    -3549 
   -3549    -3550    -3547    -3545    -3545    -3547    -3549    -3547 
   -3547    -3547    -3547    -3547    -3549    -3547    -3547    -3547 
   -3547    -3549    -3553    -3550    -3546    -3547    -3550    -3549 
   -3547    -3549    -3549    -3547    -3550    -3550    -3549    -3549 
   -3550    -3547    -3549    -3549    -3545    -3546    -3550    -3550 
   -3547    -3546    -3547    -3549    -3549    -3549    -3546    -3547 
   -3550    -3549    -3549    -3550    -3549    -3549    -3549    -3547 
   -3549    -3549    -3547    -3547    -3551    -3550    -3547    -3547 
   -3550    -3550    -3549    -3547    -3547    -3549    -3547    -3546 
   -3547    -3547    -3549    -3550    -3547    -3547    -3549    -3549 
   -3549    -3547    -3549    -3551    -3546    -3542    -3546    -3547 
   -3545    -3549    -3550    -3547    -3549    -3549    -3547    -3547 
   -3550    -3550    -3547    -3550    -3550    -3547    -3547    -3550 
   -3549    -3545    -3545    -3547    -3547    -3547    -3547    -3545 
   -3545    -3549    -3550    -3546    -3546    -3549    -3549    -3547 
   -3547    -3547    -3546    -3549    -3549    -3546    -3547    -3549 
   -3549    -3547    -3547    -3549    -3549    -3547    -3549    -3547 
   -3549    -3550    -3547    -3547    -3549    -3547    -3546    -3549 
   -3550    -3546    -3545    -3547    -3547    -3549    -3550    -3546 
   -3546    -3550    -3550    -3549    -3547    -3549    -3549    -3546 
   -3547    -3550    -3550    -3547    -3543    -3542    -3546    -3549 
   -3551    -3551    -3547    -3545    -3545    -3547    -3549    -3551 
   -3551    -3549    -3546    -3545    -3547    -3551    -3550    -3547 
   -3545    -3546    -3547    -3547    -3549    -3549    -3547    -3546 
   -3546    -3547    -3546    -3546    -3553    -3551    -3545    -3547 
   -3549    -3547    -3550    -3550    -3547    -3549    -3546    -3543 
   -3547    -3553    -3551    -3547    -3547    -3549    -3549    -3549 
   -3547    -3546    -3550    -3550    -3547    -3550    -3550    -3549 
   -3550    -3550    -3549    -3549    -3550    -3547    -3546    -3546 
   -3547    -3549    -3546    -3547    -3551    -3550    -3547    -3547 
   -3549    -3550    -3550    -3547    -3547    -3550    -3550    -3549 
   -3547    -3549    -3549    -3546    -3549    -3551    -3549    -3549 
   -3549    -3549    -3547    -3547    -3550    -3547    -3543    -3546 
   -3550    -3547    -3547    -3550    -3549    -3546    -3547    -3550 
   -3550    -3549    -3547    -3547    -3547    -3547    -3547    -3550 
   -3550    -3549    -3546    -3547    -3549    -3549    -3549    -3547 
   -3547    -3549    -3547    -3549    -3549    -3547    -3549    -3549 
   -3545    -3545    -3547    -3549    -3550    -3549    -3549    -3549 
   -3549    -3549    -3547    -3547    -3549    -3549    -3546    -3547 
   -3550    -3549    -3546    -3546    -3549    -3549    -3546    -3547 
   -3549    -3549    -3547    -3547    -3549    -3547    -3547    -3549 
   -3549    -3547    -3547    -3547    -3547    -3547    -3549    -3549 
   -3549    -3547    -3546    -3549    -3549    -3547    -3547    -3547 
   -3549    -3549    -3547    -3546    -3546    -3547    -3547    -3546 
   -3546    -3547    -3549    -3549    -3547    -3549    -3549    -3547 
   -3547    -3550    -3550    -3547    -3545    -3546    -3550    -3551 
   -3549    -3547    -3547    -3549    -3547    -3545    -3546    -3550 
   -3550    -3550    -3549    -3545    -3543    -3543    -3543    -3543 
   -3537    -3535    -3554    -3545    -3534    -3615    -3658    -3549 
   -3477    -3484    -3362    -3226    -3453    -3963    -4234    -4070 
   -3543    -2755    -2424    -3121    -3960    -4039    -3825    -3924 
   -4302    -4410    -3441    -1876    -1436    -2705    -4648    -5637 
   -4833    -3385    -2776    -2937    -3299    -3550    -3553    -3619 
   -3987    -4131    -3541    -2749    -2465    -2794    -3743    -4731 
   -4841    -4299    -3674    -2913    -2358    -2573    -3415    -4340 
   -4665    -3889    -2755    -2613    -3338    -3804    -3856    -3947 
   -4104    -4113    -3591    -2597    -2174    -2872    -4025    -4785 
   -4495    -3454    -2833    -2818    -3022    -3547    -4175    -4552 
   -4545    -3808    -2601    -2019    -2631    -3855    -4569    -4271 
   -3574    -3292    -3380    -3350    -3368    -3730    -4027    -3852 
   -3272    -2802    -3122    -4014    -4445    -3942    -3028    -2683 
   -3329    -4117    -4052    -3424    -3160    -3546    -4055    -3856 
   -2975    -2617    -3281    -3987    -4087    -3881    -3688    -3531 
   -3334    -3121    -3130    -3519    -4035    -4210    -3879    -3365 
   -3060    -3072    -3335    -3727    -4060    -4060    -3572    -2971 
   -2856    -3356    -4010    -4239    -3939    -3450    -3033    -2925 
   -3302    -3865    -4141    -4027    -3626    -3134    -2922    -3177 
   -3640    -3997    -4091    -3862    -3420    -3073    -3144    -3546 
   -3874    -3855    -3508    -3277    -3443    -3600    -3478    -3299 
   -3352    -3782    -4228    -4037    -3211    -2562    -2803    -3670 
   -4297    -4302    -3916    -3511    -3208    -2933    -2934    -3501 
   -4247    -4441    -3819    -2922    -2660    -3227    -3912    -4105 
   -3797    -3385    -3346    -3581    -3496    -3126    -3141    -3740 
   -4472    -4614    -3717    -2502    -2257    -3117    -4179    -4630 
   -4168    -3287    -2839    -3015    -3381    -3672    -3908    -4016 
   -3861    -3453    -3096    -3190    -3565    -3689    -3551    -3522 
   -3724    -3893    -3665    -3198    -3065    -3318    -3619    -3861 
   -3944    -3735    -3404    -3194    -3171    -3431    -3851    -3910 
   -3504    -3190    -3348    -3775    -4017    -3836    -3420    -3171 
   -3296    -3676    -3983    -3889    -3383    -2937    -3032    -3565 
   -4016    -3982    -3554    -3322    -3519    -3715    -3646    -3422 
   -3281    -3412    -3613    -3661    -3704    -3778    -3684    -3426 
   -3204    -3177    -3400    -3748    -3927    -3796    -3550    -3416 
   -3389    -3353    -3393    -3630    -3842    -3823    -3613    -3283 
   -3149    -3499    -3904    -3852    -3470    -3219    -3424    -3865 
   -3854    -3283    -2928    -3281    -3942    -4218    -3804    -3172 
   -3106    -3554    -3843    -3755    -3504    -3356    -3495    -3730 
   -3726    -3499    -3250    -3200    -3518    -3925    -3954    -3658 
   -3341    -3118    -3157    -3470    -3781    -3952    -3924    -3640 
   -3350    -3327    -3445    -3489    -3524    -3635    -3743    -3721 
   -3492    -3188    -3090    -3285    -3659    -4010    -4062    -3777 
   -3416    -3226    -3302    -3522    -3622    -3647    -3747    -3724 
   -3485    -3262    -3210    -3318    -3572    -3882    -4032    -3883 
   -3527    -3218    -3199    -3364    -3423    -3445    -3634    -3786 
   -3531    -2994    -2677    -2893    -3558    -4153    -4199    -3663 
   -2700    -1815    -1871    -3173    -5119    -6496    -6262    -4622 
   -3026    -2906    -4089    -4930    -4639    -3977    -3537    -3119 
   -2401    -1490     -923    -1235    -2871    -5537    -7303    -6196 
   -2759      225      334    -2569    -6488    -8644    -7184    -2843 
    1175     1811    -1360    -6004    -8869    -8133    -4522     -476 
    1440      157    -3153    -6242    -7213    -5391    -2215     -267 
    -858    -3345    -5879    -6581    -5270    -3496    -2532    -2581 
   -3240    -3793    -3939    -3924    -3724    -3175    -2628    -2709 
   -3532    -4376    -4553    -4220    -3755    -3157    -2508    -2300 
   -2930    -4109    -4899    -4477    -3059    -1800    -1725    -2948 
   -4656    -5644    -5260    -3962    -2810    -2596    -3246    -3913 
   -3929    -3427    -2917    -2767    -2957    -3331    -3910    -4471 
   -4449    -3663    -2627    -2170    -2782    -4063    -5009    -4986 
   -4247    -3364    -2674    -2388    -2582    -3091    -3688    -4170 
   -4364    -4191    -3646    -3038    -2913    -3392    -4036    -4306 
   -3966    -3292    -2848    -2933    -3352    -3689    -3790    -3919 
   -4248    -4418    -4006    -3196    -2635    -2713    -3221    -3730 
   -4036    -4124    -4002    -3657    -3195    -3010    -3365    -3900 
   -4039    -3688    -3177    -2859    -2921    -3284    -3686    -3906 
   -3766    -3321    -3057    -3306    -3782    -3996    -3757    -3342 
   -3204    -3476    -3888    -4059    -4017    -4029    -3862    -3246 
   -2621    -2546    -3114    -3855    -4070    -3704    -3303    -3196 
   -3360    -3738    -4155    -4233    -3824    -3250    -2957    -3136 
   -3595    -4010    -4225    -4077    -3520    -2930    -2722    -3009 
   -3601    -4089    -4190    -3915    -3407    -3019    -3121    -3619 
   -4035    -3983    -3518    -3106    -3141    -3537    -3888    -3932 
   -3734    -3487    -3294    -3204    -3314    -3578    -3792    -3780 
   -3461    -3099    -3094    -3396    -3699    -3820    -3730    -3613 
   -3662    -3777    -3774    -3649    -3478    -3308    -3222    -3281 
   -3526    -3916    -4081    -3777    -3356    -3207    -3402    -3753 
   -3960    -3936    -3766    -3456    -3063    -2901    -3227    -3848 
   -4280    -4131    -3429    -2733    -2650    -3246    -4056    -4432 
   -4110    -3445    -2947    -2832    -3030    -3426    -3917    -4240 
   -4117    -3585    -3045    -2986    -3437    -3902    -4005    -3789 
   -3454    -3194    -3150    -3376    -3771    -4017    -3817    -3275 
   -2843    -2902    -3400    -3924    -4068    -3812    -3441    -3231 
   -3295    -3503    -3674    -3828    -3966    -3897    -3507    -3046 
   -2917    -3250    -3786    -4106    -4017    -3689    -3377    -3265 
   -3438    -3717    -3813    -3721    -3595    -3469    -3418    -3518 
   -3635    -3666    -3622    -3510    -3441    -3491    -3559    -3628 
   -3719    -3746    -3682    -3568    -3372    -3176    -3183    -3429 
   -3720    -3805    -3616    -3314    -3092    -3137    -3466    -3842 
   -4097    -4162    -3906    -3403    -2968    -2895    -3261    -3784 
   -4052    -3986    -3738    -3423    -3230    -3294    -3492    -3632 
   -3601    -3438    -3376    -3532    -3689    -3607    -3383    -3315 
   -3531    -3812    -3827    -3580    -3373    -3393    -3603    -3798 
   -3789    -3626    -3472    -3403    -3379    -3335    -3337    -3488 
   -3744    -3904    -3750    -3396    -3252    -3481    -3835    -3967 
   -3751    -3372    -3123    -3114    -3284    -3545    -3782    -3870 
   -3746    -3477    -3241    -3173    -3350    -3758    -4164    -4241 
   -3929    -3464    -3140    -3141    -3387    -3615    -3674    -3622 
   -3562    -3499    -3392    -3265    -3281    -3539    -3777    -3708 
   -3504    -3487    -3669    -3771    -3626    -3415    -3426    -3680 
   -3873    -3739    -3418    -3250    -3368    -3624    -3777    -3688 
   -3454    -3269    -3269    -3458    -3663    -3732    -3667    -3495 
   -3338    -3342    -3420    -3511    -3657    -3723    -3561    -3289 
   -3171    -3366    -3712    -3866    -3719    -3505    -3480    -3595 
   -3646    -3596    -3542    -3580    -3731    -3856    -3757    -3454 
   -3195    -3222    -3483    -3662    -3646    -3557    -3473    -3465 
   -3604    -3792    -3842    -3716    -3491    -3303    -3361    -3604 
   -3738    -3724    -3631    -3474    -3380    -3391    -3457    -3619 
   -3835    -3928    -3784    -3473    -3241    -3279    -3485    -3581 
   -3505    -3439    -3473    -3553    -3565    -3457    -3366    -3375 
   -3383    -3441    -3616    -3781    -3840    -3762    -3561    -3399 
   -3362    -3389    -3450    -3520    -3524    -3480    -3476    -3503 
   -3489    -3503    -3634    -3816    -3916    -3838    -3593    -3365 
   -3323    -3469    -3667    -3719    -3572    -3443    -3483    -3622 
   -3753    -3713    -3491    -3349    -3402    -3499    -3584    -3663 
   -3655    -3549    -3484    -3553    -3705    -3784    -3635    -3350 
   -3204    -3288    -3472    -3612    -3630    -3549    -3464    -3464 
   -3558    -3653    -3643    -3543    -3445    -3424    -3514    -3665 
   -3739    -3669    -3547    -3443    -3368    -3375    -3488    -3643 
   -3746    -3742    -3623    -3423    -3272    -3337    -3558    -3724 
   -3757    -3697    -3612    -3541    -3465    -3406    -3460    -3631 
   -3802    -3843    -3661    -3339    -3125    -3199    -3508    -3816 
   -3902    -3738    -3466    -3303    -3345    -3510    -3661    -3678 
   -3549    -3426    -3400    -3410    -3449    -3530    -3603    -3622 
   -3577    -3488    -3449    -3535    -3665    -3716    -3696    -3634 
   -3558    -3508    -3483    -3537    -3680    -3727    -3582    -3402 
   -3333    -3402    -3596    -3793    -3823    -3667    -3407    -3211 
   -3269    -3542    -3840    -3959    -3748    -3369    -3159    -3235 
   -3505    -3789    -3865    -3699    -3504    -3403    -3348    -3339 
   -3420    -3582    -3734    -3724    -3559    -3415    -3395    -3468 
   -3555    -3599    -3608    -3608    -3623    -3655    -3645    -3582 
   -3537    -3501    -3442    -3423    -3542    -3713    -3746    -3597 
