Origin Time       2025/02/01 08:16:00
Lat.              33.667
Long.             130.927
Depth. (km)       8
Mag.              3.1
Station Code      FKO003
Station Lat.      33.8324
Station Long.     130.9013
Station Height(m) 14
Record Time       2025/02/01 08:17:00
Sampling Freq(Hz) 100Hz
Duration Time(s)  60
Dir.              U-D
Scale Factor      7845(gal)/8223790
Max. Acc. (gal)   11.196
Last Correction   2025/02/01 08:17:00
Memo.             
[...]
  -10365   -10369   -10366   -10359   -10365   -10376   -10373   -10363 
  -10355   -10349   -10353   -10361   -10363   -10362   -10363   -10366 
  -10365   -10363   -10366   -10372   -10372   -10361   -10355   -10362 
  -10366   -10369   -10372   -10366   -10359   -10362   -10365   -10366 
  -10366   -10366   -10362   -10355   -10358   -10362   -10365   -10369 
  -10370   -10369   -10368   -10366   -10365   -10363   -10363   -10365 
  -10366   -10362   -10361   -10362   -10361   -10363   -10369   -10368 
  -10363   -10365   -10368   -10365   -10362   -10363   -10362   -10359 
  -10361   -10362   -10363   -10365   -10365   -10363   -10368   -10373 
  -10369   -10363   -10365   -10363   -10361   -10361   -10358   -10357 
  -10362   -10363   -10361   -10365   -10369   -10366   -10366   -10368 
  -10368   -10369   -10368   -10361   -10361   -10368   -10366   -10362 
  -10361   -10362   -10363   -10365   -10366   -10370   -10370   -10361 
  -10354   -10357   -10361   -10369   -10373   -10368   -10365   -10366 
  -10368   -10369   -10366   -10363   -10362   -10361   -10358   -10359 
  -10363   -10363   -10361   -10362   -10362   -10362   -10365   -10372 
  -10374   -10373   -10368   -10363   -10359   -10362   -10366   -10363 
  -10362   -10365   -10363   -10361   -10363   -10368   -10369   -10362 
  -10357   -10357   -10361   -10365   -10368   -10365   -10362   -10362 
  -10365   -10366   -10368   -10366   -10363   -10368   -10368   -10361 
  -10361   -10368   -10368   -10366   -10365   -10361   -10359   -10361 
  -10363   -10363   -10362   -10362   -10363   -10366   -10368   -10370 
  -10369   -10366   -10368   -10366   -10365   -10362   -10359   -10354 
  -10354   -10358   -10365   -10370   -10369   -10365   -10366   -10369 
  -10370   -10366   -10361   -10361   -10362   -10363   -10363   -10359 
  -10361   -10366   -10366   -10362   -10363   -10368   -10366   -10361 
  -10361   -10368   -10366   -10359   -10358   -10358   -10357   -10365 
  -10370   -10369   -10366   -10362   -10358   -10365   -10368   -10361 
  -10357   -10361   -10365   -10368   -10368   -10368   -10366   -10366 
  -10368   -10366   -10363   -10361   -10363   -10362   -10357   -10354 
  -10361   -10365   -10366   -10368   -10365   -10368   -10372   -10372 
  -10368   -10363   -10357   -10353   -10355   -10361   -10361   -10362 
  -10366   -10369   -10369   -10365   -10361   -10363   -10365   -10363 
  -10363   -10362   -10361   -10365   -10365   -10365   -10369   -10369 
  -10369   -10368   -10361   -10361   -10363   -10363   -10361   -10358 
  -10362   -10362   -10359   -10363   -10368   -10365   -10363   -10362 
  -10361   -10361   -10368   -10372   -10365   -10361   -10366   -10366 
  -10365   -10368   -10366   -10365   -10366   -10358   -10355   -10361 
  -10363   -10363   -10359   -10357   -10362   -10365   -10363   -10365 
  -10365   -10365   -10369   -10369   -10366   -10365   -10363   -10361 
  -10361   -10366   -10370   -10366   -10362   -10363   -10365   -10365 
  -10362   -10361   -10361   -10362   -10365   -10369   -10368   -10363 
  -10359   -10361   -10363   -10361   -10357   -10361   -10368   -10370 
  -10370   -10368   -10366   -10366   -10363   -10361   -10361   -10363 
  -10362   -10361   -10363   -10361   -10359   -10362   -10365   -10368 
  -10368   -10366   -10365   -10361   -10357   -10361   -10366   -10368 
  -10369   -10369   -10365   -10365   -10369   -10366   -10366   -10366 
  -10361   -10355   -10359   -10363   -10365   -10368   -10369   -10365 
  -10359   -10358   -10361   -10365   -10365   -10361   -10362   -10368 
  -10365   -10359   -10363   -10370   -10368   -10366   -10368   -10363 
  -10363   -10366   -10363   -10361   -10358   -10357   -10362   -10368 
  -10368   -10366   -10365   -10365   -10363   -10361   -10361   -10366 
  -10370   -10368   -10365   -10365   -10363   -10365   -10366   -10362 
  -10361   -10363   -10365   -10359   -10357   -10361   -10365   -10368 
  -10370   -10372   -10370   -10368   -10365   -10361   -10357   -10355 
  -10357   -10359   -10365   -10369   -10368   -10369   -10369   -10365 
  -10363   -10368   -10366   -10362   -10362   -10362   -10358   -10357 
  -10359   -10363   -10363   -10359   -10359   -10363   -10368   -10369 
  -10372   -10372   -10366   -10363   -10362   -10357   -10357   -10362 
  -10362   -10359   -10359   -10361   -10362   -10366   -10370   -10372 
  -10369   -10366   -10365   -10361   -10363   -10368   -10359   -10351 
  -10354   -10359   -10362   -10365   -10369   -10370   -10366   -10363 
  -10365   -10366   -10363   -10359   -10357   -10359   -10365   -10365 
  -10362   -10362   -10365   -10368   -10366   -10363   -10362   -10362 
  -10365   -10370   -10372   -10365   -10359   -10359   -10362   -10366 
  -10362   -10357   -10361   -10368   -10365   -10361   -10363   -10366 
  -10365   -10358   -10357   -10368   -10373   -10370   -10363   -10355 
  -10358   -10363   -10363   -10365   -10368   -10362   -10358   -10362 
  -10365   -10365   -10369   -10369   -10363   -10359   -10361   -10358 
  -10358   -10365   -10366   -10363   -10363   -10368   -10368   -10363 
  -10363   -10365   -10366   -10366   -10362   -10358   -10361   -10363 
  -10368   -10369   -10366   -10362   -10363   -10363   -10365   -10366 
  -10362   -10358   -10362   -10365   -10365   -10365   -10362   -10361 
  -10365   -10373   -10374   -10370   -10366   -10361   -10354   -10358 
  -10363   -10365   -10368   -10369   -10369   -10366   -10365   -10363 
  -10361   -10357   -10355   -10355   -10359   -10366   -10368   -10369 
  -10369   -10365   -10363   -10363   -10365   -10365   -10362   -10365 
  -10369   -10366   -10361   -10362   -10363   -10359   -10359   -10359 
  -10359   -10366   -10372   -10373   -10372   -10369   -10365   -10359 
  -10355   -10355   -10358   -10359   -10362   -10368   -10372   -10372 
  -10372   -10373   -10372   -10368   -10357   -10353   -10358   -10362 
  -10362   -10365   -10368   -10369   -10368   -10366   -10363   -10363 
  -10363   -10357   -10355   -10361   -10365   -10366   -10365   -10363 
  -10368   -10369   -10369   -10366   -10361   -10359   -10359   -10358 
  -10359   -10362   -10365   -10365   -10366   -10370   -10373   -10369 
  -10363   -10362   -10362   -10358   -10357   -10361   -10365   -10366 
  -10365   -10363   -10363   -10365   -10366   -10369   -10372   -10373 
  -10366   -10355   -10353   -10357   -10362   -10368   -10370   -10369 
  -10366   -10363   -10362   -10362   -10361   -10363   -10363   -10361 
  -10362   -10365   -10365   -10366   -10366   -10365   -10365   -10368 
  -10369   -10363   -10358   -10358   -10358   -10361   -10370   -10373 
  -10372   -10372   -10369   -10366   -10363   -10365   -10363   -10357 
  -10357   -10357   -10351   -10357   -10369   -10374   -10373   -10369 
  -10362   -10358   -10363   -10366   -10365   -10363   -10366   -10369 
  -10363   -10358   -10359   -10361   -10361   -10365   -10370   -10373 
  -10372   -10365   -10359   -10359   -10357   -10354   -10358   -10365 
  -10369   -10370   -10366   -10363   -10363   -10359   -10361   -10368 
  -10366   -10358   -10358   -10361   -10366   -10374   -10374   -10368 
  -10368   -10369   -10369   -10365   -10357   -10355   -10358   -10359 
  -10361   -10362   -10366   -10366   -10363   -10366   -10368   -10365 
  -10362   -10361   -10362   -10368   -10363   -10358   -10363   -10368 
  -10365   -10362   -10365   -10366   -10366   -10369   -10368   -10363 
  -10366   -10365   -10359   -10361   -10366   -10366   -10365   -10366 
  -10366   -10365   -10359   -10359   -10358   -10361   -10366   -10368 
  -10369   -10370   -10366   -10365   -10366   -10363   -10365   -10365 
  -10359   -10359   -10366   -10365   -10359   -10358   -10361   -10363 
  -10366   -10368   -10366   -10366   -10363   -10359   -10359   -10362 
  -10362   -10362   -10362   -10366   -10370   -10366   -10362   -10366 
  -10368   -10363   -10358   -10355   -10357   -10361   -10363   -10362 
  -10366   -10369   -10365   -10361   -10357   -10357   -10362   -10363 
  -10362   -10369   -10377   -10372   -10363   -10359   -10361   -10362 
  -10359   -10357   -10357   -10359   -10361   -10361   -10361   -10366 
  -10369   -10365   -10362   -10362   -10358   -10357   -10362   -10368 
  -10368   -10366   -10368   -10372   -10368   -10358   -10358   -10363 
  -10362   -10361   -10366   -10366   -10359   -10357   -10358   -10363 
  -10366   -10366   -10365   -10363   -10365   -10368   -10366   -10365 
  -10362   -10358   -10354   -10353   -10358   -10365   -10365   -10366 
  -10369   -10370   -10369   -10363   -10354   -10355   -10363   -10365 
  -10363   -10368   -10366   -10359   -10361   -10362   -10358   -10359 
  -10363   -10362   -10358   -10358   -10358   -10359   -10359   -10362 
  -10368   -10373   -10370   -10366   -10363   -10361   -10355   -10350 
  -10354   -10362   -10368   -10365   -10361   -10359   -10358   -10362 
  -10368   -10368   -10362   -10357   -10350   -10353   -10362   -10368 
  -10370   -10372   -10368   -10365   -10361   -10358   -10357   -10361 
  -10365   -10365   -10366   -10369   -10363   -10358   -10358   -10358 
  -10358   -10361   -10366   -10368   -10362   -10358   -10354   -10353 
  -10359   -10363   -10365   -10368   -10365   -10363   -10362   -10357 
  -10358   -10362   -10365   -10365   -10361   -10363   -10370   -10366 
  -10361   -10363   -10363   -10362   -10362   -10357   -10354   -10361 
  -10361   -10355   -10361   -10366   -10362   -10359   -10365   -10365 
  -10362   -10362   -10362   -10359   -10357   -10359   -10363   -10365 
  -10363   -10363   -10362   -10365   -10366   -10361   -10358   -10357 
  -10354   -10359   -10365   -10366   -10369   -10368   -10362   -10361 
  -10359   -10357   -10358   -10362   -10366   -10368   -10366   -10365 
  -10366   -10362   -10359   -10363   -10361   -10357   -10353   -10350 
  -10354   -10365   -10372   -10372   -10368   -10366   -10365   -10358 
  -10353   -10358   -10368   -10373   -10373   -10370   -10362   -10362 
  -10368   -10366   -10361   -10357   -10351   -10349   -10351   -10358 
  -10366   -10369   -10372   -10373   -10368   -10362   -10359   -10355 
  -10354   -10358   -10363   -10365   -10370   -10373   -10369   -10366 
  -10361   -10353   -10351   -10357   -10362   -10366   -10366   -10365 
  -10363   -10365   -10363   -10362   -10365   -10359   -10353   -10354 
  -10359   -10363   -10370   -10370   -10366   -10366   -10366   -10366 
  -10368   -10362   -10357   -10358   -10359   -10362   -10365   -10361 
  -10357   -10357   -10362   -10363   -10358   -10361   -10368   -10365 
  -10361   -10361   -10363   -10363   -10362   -10362   -10365   -10365 
  -10361   -10359   -10358   -10355   -10361   -10365   -10361   -10361 
  -10369   -10369   -10361   -10361   -10365   -10362   -10362   -10365 
  -10362   -10359   -10357   -10351   -10351   -10359   -10368   -10369 
  -10365   -10361   -10361   -10362   -10365   -10363   -10363   -10366 
  -10369   -10363   -10357   -10358   -10363   -10361   -10357   -10355 
  -10357   -10363   -10370   -10370   -10368   -10363   -10359   -10357 
  -10355   -10354   -10361   -10368   -10366   -10369   -10372   -10365 
  -10359   -10361   -10363   -10363   -10363   -10359   -10355   -10358 
  -10358   -10354   -10359   -10365   -10366   -10366   -10363   -10358 
  -10355   -10357   -10361   -10369   -10373   -10365   -10358   -10357 
  -10359   -10363   -10366   -10366   -10365   -10362   -10361   -10361 
  -10358   -10354   -10357   -10363   -10368   -10368   -10366   -10363 
  -10361   -10361   -10359   -10362   -10369   -10366   -10358   -10357 
  -10358   -10361   -10366   -10369   -10368   -10363   -10358   -10361 
  -10366   -10369   -10368   -10363   -10361   -10361   -10359   -10357 
  -10359   -10362   -10359   -10357   -10357   -10357   -10361   -10363 
  -10363   -10369   -10373   -10366   -10361   -10359   -10362   -10370 
  -10372   -10366   -10365   -10365   -10361   -10358   -10358   -10358 
  -10359   -10362   -10365   -10362   -10363   -10365   -10362   -10359 
  -10357   -10357   -10363   -10369   -10366   -10365   -10365   -10363 
  -10363   -10362   -10362   -10363   -10362   -10361   -10362   -10359 
  -10358   -10361   -10361   -10358   -10361   -10365   -10362   -10359 
  -10363   -10362   -10358   -10357   -10359   -10361   -10365   -10366 
  -10362   -10361   -10365   -10368   -10365   -10361   -10361   -10361 
  -10361   -10362   -10366   -10366   -10363   -10357   -10354   -10358 
  -10363   -10363   -10361   -10362   -10365   -10365   -10363   -10363 
  -10365   -10363   -10361   -10358   -10357   -10359   -10362   -10361 
  -10361   -10363   -10368   -10369   -10369   -10365   -10359   -10358 
  -10357   -10358   -10365   -10366   -10365   -10366   -10365   -10363 
  -10362   -10357   -10354   -10355   -10361   -10368   -10368   -10359 
  -10357   -10359   -10366   -10369   -10366   -10365   -10366   -10363 
  -10361   -10361   -10359   -10361   -10362   -10361   -10362   -10366 
  -10365   -10365   -10368   -10366   -10361   -10361   -10361   -10358 
  -10362   -10366   -10363   -10358   -10359   -10358   -10357   -10366 
  -10372   -10368   -10366   -10366   -10361   -10358   -10361   -10361 
  -10359   -10362   -10361   -10361   -10363   -10362   -10357   -10355 
  -10359   -10369   -10372   -10368   -10363   -10359   -10359   -10361 
  -10363   -10362   -10361   -10361   -10362   -10363   -10363   -10362 
  -10365   -10368   -10368   -10362   -10357   -10357   -10359   -10362 
  -10363   -10363   -10361   -10361   -10365   -10365   -10363   -10368 
  -10366   -10355   -10293    -9810    -8064    -6381   -11299   -22100 
  -19673    -2223     1366    -9467   -13622   -12764    -9200    -9421 
  -15703   -11939    -6768    -9772    -9135    -8176   -10192    -9969 
  -12162   -15745   -11396    -4969    -7406   -12735   -13471   -11356 
   -7260    -6635   -12629   -14836   -11659    -8631    -5188    -7611 
  -14224   -13398   -10338   -10650    -9791    -9189    -9038    -9065 
  -11569   -13018   -11404    -9084    -9012   -11306   -11026    -8140 
   -8210   -11570   -13423   -12037   -10079    -8831    -8590   -10039 
  -10868   -10168   -10288   -11013   -11122   -10347    -9720   -10787 
  -11344    -9838    -8926    -9833   -11277   -11508   -10166    -9540 
  -10561   -10713    -9432    -9958   -11592   -10893    -9929   -10095 
  -10150   -11068   -10705    -8712    -9679   -11604   -11338   -10605 
   -9425    -9556   -11352   -10546    -8889    -9809   -11117   -11497 
  -11134    -9968    -9655   -10781   -10840    -9633    -9791   -10577 
  -10517   -10501   -10193   -10008   -10926   -10817    -9628    -9931 
  -10871   -10789   -10388   -10473   -10378    -9967   -10177   -10181 
  -10006   -10694   -10701    -9776    -9944   -11128   -11329   -10200 
   -9512   -10200   -11284   -10725    -9016    -9603   -11740   -11460 
   -9649    -9482   -10550   -11021   -10197    -9250   -10451   -11921 
  -10300    -8861   -10134   -10652   -10378   -10665   -10143   -10355 
  -11321   -10789   -10569   -10586    -9317    -9555   -10744   -10234 
  -10214   -10837   -10511   -10675   -10509    -9192    -9782   -11484 
  -10855    -9945   -10648   -10633    -9639    -9343   -10060   -11402 
  -11996   -10561    -9011    -9814   -10967   -10390    -9849   -10246 
  -10937   -10972    -9844    -9664   -10863   -10794    -9886   -10133 
  -10700   -10714   -10573   -10351   -10045    -9725    -9829   -10589 
  -11032   -10430    -9737   -10220   -11071   -10868   -10162    -9787 
  -10085   -10708   -10728   -10658   -10430   -10010   -10363   -10048 
   -9377   -10833   -12090   -10631    -9107    -9617   -10594   -10606 
  -10218   -10035   -10291   -10932   -10805   -10180   -10465   -10620 
  -10239   -10451   -10816   -11291   -11191    -9698    -8953    -9181 
   -9686   -10613    -9687    -8915   -11214   -12382   -11164   -10729 
  -11097   -10559    -9298    -9526   -10558    -9815    -8802   -10326 
  -12710   -11610    -9022    -9834   -10975    -9890    -9829   -10677 
  -10388    -9925   -10899   -11732   -10551    -9421    -8889    -9147 
  -12386   -14648   -11303    -7078    -6825    -9049   -11997   -13165 
  -10666    -8247    -9018   -11545   -12375   -10435    -9208    -9252 
   -9657   -11462   -12005    -9832    -8564   -10270   -12193   -11144 
   -9771   -10555   -10222    -8792    -9184   -10704   -12420   -12164 
   -9076    -8484   -11331   -12147   -10574    -9609    -9300    -9254 
   -9680   -10432   -11537   -11576    -9973    -9671   -11034   -10994 
   -9612    -9670   -10936   -10589    -9944   -10840   -10305    -8847 
   -9844   -11630   -11834   -10710    -9235    -9028   -10361   -11151 
  -10308    -9517   -10274   -11257   -11182   -10935   -10516    -9815 
   -9950    -9865    -9217   -10353   -11853   -11160   -10239   -10301 
  -10494   -10361    -9211    -9035   -11230   -12083   -10625   -10045 
  -10477   -10230    -9015    -8440   -10744   -13371   -12037    -8958 
   -8085    -9710   -11940   -11541    -9046    -9080   -11238   -11529 
  -10740   -10658    -9644    -8997   -10882   -11074    -8920   -10255 
  -12787   -10785    -8560   -10416   -11520    -9865    -9367    -9879 
  -10651   -11908   -10643    -8729    -9918   -11036   -10493   -10561 
  -10836   -10309    -9850   -10129   -11065   -11252    -9663    -8662 
   -9900   -11469   -11380   -10309    -9919   -10231   -10567   -10328 
  -10015   -10458   -10608   -10062    -9645   -10127   -11275   -10898 
   -9747   -10624   -11465   -10210    -9297    -9811   -10434   -10617 
  -10393   -10230   -10559   -11033   -10999   -10359   -10077    -9861 
   -9155    -9876   -11638   -11464   -10015    -9886   -10891   -11117 
   -9902    -8887    -9726   -11140   -11076    -9873    -9477   -10678 
  -11304   -10266    -9842   -10709   -11303   -10539    -8964    -8800 
  -10469   -11762   -11564   -10632    -9891    -9603    -9614   -10227 
  -11171   -11119   -10318   -10185   -10485   -10208    -9684    -9985 
  -10885   -10940   -10551   -10813   -10459    -9502    -9265    -9566 
  -10874   -12132   -11211    -9805    -9549    -9817   -10567   -10944 
  -10318   -10031   -10409   -10362    -9904   -10119   -11003   -11173 
   -9809    -8596   -10134   -12307   -11454    -9913    -9921    -9747 
   -9784   -10737   -10948   -10150    -9760   -10374   -11053   -10963 
  -10396    -9845    -9930   -10477   -10617   -10728   -10694    -9953 
   -9923   -10760   -10581    -9880    -9945   -10376   -10725   -10377 
   -9837   -10295   -10675   -10407   -10219   -10142   -10755   -11556 
  -10739    -9278    -9381   -10415   -10592   -10083   -10247   -10998 
  -11134   -10677   -10319   -10058    -9829    -9859   -10457   -11082 
  -10546    -9594    -9960   -11117   -10984    -9589    -9760   -11276 
  -10710    -9242    -9807   -10829   -10890   -10737   -10307   -10137 
  -10538   -10278   -10143   -10863   -10589    -9857   -10369   -10754 
  -10010    -9433   -10218   -11466   -10962    -9491    -9760   -10824 
  -10466    -9772   -10299   -10829   -10323   -10258   -11024   -10989 
  -10046    -9656   -10239   -10597   -10039    -9833   -10883   -11596 
  -10473    -9238    -9779   -10909   -11098   -10361    -9589    -9860 
  -10781   -10955   -10476   -10120   -10050   -10696   -11200   -10183 
   -9429   -10222   -10638   -10361   -10287   -10142   -10405   -10816 
  -10168    -9429    -9973   -11300   -11736   -10342    -9003    -9787 
