Origin Time       2025/02/01 08:16:00
Lat.              33.667
Long.             130.927
Depth. (km)       8
Mag.              3.1
Station Code      FKO003
Station Lat.      33.8324
Station Long.     130.9013
Station Height(m) 14
Record Time       2025/02/01 08:17:00
Sampling Freq(Hz) 100Hz
Duration Time(s)  60
Dir.              N-S
Scale Factor      7845(gal)/8223790
Max. Acc. (gal)   7.498
Last Correction   2025/02/01 08:17:00
Memo.             
[...]
    2276     2278     2284     2282     2281     2282     2282     2282 
    2281     2281     2277     2276     2274     2276     2277     2268 
    2269     2284     2280     2278     2282     2276     2273     2276 
    2274     2280     2284     2282     2282     2280     2278     2277 
    2272     2272     2278     2284     2289     2282     2278     2280 
    2276     2274     2276     2273     2272     2276     2276     2278 
    2286     2285     2280     2280     2281     2281     2277     2270 
    2269     2272     2277     2278     2278     2281     2284     2277 
    2272     2270     2268     2274     2285     2288     2288     2281 
    2278     2284     2280     2276     2276     2274     2274     2273 
    2280     2289     2284     2280     2280     2272     2274     2282 
    2278     2280     2280     2270     2269     2273     2277     2285 
    2285     2280     2280     2278     2278     2286     2281     2272 
    2273     2274     2277     2284     2280     2276     2276     2274 
    2278     2285     2284     2281     2281     2278     2280     2276 
    2272     2280     2285     2278     2276     2278     2278     2277 
    2280     2278     2276     2276     2270     2272     2280     2281 
    2280     2278     2274     2273     2278     2284     2284     2281 
    2280     2277     2280     2277     2274     2276     2274     2280 
    2285     2282     2288     2288     2278     2276     2276     2272 
    2272     2272     2270     2273     2274     2276     2282     2288 
    2288     2286     2277     2270     2273     2270     2276     2285 
    2281     2281     2281     2274     2276     2276     2278     2284 
    2282     2281     2277     2268     2268     2276     2284     2288 
    2285     2281     2278     2274     2273     2280     2284     2278 
    2278     2280     2282     2288     2282     2276     2277     2274 
    2277     2284     2278     2269     2266     2266     2272     2274 
    2273     2278     2288     2285     2278     2276     2274     2273 
    2280     2293     2297     2290     2288     2286     2277     2268 
    2266     2270     2276     2284     2288     2285     2281     2278 
    2276     2274     2274     2276     2277     2277     2276     2273 
    2270     2277     2282     2278     2277     2278     2278     2280 
    2282     2282     2281     2278     2277     2272     2274     2284 
    2281     2274     2276     2272     2274     2284     2281     2282 
    2285     2282     2278     2269     2269     2273     2277     2282 
    2280     2281     2286     2280     2277     2274     2273     2282 
    2278     2272     2281     2286     2284     2280     2274     2278 
    2286     2284     2274     2273     2274     2273     2274     2281 
    2288     2284     2280     2280     2272     2273     2278     2278 
    2278     2273     2270     2274     2272     2273     2281     2289 
    2292     2284     2278     2280     2284     2288     2285     2274 
    2272     2277     2273     2274     2285     2284     2284     2285 
    2276     2274     2273     2266     2266     2272     2280     2286 
    2284     2282     2280     2284     2282     2274     2274     2273 
    2273     2280     2280     2281     2281     2277     2281     2285 
    2289     2295     2289     2282     2281     2268     2263     2273 
    2274     2277     2280     2281     2282     2281     2281     2278 
    2273     2276     2273     2273     2278     2284     2286     2285 
    2282     2278     2277     2277     2281     2282     2272     2270 
    2276     2277     2282     2281     2274     2276     2280     2280 
    2276     2277     2280     2285     2286     2280     2277     2277 
    2274     2277     2276     2273     2278     2274     2274     2286 
    2285     2282     2285     2277     2272     2276     2282     2280 
    2269     2270     2273     2278     2295     2299     2288     2278 
    2274     2276     2270     2266     2272     2276     2276     2280 
    2284     2284     2280     2278     2274     2274     2281     2274 
    2269     2280     2277     2281     2290     2284     2289     2293 
    2277     2274     2276     2272     2272     2266     2263     2272 
    2278     2285     2290     2290     2284     2274     2270     2273 
    2273     2273     2270     2272     2277     2282     2288     2289 
    2288     2285     2281     2276     2272     2262     2262     2272 
    2277     2284     2293     2296     2289     2281     2280     2278 
    2276     2278     2278     2276     2272     2269     2273     2273 
    2277     2286     2288     2286     2278     2266     2272     2284 
    2284     2278     2272     2268     2276     2282     2282     2278 
    2277     2282     2278     2268     2274     2281     2278     2278 
    2280     2278     2278     2281     2286     2286     2281     2276 
    2270     2274     2285     2285     2280     2273     2272     2277 
    2278     2278     2280     2272     2269     2272     2273     2280 
    2282     2280     2280     2278     2276     2272     2269     2276 
    2278     2277     2280     2281     2281     2280     2285     2286 
    2277     2278     2278     2276     2281     2282     2285     2281 
    2270     2272     2278     2276     2269     2268     2281     2286 
    2284     2278     2273     2274     2272     2269     2277     2282 
    2281     2281     2280     2281     2278     2277     2280     2278 
    2280     2286     2286     2286     2282     2273     2265     2266 
    2274     2276     2274     2282     2286     2292     2290     2278 
    2273     2270     2269     2276     2274     2274     2278     2276 
    2280     2288     2282     2278     2280     2274     2276     2277 
    2273     2276     2278     2276     2278     2280     2278     2278 
    2280     2278     2278     2278     2278     2277     2280     2281 
    2280     2280     2276     2277     2285     2285     2284     2284 
    2272     2269     2276     2277     2284     2284     2270     2270 
    2276     2273     2276     2281     2280     2281     2284     2277 
    2270     2270     2277     2282     2281     2278     2274     2273 
    2277     2280     2280     2282     2284     2281     2280     2280 
    2282     2288     2286     2274     2268     2269     2272     2273 
    2280     2286     2285     2281     2280     2278     2278     2277 
    2274     2273     2273     2272     2276     2280     2284     2284 
    2282     2280     2280     2277     2272     2273     2278     2277 
    2276     2280     2280     2277     2280     2276     2274     2285 
    2285     2281     2280     2272     2273     2282     2281     2280 
    2281     2278     2277     2276     2274     2278     2278     2274 
    2288     2297     2286     2280     2277     2265     2261     2270 
    2281     2285     2281     2278     2278     2273     2269     2272 
    2278     2285     2281     2277     2273     2273     2278     2281 
    2288     2295     2284     2278     2280     2277     2280     2277 
    2265     2272     2284     2281     2281     2284     2274     2270 
    2273     2269     2270     2274     2281     2290     2289     2282 
    2276     2273     2278     2277     2277     2282     2282     2278 
    2276     2277     2280     2277     2272     2273     2276     2276 
    2276     2276     2280     2281     2281     2284     2276     2270 
    2277     2282     2284     2282     2274     2276     2281     2281 
    2282     2280     2276     2274     2273     2272     2272     2277 
    2276     2274     2280     2282     2284     2281     2273     2273 
    2276     2277     2284     2282     2274     2276     2277     2272 
    2272     2270     2269     2281     2289     2286     2290     2292 
    2285     2281     2281     2280     2276     2268     2263     2268 
    2276     2284     2286     2281     2276     2276     2277     2273 
    2265     2272     2284     2289     2284     2274     2270     2270 
    2269     2276     2282     2286     2286     2284     2281     2278 
    2285     2289     2282     2285     2280     2263     2265     2269 
    2273     2282     2281     2282     2284     2269     2261     2265 
    2270     2282     2290     2289     2285     2278     2274     2278 
    2277     2274     2286     2296     2289     2280     2270     2265 
    2269     2274     2280     2281     2280     2281     2280     2274 
    2272     2272     2273     2276     2277     2276     2277     2284 
    2282     2278     2274     2269     2266     2272     2280     2286 
    2286     2285     2286     2280     2277     2282     2288     2290 
    2293     2295     2285     2272     2272     2274     2270     2272 
    2273     2273     2273     2272     2270     2272     2280     2284 
    2278     2280     2282     2282     2278     2266     2269     2281 
    2288     2297     2299     2285     2284     2285     2278     2276 
    2273     2272     2278     2278     2274     2272     2270     2277 
    2280     2276     2284     2290     2284     2274     2268     2270 
    2277     2274     2277     2282     2284     2284     2282     2278 
    2278     2286     2288     2274     2268     2274     2284     2289 
    2282     2273     2278     2280     2270     2270     2276     2274 
    2280     2284     2276     2274     2292     2290     2272     2269 
    2280     2284     2281     2285     2285     2281     2288     2290 
    2280     2272     2266     2265     2270     2272     2278     2282 
    2273     2277     2284     2284     2285     2281     2276     2273 
    2273     2277     2276     2278     2289     2290     2292     2288 
    2277     2278     2274     2262     2272     2285     2280     2274 
    2266     2266     2282     2282     2274     2276     2278     2284 
    2289     2295     2292     2286     2286     2282     2274     2266 
    2268     2276     2278     2276     2281     2284     2281     2276 
    2272     2265     2259     2269     2280     2284     2285     2282 
    2281     2278     2280     2285     2284     2286     2295     2288 
    2281     2274     2268     2277     2284     2281     2288     2285 
    2269     2262     2265     2265     2272     2286     2290     2281 
    2277     2277     2273     2276     2280     2277     2278     2282 
    2285     2284     2284     2284     2281     2277     2276     2280 
    2286     2289     2282     2277     2278     2273     2270     2274 
    2274     2272     2270     2269     2272     2276     2282     2289 
    2286     2277     2270     2268     2273     2281     2286     2290 
    2289     2284     2276     2274     2280     2281     2282     2278 
    2272     2272     2281     2284     2282     2286     2284     2276 
    2274     2270     2270     2277     2276     2270     2269     2270 
    2274     2280     2282     2286     2288     2288     2285     2272 
    2273     2277     2268     2280     2290     2281     2289     2292 
    2280     2273     2269     2273     2278     2272     2277     2282 
    2277     2277     2272     2274     2284     2284     2276     2268 
    2272     2281     2281     2280     2281     2280     2280     2284 
    2280     2274     2280     2281     2278     2282     2280     2273 
    2280     2285     2278     2278     2277     2276     2278     2272 
    2274     2289     2292     2288     2281     2274     2277     2278 
    2276     2273     2274     2280     2284     2285     2285     2280 
    2270     2269     2272     2270     2278     2290     2288     2274 
    2269     2272     2276     2288     2293     2288     2281     2277 
    2273     2265     2263     2273     2281     2289     2297     2292 
    2280     2272     2268     2272     2270     2273     2288     2293 
    2289     2288     2278     2270     2273     2273     2277     2285 
    2281     2278     2280     2270     2263     2268     2276     2284 
    2289     2290     2285     2278     2273     2269     2272     2277 
    2282     2284     2282     2282     2277     2274     2272     2269 
    2273     2277     2278     2282     2284     2281     2277     2276 
    2280     2282     2285     2288     2285     2280     2274     2265 
    2269     2282     2288     2288     2278     2269     2269     2272 
    2278     2280     2281     2289     2288     2281     2282     2280 
    2278     2281     2276     2266     2268     2277     2285     2281 
    2273     2277     2277     2276     2278     2282     2286     2292 
    2288     2274     2266     2265     2269     2280     2285     2285 
    2288     2285     2280     2277     2278     2281     2277     2273 
    2276     2278     2288     2286     2272     2270     2270     2276 
    2292     2292     2284     2281     2273     2266     2266     2268 
    2274     2285     2288     2284     2276     2272     2273     2273 
    2277     2281     2282     2288     2286     2277     2277     2274 
    2273     2281     2281     2284     2288     2286     2282     2277 
    2276     2278     2274     2274     2273     2272     2273     2280 
    2288     2285     2280     2281     2277     2274     2272     2268 
    2268     2273     2277     2282     2290     2295     2289     2281 
    2277     2277     2278     2278     2277     2277     2273     2269 
    2274     2285     2286     2281     2277     2274     2277     2280 
    2278     2278     2276     2270     2273     2277     2278     2290 
    2297     2290     2280     2295     2382     2376     1926     1991 
    4032     3943    -2189    -3157     7182    10139      966    -1787 
    2817     4468     2235     -490      351     2374     1464      942 
    3518     4887     2093      264      950     2385     5297     5053 
    2485     1476     -750     1112     5454     2165    -1074     2079 
    5204     5113     2710      525     -646      244     4116     4672 
    1426     1667     2344     1177     2623     3971     3543     2848 
    1652     1784     2307     1470      812     1317     2577     2940 
    2670     3034     3036     2856     2413     1763     2099     1270 
     463     2614     3443     2158     2594     3088     1865      967 
    1941     3199     2455     1305     2128     3342     2421     1458 
    3118     4016     2527     1680     1746     2007     2282     1869 
    1609     2103     2425     2674     3111     2435     1529     2477 
    3060     1782     1370     2344     2953     2683     1749     1489 
    2527     3065     2646     2616     2787     2447     1721      946 
     989     2158     2883     2309     2309     2968     2014     1507 
    3149     3175     2083     2836     2737     1360     1791     2455 
    1262     1112     3298     3963     2288     1602     2385     2987 
    2434     1341     1529     2587     2756     2030     1811     2729 
    3227     2307     1371     1846     2681     2300     2340     2909 
    1935     1694     2872     2463     1815     2393     2367     2394 
    2917     2272     1680     2249     2408     1977     1814     2031 
    2309     2223     2126     2683     3134     2288     1741     2775 
    3009     1987     1680     1769     2053     3065     2902     1285 
    1381     2758     2690     2263     2555     2342     1784     1791 
    2177     2542     2531     2299     2347     2303     2295     2731 
    2587     2000     1939     1946     2069     2562     2628     2150 
    1965     2319     2860     2781     2093     1927     2026     2285 
    2617     2076     1957     2632     2250     1502     2154     3154 
    2731     2043     2255     2170     2168     2857     2277     1109 
    2019     3200     2764     2304     2020     1509     1522     2089 
    2690     2752     2627     2215      916     1224     4256     5782 
    3100      198     1780     4453     1973    -2772    -1611     3581 
    4598     3994     5038     2978      353     1806     3460     2496 
    1687     2737     2042     -517      650     3584     3248     2106 
    3072     3960     2673     1649      864     -407     2377     5512 
    1877    -2682    -1368     3342     7711    10008     6727     -938 
   -4005     -211     3790     3300      913     1074     2084     3588 
    4631     2010      923     2359     2205     2829     3430     1304 
    -642     1898     5834     3886      264     1150     1723      306 
    1339     4311     4846     2153      735     2405     3437     2378 
    1529     2748     4203     3221     1710     1139      664     1502 
    2717     2525     2552     2300     1470     2562     4043     3295 
    1741     1062     1108     1552     2594     3443     2714     1649 
    2261     3241     2605     1335     1734     3071     2326     1165 
    2293     2350      904     2056     3366     2511     2554     2824 
    2601     3161     2662     1377     1593     2902     3591     2103 
    -148      406     3119     4455     3786     1925     -330       40 
    3801     4951     1844     1506     3422     2172     1196     2855 
    3214     1942     1921     2605     2300     1830     1111      824 
    3036     4737     3146     1011      560     2050     3577     3192 
    2755     2323      895     1263     3249     3018     1117     1300 
    3192     3034     1406     1868     3165     2473     1452     2064 
    2632     1962     2142     3252     2786     2157     2668     2374 
    2030     2582     2836     2610     1980     1231     1024     1744 
    3052     3264     2097     1698     2610     3165     2578     1695 
    1668     2500     3299     3199     1746      145      733     3219 
    4010     2147      938     1926     3068     2552     1775     2301 
    2505     2303     3122     3299     1971      985     1162     1914 
    3018     4453     4364     1355     -951      724     2971     3110 
    3589     4040     2184      465     1166     2393     2682     2762 
    2907     2397     1524     1325     2101     2983     2975     2863 
    2509     1254     1263     2257     2025     2211     3510     3437 
    2008     1354     1275     1409     2818     4066     3505     2419 
    1456     1066     1933     2756     2783     2247     1367     1359 
    2367     3169     3392     2805     1509     1471     3400     4071 
    2188     1036     1410     1347     1594     2794     3073     1961 
    1224     2311     3747     3154     1867     1385     1102     1873 
    3177     2616     1746     2691     3358     2951     2803     2403 
    1632     1275     1418     2123     2781     2656     2169     1988 
    2212     2334     2315     2694     2781     1996     1891     2898 
    3011     1946     1678     2682     3032     2249     1856     1674 
    1728     2409     1996     1385     2547     3064     2151     2218 
    2458     2135     2957     3589     2373     1485     1918     2212 
    2107     1505      963     2461     3850     2847     2724     3451 
    1962      228      896     2350     2309     1698     2332     3218 
    2577     1749     3142     4993     3813      807       56     1871 
    2617     1549     1509     2700     3321     3281     2921     1927 
    1088     1939     3068     2442     1680     1540     1057     1668 
    3624     4263     3029     1768     1487     1941     2578     2924 
    2236      696      616     2740     4023     2619      908     1695 
    3881     4131     2247      974     1462     2482     2694     1996 
