Origin Time       2025/02/01 08:16:00
Lat.              33.667
Long.             130.927
Depth. (km)       8
Mag.              3.1
Station Code      FKO003
Station Lat.      33.8324
Station Long.     130.9013
Station Height(m) 14
Record Time       2025/02/01 08:17:00
Sampling Freq(Hz) 100Hz
Duration Time(s)  60
Dir.              E-W
Scale Factor      7845(gal)/8223790
Max. Acc. (gal)   7.140
Last Correction   2025/02/01 08:17:00
Memo.             
[...]
  -11921   -11921   -11913   -11917   -11920   -11923   -11927   -11920 
  -11916   -11916   -11915   -11923   -11917   -11911   -11923   -11924 
  -11915   -11917   -11912   -11909   -11912   -11911   -11911   -11917 
  -11920   -11917   -11919   -11924   -11928   -11928   -11924   -11917 
  -11913   -11912   -11916   -11923   -11923   -11920   -11915   -11909 
  -11915   -11919   -11913   -11912   -11916   -11921   -11919   -11915 
  -11920   -11924   -11916   -11920   -11925   -11917   -11909   -11908 
  -11916   -11927   -11920   -11917   -11924   -11917   -11916   -11923 
  -11923   -11920   -11912   -11908   -11917   -11923   -11919   -11919 
  -11925   -11927   -11921   -11916   -11913   -11916   -11915   -11911 
  -11913   -11913   -11912   -11919   -11920   -11925   -11924   -11917 
  -11920   -11916   -11917   -11927   -11920   -11916   -11917   -11913 
  -11915   -11921   -11919   -11909   -11911   -11923   -11928   -11925 
  -11919   -11913   -11915   -11909   -11912   -11928   -11928   -11923 
  -11920   -11921   -11925   -11917   -11908   -11909   -11908   -11911 
  -11913   -11915   -11920   -11925   -11932   -11928   -11921   -11917 
  -11905   -11908   -11921   -11921   -11923   -11923   -11912   -11907 
  -11911   -11908   -11915   -11925   -11925   -11929   -11928   -11915 
  -11911   -11908   -11908   -11913   -11909   -11917   -11932   -11929 
  -11925   -11925   -11917   -11908   -11908   -11913   -11917   -11917 
  -11916   -11911   -11911   -11912   -11917   -11923   -11919   -11916 
  -11920   -11916   -11912   -11919   -11920   -11921   -11924   -11919 
  -11916   -11915   -11913   -11916   -11920   -11924   -11935   -11929 
  -11915   -11912   -11913   -11911   -11912   -11916   -11917   -11921 
  -11923   -11917   -11915   -11913   -11911   -11915   -11919   -11920 
  -11925   -11923   -11917   -11921   -11920   -11912   -11915   -11920 
  -11917   -11915   -11917   -11916   -11913   -11917   -11919   -11919 
  -11915   -11908   -11913   -11921   -11925   -11931   -11921   -11913 
  -11912   -11902   -11909   -11919   -11917   -11924   -11924   -11920 
  -11924   -11913   -11909   -11919   -11921   -11925   -11924   -11916 
  -11917   -11919   -11915   -11915   -11917   -11915   -11912   -11915 
  -11920   -11924   -11917   -11911   -11916   -11917   -11917   -11924 
  -11919   -11911   -11909   -11912   -11916   -11921   -11919   -11917 
  -11921   -11921   -11921   -11919   -11915   -11917   -11921   -11923 
  -11924   -11923   -11921   -11917   -11917   -11921   -11916   -11909 
  -11909   -11912   -11915   -11920   -11923   -11921   -11912   -11909 
  -11919   -11917   -11913   -11919   -11917   -11916   -11924   -11924 
  -11920   -11921   -11917   -11913   -11915   -11915   -11919   -11921 
  -11915   -11911   -11916   -11916   -11916   -11921   -11920   -11916 
  -11915   -11912   -11919   -11932   -11931   -11920   -11915   -11911 
  -11909   -11913   -11916   -11920   -11920   -11913   -11917   -11920 
  -11920   -11921   -11912   -11908   -11911   -11911   -11915   -11913 
  -11908   -11915   -11917   -11919   -11927   -11923   -11915   -11916 
  -11917   -11912   -11912   -11916   -11921   -11928   -11927   -11925 
  -11924   -11917   -11912   -11913   -11916   -11917   -11913   -11911 
  -11909   -11913   -11916   -11913   -11921   -11928   -11923   -11924 
  -11921   -11913   -11916   -11915   -11915   -11923   -11921   -11919 
  -11920   -11917   -11915   -11907   -11909   -11916   -11913   -11920 
  -11919   -11908   -11911   -11908   -11909   -11923   -11928   -11927 
  -11920   -11917   -11920   -11916   -11919   -11919   -11909   -11916 
  -11920   -11912   -11917   -11921   -11919   -11924   -11923   -11917 
  -11917   -11915   -11909   -11913   -11919   -11915   -11912   -11912 
  -11912   -11912   -11915   -11919   -11920   -11919   -11915   -11913 
  -11917   -11917   -11920   -11920   -11915   -11920   -11919   -11915 
  -11924   -11923   -11917   -11921   -11921   -11921   -11928   -11919 
  -11905   -11908   -11908   -11908   -11917   -11919   -11919   -11923 
  -11919   -11913   -11913   -11912   -11912   -11919   -11923   -11923 
  -11921   -11917   -11919   -11928   -11927   -11917   -11917   -11915 
  -11911   -11913   -11915   -11915   -11920   -11924   -11917   -11915 
  -11920   -11919   -11919   -11919   -11913   -11915   -11916   -11917 
  -11923   -11921   -11921   -11924   -11921   -11916   -11915   -11915 
  -11913   -11917   -11919   -11915   -11915   -11919   -11921   -11920 
  -11917   -11916   -11912   -11913   -11917   -11912   -11912   -11919 
  -11915   -11911   -11916   -11921   -11931   -11929   -11921   -11925 
  -11921   -11916   -11923   -11920   -11915   -11916   -11912   -11917 
  -11924   -11919   -11917   -11916   -11912   -11917   -11920   -11912 
  -11916   -11920   -11915   -11916   -11917   -11912   -11917   -11917 
  -11905   -11917   -11925   -11912   -11917   -11920   -11909   -11915 
  -11917   -11913   -11921   -11921   -11917   -11923   -11921   -11919 
  -11919   -11916   -11921   -11924   -11917   -11920   -11919   -11912 
  -11919   -11915   -11904   -11915   -11916   -11911   -11915   -11912 
  -11912   -11919   -11920   -11925   -11927   -11924   -11919   -11915 
  -11916   -11913   -11912   -11921   -11920   -11916   -11916   -11915 
  -11916   -11913   -11907   -11907   -11911   -11920   -11932   -11929 
  -11925   -11920   -11905   -11908   -11923   -11917   -11919   -11927 
  -11921   -11923   -11925   -11917   -11916   -11913   -11912   -11920 
  -11919   -11909   -11907   -11912   -11921   -11925   -11919   -11913 
  -11911   -11908   -11908   -11915   -11923   -11928   -11931   -11931 
  -11928   -11924   -11917   -11909   -11907   -11907   -11913   -11917 
  -11916   -11919   -11921   -11916   -11909   -11909   -11913   -11920 
  -11916   -11913   -11917   -11911   -11912   -11920   -11913   -11919 
  -11928   -11925   -11931   -11929   -11921   -11916   -11908   -11909 
  -11917   -11924   -11929   -11924   -11915   -11912   -11909   -11912 
  -11919   -11916   -11916   -11920   -11913   -11909   -11912   -11911 
  -11916   -11927   -11923   -11923   -11927   -11920   -11915   -11911 
  -11915   -11927   -11924   -11917   -11924   -11923   -11915   -11916 
  -11920   -11919   -11915   -11917   -11921   -11916   -11917   -11921 
  -11917   -11916   -11912   -11905   -11907   -11913   -11917   -11924 
  -11929   -11925   -11923   -11919   -11916   -11919   -11919   -11921 
  -11929   -11929   -11928   -11917   -11905   -11908   -11908   -11909 
  -11920   -11923   -11920   -11916   -11912   -11913   -11911   -11912 
  -11917   -11919   -11927   -11932   -11924   -11917   -11913   -11913 
  -11917   -11919   -11920   -11921   -11920   -11923   -11921   -11912 
  -11911   -11913   -11912   -11921   -11924   -11916   -11916   -11913 
  -11911   -11916   -11923   -11929   -11925   -11916   -11915   -11913 
  -11912   -11915   -11912   -11911   -11916   -11927   -11929   -11916 
  -11912   -11917   -11917   -11921   -11916   -11913   -11924   -11919 
  -11912   -11913   -11915   -11920   -11927   -11925   -11917   -11912 
  -11916   -11913   -11912   -11916   -11916   -11923   -11925   -11920 
  -11921   -11919   -11917   -11917   -11912   -11913   -11915   -11916 
  -11923   -11920   -11911   -11911   -11915   -11917   -11919   -11924 
  -11924   -11917   -11917   -11919   -11912   -11912   -11912   -11912 
  -11913   -11916   -11920   -11919   -11915   -11921   -11925   -11919 
  -11915   -11909   -11907   -11913   -11924   -11934   -11931   -11921 
  -11912   -11904   -11905   -11909   -11911   -11913   -11920   -11925 
  -11925   -11928   -11927   -11917   -11913   -11911   -11913   -11917 
  -11919   -11917   -11916   -11915   -11916   -11917   -11915   -11916 
  -11917   -11912   -11908   -11909   -11915   -11919   -11925   -11925 
  -11917   -11913   -11916   -11911   -11912   -11916   -11913   -11916 
  -11919   -11911   -11904   -11911   -11921   -11923   -11923   -11928 
  -11925   -11920   -11915   -11915   -11921   -11927   -11928   -11923 
  -11915   -11913   -11915   -11913   -11912   -11916   -11913   -11900 
  -11904   -11916   -11921   -11925   -11917   -11912   -11919   -11913 
  -11912   -11916   -11916   -11923   -11919   -11909   -11920   -11928 
  -11921   -11925   -11925   -11912   -11911   -11912   -11912   -11923 
  -11925   -11921   -11920   -11915   -11917   -11920   -11912   -11915 
  -11915   -11909   -11912   -11913   -11919   -11923   -11917   -11916 
  -11916   -11916   -11920   -11919   -11920   -11924   -11917   -11916 
  -11916   -11909   -11909   -11916   -11919   -11917   -11915   -11916 
  -11917   -11923   -11923   -11909   -11908   -11916   -11919   -11915 
  -11912   -11915   -11921   -11919   -11919   -11921   -11916   -11916 
  -11916   -11908   -11916   -11923   -11921   -11925   -11921   -11917 
  -11921   -11916   -11909   -11915   -11917   -11913   -11919   -11920 
  -11915   -11917   -11919   -11915   -11915   -11911   -11913   -11925 
  -11923   -11913   -11911   -11911   -11915   -11920   -11917   -11920 
  -11923   -11920   -11923   -11920   -11908   -11907   -11912   -11920 
  -11925   -11923   -11921   -11916   -11907   -11908   -11911   -11916 
  -11927   -11925   -11920   -11920   -11915   -11913   -11912   -11908 
  -11912   -11920   -11925   -11934   -11929   -11917   -11912   -11909 
  -11908   -11912   -11919   -11921   -11917   -11916   -11912   -11905 
  -11909   -11920   -11923   -11920   -11920   -11920   -11915   -11911 
  -11908   -11913   -11927   -11928   -11927   -11924   -11915   -11913 
  -11915   -11909   -11912   -11911   -11912   -11923   -11923   -11923 
  -11924   -11911   -11902   -11907   -11912   -11920   -11929   -11929 
  -11923   -11916   -11913   -11913   -11917   -11920   -11920   -11921 
  -11920   -11913   -11913   -11916   -11913   -11919   -11923   -11915 
  -11909   -11913   -11912   -11911   -11916   -11919   -11917   -11912 
  -11911   -11920   -11925   -11924   -11921   -11916   -11915   -11916 
  -11913   -11913   -11919   -11919   -11913   -11912   -11917   -11923 
  -11921   -11921   -11919   -11916   -11919   -11919   -11913   -11911 
  -11913   -11913   -11913   -11916   -11921   -11925   -11924   -11921 
  -11920   -11917   -11913   -11907   -11911   -11917   -11919   -11925 
  -11925   -11920   -11915   -11907   -11911   -11920   -11919   -11917 
  -11916   -11912   -11912   -11916   -11920   -11921   -11916   -11912 
  -11913   -11917   -11920   -11921   -11920   -11919   -11920   -11921 
  -11920   -11917   -11912   -11912   -11915   -11915   -11915   -11917 
  -11920   -11919   -11919   -11919   -11908   -11896   -11904   -11921 
  -11931   -11928   -11921   -11916   -11915   -11912   -11913   -11921 
  -11921   -11917   -11917   -11916   -11916   -11919   -11923   -11919 
  -11909   -11912   -11917   -11917   -11921   -11920   -11912   -11917 
  -11927   -11924   -11920   -11917   -11920   -11925   -11925   -11919 
  -11912   -11909   -11913   -11919   -11915   -11911   -11913   -11912 
  -11915   -11919   -11919   -11917   -11909   -11907   -11916   -11920 
  -11924   -11927   -11921   -11921   -11917   -11912   -11920   -11921 
  -11917   -11920   -11920   -11947   -12039   -12083   -11853   -11291 
  -10847   -11866   -14337   -14064   -10142    -8750   -11357   -13799 
  -13228   -10916   -12436   -15053   -12264    -8962    -9618   -10665 
  -11260   -13548   -13189   -10563   -13562   -15795   -11105    -8827 
  -11651   -13300   -11812   -10334   -10752   -11854   -13609   -13921 
  -11742   -10901   -11109   -10732   -11595   -13297   -13392   -12136 
  -11404   -11205   -11011   -11052   -12436   -13961   -12802   -11380 
  -11272   -10751   -11477   -12872   -12355   -12274   -13103   -11495 
   -9495   -11024   -13231   -12955   -12154   -11986   -11773   -11634 
  -11570   -11406   -11524   -12460   -12993   -11880   -11057   -11429 
  -11576   -11835   -12567   -12710   -11977   -11290   -11365   -11907 
  -12382   -12267   -12017   -12351   -12032   -11071   -11229   -11892 
  -12129   -12834   -13286   -12043   -11190   -12046   -11817   -10488 
  -11047   -12575   -12541   -11780   -11630   -11793   -12262   -12772 
  -12631   -11854   -10932   -10732   -11263   -11857   -12544   -12980 
  -12537   -11819   -11828   -11963   -11480   -11565   -12036   -11465 
  -11315   -12287   -12534   -12228   -12233   -12131   -11816   -11696 
  -11735   -11383   -11263   -11808   -12387   -12995   -12532   -10967 
  -10972   -12383   -12544   -11596   -11546   -12125   -12345   -12532 
  -11871   -11048   -11896   -12285   -11651   -12248   -12698   -11816 
  -11200   -11338   -11789   -12112   -11966   -11821   -11878   -11812 
  -11947   -12140   -11877   -11734   -11823   -11956   -12560   -12572 
  -11306   -10925   -11929   -12154   -12019   -12661   -12523   -11605 
  -11543   -11844   -12086   -12395   -11686   -10662   -11263   -12378 
  -12361   -12073   -12232   -12329   -12231   -12028   -11585   -11496 
  -11927   -11732   -11403   -11997   -12212   -11823   -12058   -12067 
  -11545   -11966   -12645   -12174   -11686   -11723   -11499   -11615 
  -11952   -11678   -11624   -12140   -12317   -12195   -12220   -12071 
  -11940   -12083   -11832   -11318   -11685   -12717   -12588   -11178 
  -10686   -11630   -12285   -12123   -12077   -12344   -12344   -12093 
  -11858   -11491   -11376   -11904   -12185   -11877   -12044   -12575 
  -12124   -11191   -11624   -12856   -12663   -11290    -9961    -8800 
   -9776   -14713   -19402   -16486    -7537    -5184   -12388   -15129 
   -9714    -9406   -15066   -14582   -10266   -11377   -13377   -11277 
  -10003   -11681   -12969   -12052   -11307   -12879   -12981   -10791 
  -11476   -13058   -11659   -10956   -11836   -12001   -12735   -12881 
  -10814   -10195   -11901   -12349   -11593   -11975   -13065   -13412 
  -13261   -12453   -10358    -8897    -9872   -12672   -14532   -13055 
  -10894   -10611   -11176   -12746   -14627   -13666   -10204    -9089 
  -12186   -14685   -12240    -8984   -10135   -12540   -13113   -13065 
  -12495   -11755   -11915   -12702   -12683   -11388   -10309   -10428 
  -11265   -11857   -12363   -13225   -13084   -11785   -11435   -11944 
  -11524   -11410   -12496   -12226   -11159   -11414   -11389   -11206 
  -12764   -14327   -13317   -10970   -10183   -11198   -12644   -13162 
  -12039   -11195   -11920   -11840   -10717   -11835   -13934   -12955 
  -10781   -10763   -11917   -12460   -11110    -9167   -10897   -14840 
  -14752   -11241   -10072   -11885   -13323   -12897   -10937    -9687 
  -11310   -13624   -13460   -11934   -11839   -12429   -11861   -11186 
  -11164   -11732   -13239   -13180   -10199    -9256   -12445   -14177 
  -12515   -11481   -11649   -11539   -12289   -13232   -11685    -9844 
  -11422   -12679   -10808   -11211   -13911   -13089   -10685   -11011 
  -12318   -12384   -11846   -10937   -10813   -12903   -13698   -11778 
  -11321   -11854   -11234   -12066   -13702   -12557   -10779   -11333 
  -12375   -12135   -11391   -11685   -12645   -12393   -11603   -11847 
  -12228   -11965   -11735   -11218   -10686   -12298   -14154   -12185 
   -9742   -11610   -13756   -12047   -10443   -11696   -12710   -12386 
  -12100   -11264   -10606   -11396   -11830   -12279   -13710   -12803 
  -10107   -10401   -12638   -13176   -12857   -12428   -10760   -10316 
  -12393   -12704   -11126   -11697   -12819   -11946   -12019   -13666 
  -12700   -10165   -10875   -12982   -12469   -10822   -10508   -11520 
  -12660   -12451   -11603   -11476   -11252   -11554   -13381   -13680 
  -11747   -11398   -12297   -11758   -11257   -12218   -12517   -11445 
  -11302   -11956   -11707   -11770   -12973   -13143   -11483   -10427 
  -11134   -12089   -11996   -10921   -10806   -12650   -13797   -12872 
  -11951   -12036   -11776   -10721   -10983   -12873   -13270   -11701 
  -10906   -11674   -12550   -12253   -11296   -11360   -12216   -12124 
  -11654   -12403   -13011   -11946   -10978   -11558   -12174   -11583 
  -11178   -12085   -12532   -11785   -12128   -12911   -11547   -10237 
  -11545   -13193   -13155   -12186   -11217   -11342   -12333   -12091 
  -11196   -11573   -12105   -11801   -11826   -12307   -12313   -11986 
  -11620   -11214   -11514   -12293   -12151   -11669   -12141   -12349 
  -11542   -11782   -12881   -12098   -10593   -11377   -13166   -12910 
  -11503   -11597   -12127   -11630   -11384   -11858   -12479   -12507 
  -11566   -11232   -12267   -12352   -11110   -11673   -13288   -12687 
  -11547   -11549   -11173   -11041   -11961   -12324   -12067   -12175 
  -11858   -11259   -11863   -12398   -11236   -10801   -12336   -12939 
  -12023   -11892   -12339   -11901   -11488   -12202   -12941   -12426 
  -11205   -11086   -12210   -12367   -11422   -11159   -11537   -12112 
  -12808   -12796   -12048   -11672   -11596   -11223   -11610   -12800 
  -12664   -11265   -11065   -12251   -12568   -11767   -11456   -11767 
  -12366   -12861   -12046   -10482   -10354   -11839   -13051   -13049 
  -12332   -11631   -11857   -12345   -11375    -9991   -10482   -12799 
  -13801   -11622   -10646   -12989   -13610   -11803   -11430   -11700 
  -11130   -11311   -11936   -11997   -12407   -12696   -12482   -12649 
  -12340   -11691   -11882   -11722   -11141   -11523   -11890   -11669 
  -11908   -12021   -11570   -11684   -12248   -12436   -12033   -11238 
  -11311   -12247   -12094   -11460   -11969   -12082   -11325   -11691 
  -12382   -11921   -11885   -12611   -12525   -12117   -11962   -11272 
  -10867   -11599   -12299   -12424   -12479   -12478   -12199   -11708 
  -11577   -12121   -12374   -11808   -11368   -11475   -11840   -12263 
  -12216   -11839   -11917   -12214   -12027   -11257   -10849   -11731 
  -12572   -12243   -11965   -12127   -11998   -11655   -11556   -11985 
  -12259   -11670   -11280   -11890   -12226   -11723   -11824   -12492 
  -12379   -11923   -11805   -11928   -12144   -11978   -11684   -11824 
  -12083   -12112   -11892   -11801   -12043   -12106   -11986   -12154 
  -12162   -11631   -11358   -11445   -11508   -11948   -12262   -11928 
  -11701   -11842   -11948   -12002   -12307   -12307   -11430   -10933 
  -11657   -12422   -12445   -12185   -11836   -11465   -11880   -12698 
  -12280   -11434   -11924   -12559   -12001   -11357   -11588   -12168 
  -12029   -11315   -11607   -12638   -12623   -11835   -11578   -11947 
  -12113   -11954   -11905   -11712   -11562   -11838   -12141   -12090 
  -11700   -11813   -12359   -11846   -11125   -11797   -12298   -11628 
  -11614   -12302   -12106   -11646   -11851   -11996   -11804   -11794 
  -11943   -12154   -12340   -11944   -11495   -11897   -12262   -11853 
  -11507   -11973   -12688   -12432   -11523   -11465   -12114   -11998 
  -11476   -11979   -12326   -11591   -11659   -12579   -12600   -11921 
  -11635   -11727   -11740   -12006   -12345   -11908   -11229   -11317 
  -11865   -12070   -12131   -12212   -11646   -11265   -11923   -12113 
  -11715   -12112   -12382   -11777   -11705   -12140   -11847   -11508 
  -11971   -12434   -12283   -11844   -11584   -11665   -11882   -12141 
  -12472   -12317   -11537   -11345   -12058   -12461   -12209   -11761 
  -11430   -11619   -12075   -12132   -11917   -11827   -11707   -11545 
  -11782   -12154   -12150   -12067   -11947   -11986   -12355   -11954 
