Origin Time       2025/02/01 08:16:00
Lat.              33.667
Long.             130.927
Depth. (km)       8
Mag.              3.1
Station Code      OIT005
Station Lat.      33.4524
Station Long.     131.1142
Station Height(m) 113
Record Time       2025/02/01 08:17:01
Sampling Freq(Hz) 100Hz
Duration Time(s)  60
Dir.              E-W
Scale Factor      7845(gal)/8223790
Max. Acc. (gal)   6.167
Last Correction   2025/02/01 08:17:01
Memo.             
[...]
    7292     7291     7291     7294     7292     7291     7290     7288 
    7292     7296     7295     7288     7284     7288     7290     7292 
    7299     7298     7290     7288     7291     7287     7292     7302 
    7296     7288     7287     7284     7290     7292     7294     7298 
    7295     7295     7292     7281     7285     7300     7299     7294 
    7292     7287     7288     7294     7292     7292     7298     7295 
    7292     7290     7283     7287     7299     7298     7294     7292 
    7285     7283     7291     7300     7299     7291     7285     7290 
    7298     7298     7290     7285     7285     7294     7302     7298 
    7288     7285     7288     7296     7302     7298     7290     7284 
    7288     7296     7299     7299     7292     7288     7290     7287 
    7287     7295     7298     7295     7290     7284     7287     7294 
    7298     7292     7290     7294     7294     7291     7290     7290 
    7290     7292     7295     7296     7291     7288     7291     7292 
    7294     7295     7294     7290     7290     7291     7290     7292 
    7295     7291     7287     7292     7294     7292     7295     7292 
    7290     7290     7292     7295     7294     7292     7294     7294 
    7292     7290     7291     7294     7292     7292     7294     7292 
    7292     7291     7290     7295     7295     7290     7292     7294 
    7288     7290     7296     7294     7290     7291     7294     7294 
    7294     7291     7288     7290     7295     7294     7292     7292 
    7291     7288     7287     7291     7296     7295     7292     7292 
    7292     7291     7292     7292     7292     7294     7291     7287 
    7290     7294     7295     7295     7291     7290     7294     7294 
    7292     7292     7291     7291     7294     7291     7291     7294 
    7294     7291     7291     7292     7291     7288     7296     7303 
    7295     7287     7287     7290     7292     7295     7296     7298 
    7292     7291     7292     7292     7292     7296     7295     7292 
    7292     7291     7292     7292     7290     7292     7295     7295 
    7294     7290     7290     7296     7294     7292     7294     7290 
    7290     7292     7292     7291     7288     7288     7294     7296 
    7294     7290     7288     7291     7292     7292     7298     7299 
    7290     7287     7291     7291     7290     7294     7295     7288 
    7288     7294     7292     7292     7294     7290     7287     7294 
    7300     7299     7291     7287     7288     7291     7295     7296 
    7294     7288     7287     7291     7295     7292     7291     7292 
    7294     7292     7290     7290     7296     7300     7291     7287 
    7294     7294     7292     7294     7290     7292     7299     7295 
    7288     7288     7291     7292     7295     7295     7294     7295 
    7292     7288     7290     7295     7299     7296     7291     7290 
    7288     7290     7296     7296     7294     7294     7288     7284 
    7291     7296     7292     7292     7292     7288     7287     7288 
    7290     7296     7298     7292     7290     7287     7287     7295 
    7299     7294     7290     7290     7290     7294     7291     7290 
    7295     7294     7290     7291     7295     7295     7291     7287 
    7294     7299     7296     7290     7285     7291     7296     7299 
    7299     7294     7283     7284     7294     7296     7294     7292 
    7291     7294     7292     7285     7290     7296     7294     7291 
    7294     7292     7288     7288     7295     7299     7295     7290 
    7287     7288     7296     7299     7294     7287     7287     7291 
    7291     7292     7296     7294     7290     7288     7291     7295 
    7296     7290     7285     7290     7295     7296     7295     7291 
    7291     7292     7292     7290     7292     7296     7294     7290 
    7294     7294     7287     7290     7298     7298     7292     7288 
    7290     7291     7291     7292     7294     7290     7287     7292 
    7296     7294     7290     7292     7291     7287     7294     7295 
    7290     7285     7294     7300     7296     7288     7287     7292 
    7292     7290     7292     7295     7291     7290     7294     7294 
    7290     7291     7290     7292     7296     7296     7291     7290 
    7291     7291     7292     7292     7292     7292     7290     7291 
    7291     7292     7295     7296     7292     7294     7295     7291 
    7290     7292     7296     7295     7292     7292     7290     7292 
    7295     7294     7294     7294     7290     7288     7291     7295 
    7295     7292     7294     7291     7290     7292     7292     7291 
    7294     7299     7295     7285     7288     7294     7295     7294 
    7294     7294     7291     7291     7294     7294     7294     7292 
    7291     7288     7290     7291     7294     7299     7294     7285 
    7294     7296     7288     7291     7295     7292     7292     7292 
    7290     7292     7298     7296     7290     7287     7294     7296 
    7294     7294     7292     7290     7292     7294     7291     7290 
    7294     7296     7292     7290     7290     7292     7298     7300 
    7295     7288     7287     7290     7294     7296     7294     7292 
    7292     7290     7291     7292     7292     7291     7290     7292 
    7300     7298     7290     7288     7291     7292     7294     7294 
    7291     7290     7295     7296     7292     7290     7288     7294 
    7300     7295     7283     7285     7299     7298     7290     7290 
    7298     7296     7287     7288     7294     7292     7292     7294 
    7292     7290     7291     7295     7294     7288     7288     7294 
    7294     7292     7294     7291     7285     7290     7294     7292 
    7292     7294     7290     7285     7291     7298     7294     7287 
    7287     7292     7295     7294     7294     7292     7288     7290 
    7294     7292     7294     7295     7290     7288     7291     7292 
    7290     7288     7294     7298     7295     7294     7291     7285 
    7290     7300     7300     7292     7288     7288     7290     7292 
    7294     7296     7295     7292     7292     7290     7288     7295 
    7295     7288     7290     7296     7295     7294     7291     7292 
    7296     7294     7290     7294     7295     7291     7288     7290 
    7296     7298     7290     7288     7294     7294     7291     7294 
    7294     7291     7287     7290     7299     7299     7287     7287 
    7296     7299     7296     7295     7291     7290     7292     7294 
    7292     7290     7290     7296     7299     7292     7287     7290 
    7295     7294     7287     7288     7294     7295     7291     7288 
    7291     7291     7294     7298     7294     7287     7290     7294 
    7296     7294     7292     7294     7295     7296     7294     7288 
    7290     7295     7295     7295     7292     7292     7291     7287 
    7290     7294     7298     7296     7291     7288     7288     7292 
    7296     7294     7291     7292     7295     7294     7290     7290 
    7292     7294     7294     7291     7291     7294     7295     7291 
    7288     7294     7298     7294     7290     7290     7294     7294 
    7292     7294     7295     7295     7291     7284     7287     7292 
    7296     7298     7292     7290     7288     7291     7295     7296 
    7298     7292     7285     7287     7291     7291     7295     7300 
    7294     7285     7287     7291     7295     7295     7292     7291 
    7294     7294     7290     7288     7294     7295     7292     7294 
    7292     7288     7287     7294     7299     7296     7288     7290 
    7290     7287     7291     7296     7295     7294     7294     7291 
    7290     7291     7294     7294     7292     7295     7295     7290 
    7287     7291     7298     7298     7296     7292     7288     7288 
    7290     7294     7299     7296     7292     7290     7287     7290 
    7294     7296     7298     7294     7288     7287     7294     7296 
    7292     7294     7295     7287     7284     7294     7299     7292 
    7290     7291     7292     7288     7288     7298     7303     7296 
    7290     7287     7288     7292     7295     7298     7298     7292 
    7288     7288     7292     7295     7292     7295     7298     7292 
    7287     7290     7294     7294     7294     7294     7292     7291 
    7290     7290     7291     7295     7296     7296     7291     7285 
    7287     7295     7298     7296     7298     7288     7281     7292 
    7299     7295     7296     7298     7287     7283     7290     7291 
    7299     7306     7292     7287     7291     7283     7285     7299 
    7300     7292     7291     7294     7291     7287     7290     7298 
    7300     7295     7288     7284     7290     7296     7294     7290 
    7294     7295     7292     7292     7292     7292     7294     7296 
    7296     7292     7288     7290     7294     7295     7294     7292 
    7290     7290     7295     7298     7298     7296     7292     7284 
    7283     7291     7299     7300     7296     7288     7281     7288 
    7296     7295     7291     7295     7295     7290     7290     7292 
    7290     7292     7296     7292     7291     7292     7294     7294 
    7290     7291     7298     7298     7295     7291     7288     7291 
    7294     7295     7296     7292     7291     7292     7294     7292 
    7290     7290     7291     7292     7295     7298     7295     7287 
    7285     7291     7298     7300     7298     7292     7288     7287 
    7291     7292     7292     7298     7296     7291     7291     7294 
    7294     7294     7294     7292     7288     7287     7294     7299 
    7298     7294     7290     7287     7290     7295     7299     7295 
    7287     7290     7296     7298     7294     7291     7291     7291 
    7290     7291     7295     7296     7292     7292     7295     7294 
    7290     7291     7294     7295     7306     7356     7462     7615 
    7666     7319     6496     5809     6030     7119     8769    10376 
    9809     6598     4272     4433     5470     7593    10165    10432 
    9036     7408     4390     2502     5505     9587    10473    10393 
    9567     5655     2286     3384     6943    10848    12548     9451 
    5124     3562     3654     5571    10193    12707     9553     5625 
    4558     4540     6107     9289    10239     8155     6068     5352 
    5757     7808     9721     8725     6728     6453     6590     6156 
    7109     8380     8141     8073     7276     5872     6245     6744 
    7283     8943     9111     7522     6436     5958     6413     7582 
    7616     7373     7963     8033     7165     6322     6708     7493 
    7318     7673     8406     7645     6099     5760     7067     7909 
    7788     8282     8453     7657     6814     5706     5130     6507 
    8733     9379     8167     7009     6624     6604     6939     7344 
    7616     7819     7643     7071     6698     6821     7223     7730 
    7979     7501     6670     6538     7300     7938     7749     7169 
    7084     7318     7165     7134     7248     7190     7414     7385 
    7329     7759     7435     6767     6751     6917     7437     8048 
    8260     7948     6704     5756     6289     7404     8334     8514 
    7863     7092     6014     5363     6729     8953     9757     8599 
    6442     5061     5314     6853     8513     8860     8532     8095 
    6637     5147     5638     7632     8557     8399     8397     7299 
    5948     6130     6748     7619     8754     8658     7195     5778 
    5637     6729     7940     8683     8768     7838     6548     5913 
    6158     7083     8112     8468     7847     7277     7168     6488 
    6187     7272     7855     7403     7418     7785     7712     7280 
    6991     7018     7155     7024     6652     7177     8132     8102 
    7723     7291     6480     5958     6594     8108     8802     8208 
    7488     6844     5983     5954     7240     8276     8388     7854 
    6839     6318     6740     7558     7890     7682     7603     7138 
    6523     6751     7439     8032     7866     7087     6852     6994 
    7015     7140     7460     7852     7854     7358     7069     6916 
    6644     6940     7650     8037     7857     7362     7034     6718 
    6546     6966     7665     8074     7935     7468     7047     6840 
    6705     6766     7218     7753     8181     7857     7069     7059 
    6829     6323     7118     8058     7892     7522     7429     7302 
    7057     6847     6798     7009     7437     7720     7592     7534 
    7940     7763     6590     5950     6340     7214     8274     8714 
    8241     7225     6157     5856     6615     7680     8127     8193 
    8237     7591     6322     5949     6808     7353     7531     7912 
    7847     7759     7623     6666     5917     6462     7816     8244 
    7744     8002     7959     6621     5618     6133     7581     8421 
    8370     8147     7456     5989     5285     6768     8703     9089 
    8399     7025     5406     5305     6939     8498     9182     8652 
    6732     5645     6336     6910     7373     8280     8718     8116 
    6829     5864     5649     6238     7766     9171     8950     8054 
    7658     6543     5478     6154     7267     7709     7168     5787 
    5611     7219     8856     9941    10693     9898     7254     5486 
    5158     4684     5513     8343    10160     7908     3376     3183 
    8039    10760     9580     9104     9848     7493     2135     1306 
    6292     9825    11510    12810     9660     3504      827     4164 
    9945    12802    10991     6458     3859     4363     4391     4784 
    8071    11634    11661     7885     4178     5498     9390     8726 
    6799     7716     5949     3086     5395    10054    10935     8434 
    7219     5682     3850     6964    10925    10679     8615     5140 
    2100     3345     7501    11437    11480     7658     5667     6116 
    7677     8876     6146     4186     6990     9347     9094     8179 
    7311     5850     4919     6353     7445     7582     9328     9992 
    7465     5150     4599     5850     9601    11176     7978     5448 
    4884     4791     6655     9285    11016    10829     7009     3096 
    3557     6056     7983     9890    10351     8206     5356     3842 
    5587     9377    10736     9354     7511     5563     4135     4671 
    7349    10521    11700     9003     4854     3758     4529     5549 
    8977    11878    10169     6556     3759     3311     6327     9606 
   10681     9456     6930     5718     5325     5520     7801    10014 
   10446     8672     4666     2096     3921     8104    11011    11519 
   10019     6702     3429     3207     5979     8893    10604    10725 
    8360     4297     2122     4301     8465    11400    11796     9706 
    6430     3192     2594     5548     8824    10728    10687     8361 
    6022     5092     5117     6400     8309     8989     8141     6955 
    6249     6247     7433     8425     7774     7450     7866     7423 
    6349     5996     7418     8514     7334     6697     7712     7627 
    6370     6805     8872     8741     6358     5613     6214     6411 
    7091     8649    10218     9355     5908     4471     6033     7352 
    7882     8472     8621     7678     6405     6412     7299     6998 
    6255     6809     7507     8004     8716     8617     7306     5390 
    5105     7460     9267     8743     7688     6926     5872     5320 
    6674     9022     9617     7794     6210     6428     6956     7059 
    7113     7443     8322     8040     6254     5908     7168     7793 
    7572     7327     7526     7765     7782     8218     8140     6745 
    5637     5475     5999     7323     8783     9836     9618     7376 
    4560     3645     5817     8818     9690     9408     9378     8035 
    4733     2683     4480     8208    10735    10565     8271     6184 
    5547     5910     7037     8145     8226     8005     7611     6189 
    5240     5794     7113     9155    10165     8841     6849     5339 
    5059     6627     8988     9626     8181     6660     4737     4005 
    7125    10238     9985     8247     6741     5876     5455     5863 
    8148     9802     8367     6660     6363     6681     7209     7125 
    7161     7796     7888     7497     7269     7144     6718     6376 
    6948     8248     8914     7639     5996     6141     7294     8175 
    8112     7298     6829     6747     6754     7543     8772     8488 
    6508     5063     5773     7676     8756     8822     8112     6654 
    6003     6687     7479     7931     7915     7568     7273     6601 
    6326     6936     6920     7090     8343     9103     8729     6912 
    4962     5259     6736     7904     8785     8999     8498     7240 
    5656     5256     6313     7673     8425     8503     8301     7550 
    6516     5996     6058     7169     8599     8814     8035     6951 
    6331     6234     6367     7114     7943     8591     8822     7842 
    6399     5339     5239     6709     8596     9657     9440     7596 
    5428     4726     5853     7997     9198     8903     8426     7423 
    5409     4394     6045     8676     9767     9282     7704     5622 
    4810     5844     7921     9683     9533     7485     5404     5239 
    6681     7776     8037     8079     7773     7057     6872     7419 
    7425     6999     7129     7234     7327     7631     7392     7149 
    7122     6852     7222     8032     8016     7299     6586     6621 
    7352     7649     7542     7547     7361     6912     6710     7103 
    7512     7668     7900     7560     6594     6411     7265     7963 
    7789     7084     6918     7589     7715     7049     7110     7614 
    7315     6913     7122     7140     6810     6863     7331     8222 
    9165     8629     6405     4583     5017     7285     9215     9618 
    8627     6582     5097     5454     7038     8758     9328     8257 
    6666     5961     6377     7065     7566     7730     7469     7353 
    7469     7381     7287     7209     7052     6845     6847     7654 
    8332     7835     7014     6610     6685     7096     7580     8017 
    7965     7110     6245     6467     7531     7940     7335     7082 
    7543     7898     7909     7329     6471     6471     6906     7065 
    7713     8476     8104     7182     6801     6624     6273     6709 
    7997     8240     7369     7303     7962     7852     6756     6053 
    6635     7396     7528     7735     8290     8071     6490     5557 
    6693     7977     8124     8106     7938     7144     6544     6728 
    7194     7238     7047     7284     7605     7626     7638     7507 
    7021     6577     6844     7739     8117     7383     6555     6628 
    7056     7371     7942     8221     7234     6149     6957     8349 
    8120     7250     6856     6565     6507     6970     7796     8422 
    8212     7433     6662     6227     6565     7438     7993     7858 
    7288     6903     7010     7371     7641     7650     7477     7011 
    6574     6959     7553     7476     7357     7453     7406     7414 
    7145     6660     7017     7836     8089     7662     7061     6929 
    6789     6636     7269     7893     7805     7322     7078     7596 
    7572     6567     6353     7260     8379     8482     7329     6686 
    6619     6345     6725     7782     8526     8183     7033     6454 
