Origin Time       2025/02/01 08:16:00
Lat.              33.667
Long.             130.927
Depth. (km)       8
Mag.              3.1
Station Code      OIT005
Station Lat.      33.4524
Station Long.     131.1142
Station Height(m) 113
Record Time       2025/02/01 08:17:01
Sampling Freq(Hz) 100Hz
Duration Time(s)  60
Dir.              U-D
Scale Factor      7845(gal)/8223790
Max. Acc. (gal)   3.529
Last Correction   2025/02/01 08:17:01
Memo.             
[...]
   12752    12749    12748    12750    12750    12750    12752    12753 
   12750    12748    12750    12750    12749    12750    12750    12750 
   12752    12752    12750    12749    12753    12754    12752    12753 
   12754    12752    12752    12753    12752    12750    12750    12749 
   12750    12752    12752    12748    12748    12753    12756    12752 
   12750    12752    12752    12752    12752    12749    12749    12750 
   12750    12750    12750    12750    12752    12750    12748    12749 
   12752    12754    12750    12749    12753    12752    12748    12749 
   12749    12750    12750    12749    12752    12753    12750    12749 
   12749    12752    12750    12748    12750    12752    12750    12752 
   12750    12748    12752    12754    12750    12749    12748    12750 
   12752    12749    12749    12752    12749    12749    12752    12753 
   12749    12750    12752    12748    12750    12753    12752    12750 
   12750    12749    12753    12756    12750    12746    12749    12752 
   12749    12748    12753    12752    12746    12749    12753    12753 
   12752    12749    12749    12750    12750    12750    12748    12746 
   12752    12753    12752    12750    12749    12749    12750    12753 
   12753    12749    12750    12753    12752    12752    12752    12749 
   12750    12752    12749    12749    12754    12752    12748    12749 
   12750    12748    12749    12753    12753    12750    12749    12752 
   12756    12753    12749    12750    12753    12750    12749    12752 
   12750    12746    12750    12756    12752    12749    12752    12752 
   12750    12750    12750    12749    12749    12750    12750    12750 
   12750    12752    12752    12749    12748    12750    12752    12750 
   12748    12748    12750    12752    12750    12750    12750    12749 
   12749    12749    12753    12754    12749    12746    12750    12754 
   12750    12746    12749    12754    12749    12749    12752    12752 
   12752    12752    12749    12749    12752    12752    12749    12749 
   12750    12750    12750    12752    12753    12752    12748    12748 
   12750    12750    12749    12748    12748    12750    12753    12752 
   12750    12752    12752    12750    12750    12749    12750    12753 
   12748    12744    12752    12754    12749    12748    12750    12750 
   12749    12750    12749    12750    12753    12752    12750    12752 
   12750    12749    12753    12753    12748    12748    12752    12753 
   12749    12748    12750    12752    12752    12752    12750    12753 
   12753    12750    12750    12754    12753    12746    12748    12750 
   12749    12750    12752    12750    12749    12752    12753    12748 
   12748    12753    12754    12752    12749    12753    12757    12753 
   12748    12750    12754    12753    12749    12749    12749    12752 
   12754    12753    12748    12748    12750    12753    12752    12750 
   12750    12753    12753    12749    12748    12753    12754    12753 
   12750    12748    12753    12753    12748    12749    12752    12752 
   12749    12749    12749    12750    12750    12748    12748    12750 
   12753    12752    12749    12749    12753    12750    12746    12753 
   12756    12752    12746    12749    12754    12752    12748    12749 
   12752    12749    12749    12750    12750    12752    12750    12748 
   12750    12753    12750    12749    12752    12753    12750    12748 
   12750    12754    12750    12745    12749    12753    12749    12748 
   12750    12752    12750    12749    12750    12753    12753    12749 
   12749    12749    12749    12750    12749    12752    12753    12749 
   12748    12750    12752    12750    12750    12750    12750    12750 
   12753    12750    12746    12752    12753    12750    12749    12750 
   12750    12748    12749    12752    12749    12748    12752    12750 
   12746    12750    12753    12752    12749    12749    12752    12752 
   12749    12748    12749    12749    12752    12753    12749    12748 
   12752    12753    12749    12749    12748    12749    12754    12753 
   12746    12749    12754    12754    12750    12749    12749    12750 
   12750    12750    12752    12750    12750    12752    12750    12750 
   12752    12752    12750    12752    12750    12749    12752    12753 
   12749    12749    12750    12752    12753    12752    12748    12748 
   12750    12752    12750    12750    12752    12749    12749    12752 
   12752    12750    12750    12749    12748    12752    12754    12752 
   12749    12748    12748    12752    12753    12749    12750    12752 
   12749    12749    12750    12750    12749    12750    12754    12753 
   12748    12749    12752    12750    12750    12748    12749    12754 
   12752    12749    12750    12752    12753    12749    12746    12750 
   12753    12752    12750    12752    12753    12750    12749    12748 
   12748    12752    12754    12748    12745    12752    12754    12752 
   12752    12749    12746    12754    12753    12745    12745    12748 
   12750    12756    12750    12745    12749    12754    12756    12749 
   12744    12749    12756    12752    12748    12746    12750    12754 
   12752    12748    12749    12750    12749    12750    12752    12750 
   12750    12750    12750    12749    12750    12753    12750    12749 
   12752    12752    12752    12752    12748    12750    12754    12750 
   12749    12752    12750    12750    12752    12750    12750    12753 
   12750    12752    12753    12749    12748    12753    12752    12749 
   12752    12752    12750    12750    12752    12753    12752    12750 
   12753    12753    12748    12749    12754    12752    12748    12749 
   12753    12749    12745    12749    12753    12749    12749    12748 
   12750    12753    12750    12750    12752    12750    12752    12752 
   12750    12750    12749    12750    12753    12753    12753    12750 
   12749    12752    12754    12752    12749    12749    12752    12753 
   12746    12745    12754    12757    12745    12746    12757    12754 
   12746    12748    12752    12750    12750    12752    12750    12749 
   12750    12752    12752    12750    12749    12750    12753    12750 
   12750    12752    12750    12748    12750    12753    12750    12752 
   12753    12750    12748    12749    12752    12752    12750    12753 
   12753    12752    12749    12749    12749    12749    12752    12753 
   12752    12750    12750    12753    12753    12748    12749    12753 
   12752    12749    12749    12749    12749    12753    12753    12749 
   12748    12750    12752    12752    12748    12748    12753    12752 
   12748    12750    12753    12752    12749    12749    12748    12752 
   12754    12752    12749    12750    12749    12748    12749    12749 
   12752    12752    12750    12750    12752    12750    12748    12745 
   12750    12753    12748    12746    12752    12750    12748    12752 
   12753    12749    12749    12749    12750    12750    12749    12749 
   12753    12752    12750    12750    12750    12750    12752    12749 
   12750    12754    12753    12746    12748    12753    12753    12749 
   12748    12750    12756    12752    12746    12749    12754    12753 
   12746    12748    12753    12752    12749    12750    12750    12749 
   12750    12752    12749    12750    12752    12749    12748    12749 
   12753    12754    12749    12746    12753    12754    12746    12748 
   12752    12749    12748    12750    12752    12750    12750    12749 
   12752    12750    12750    12752    12752    12752    12754    12752 
   12748    12749    12753    12752    12749    12749    12753    12753 
   12752    12750    12750    12752    12750    12749    12752    12754 
   12753    12749    12750    12754    12753    12748    12748    12753 
   12753    12750    12750    12752    12753    12752    12750    12753 
   12754    12750    12749    12749    12750    12753    12753    12749 
   12746    12749    12752    12749    12748    12749    12750    12753 
   12752    12749    12749    12752    12750    12745    12748    12754 
   12750    12746    12750    12752    12752    12753    12753    12750 
   12750    12749    12748    12750    12753    12750    12748    12752 
   12753    12746    12748    12753    12754    12754    12752    12745 
   12749    12758    12753    12746    12749    12753    12754    12750 
   12746    12752    12756    12748    12744    12752    12756    12750 
   12748    12750    12749    12750    12752    12748    12749    12753 
   12750    12748    12749    12750    12752    12750    12749    12750 
   12752    12752    12749    12748    12750    12752    12750    12749 
   12752    12753    12748    12748    12756    12752    12746    12750 
   12753    12748    12748    12752    12750    12749    12752    12750 
   12746    12746    12753    12753    12749    12749    12750    12750 
   12753    12752    12746    12749    12753    12749    12746    12746 
   12749    12753    12750    12745    12750    12756    12750    12748 
   12750    12750    12750    12749    12749    12752    12752    12749 
   12749    12752    12752    12749    12748    12750    12753    12750 
   12748    12750    12753    12750    12749    12752    12753    12750 
   12749    12752    12752    12748    12748    12750    12748    12752 
   12757    12752    12745    12750    12757    12752    12746    12750 
   12754    12752    12749    12752    12752    12748    12748    12750 
   12754    12752    12748    12752    12752    12750    12752    12750 
   12748    12752    12753    12750    12749    12749    12750    12750 
   12749    12752    12762    12806    12935    13139    13146    12461 
   11317    11411    13521    14747    12989    11581    12491    12888 
   12945    13894    12829    10728    12079    14516    13756    12240 
   12375    11892    11614    14138    15215    11766     9919    12694 
   14594    13659    12606    11554    11283    13570    15165    13032 
   10855    11986    13605    13041    12333    12723    12777    12907 
   13375    12706    11969    12525    13078    13019    12753    12556 
   12735    12769    12479    12881    13304    12552    12449    13417 
   12880    11655    12407    13552    12935    12501    13144    12619 
   11712    12761    13892    13185    12348    12313    12599    13107 
   13024    12398    12368    12703    12919    13279    13213    12071 
   11538    12957    13896    12923    12220    12636    13068    13088 
   12586    12078    12646    13514    13093    12225    12301    12708 
   12845    13053    13136    12861    12549    12325    12414    13039 
   13475    12879    11901    12168    13385    13490    12436    12023 
   12726    13363    12997    12394    12537    12768    12703    12729 
   12702    12928    13270    12650    11881    12584    13875    13621 
   11939    11337    12745    13913    13259    12163    12229    12856 
   12989    12866    12735    12650    12872    12887    12515    12591 
   12849    12681    12793    13177    12803    12262    12641    13015 
   12729    12588    12700    12919    13076    12633    12332    12722 
   12976    12838    12550    12572    13000    13008    12600    12586 
   13028    13072    12476    12344    12793    12864    12757    12811 
   12730    12762    12889    12704    12588    12739    12807    12734 
   12735    12889    12820    12582    12695    12838    12708    12703 
   12711    12509    12649    13254    13265    12528    12415    12717 
   12532    12773    13308    12810    12012    12514    13621    13169 
   11843    12168    13243    13132    12679    12653    12860    13090 
   12745    12259    12505    12995    13063    12621    12336    12860 
   13266    12798    12425    12629    12746    12841    12941    12573 
   12561    13163    12980    12318    12438    12872    12943    12804 
   12615    12540    12831    13180    12892    12332    12456    12874 
   12827    12853    13054    12748    12503    12870    12876    12291 
   12413    13227    13242    12556    12536    12976    12773    12330 
   12514    12891    12884    12773    12947    12996    12415    12221 
   13123    13397    12401    12213    13138    13254    12511    12268 
   12764    13015    12453    12413    13211    13089    12560    12764 
   12704    12630    13062    12897    12402    12550    12847    12903 
   12964    12729    12353    12631    12943    12622    12664    13169 
   12893    12237    12633    13338    12924    12256    12482    12968 
   13080    12892    12521    12451    12734    12796    12811    12961 
   12812    12538    12621    12827    12839    12877    12808    12421 
   12576    13335    13082    11993    12294    13628    13485    12137 
   11769    12583    13358    13342    12523    12012    12777    13448 
   12695    12316    13351    13473    12253    12002    12818    13038 
   12579    12410    12460    12644    13377    13467    12380    12329 
   13652    13562    11800    11615    13072    12885    12328    13725 
   13518    10741    10369    13198    15442    15002    12297    10625 
   12642    15002    13408    10245    10558    13652    14833    13054 
   11497    11637    12151    13699    15997    14130     9695    10957 
   14615    13005    11516    13294    12341    10982    13290    13965 
   11911    12571    14948    14118    12006    12287    12218    11153 
   12727    14307    12312    11107    13657    15353    12614     9520 
   11657    15580    14413    10720    10237    12773    15650    15257 
   10820     9051    13401    16378    13861    11371    11742    13027 
   13776    12857    11052    10902    12475    13886    13612    12051 
   12151    13535    13447    13348    13386    12160    12097    13108 
   12991    12641    12447    12294    12490    12613    13066    13672 
   13159    12163    12090    12546    12698    12866    13351    13180 
   12399    12650    13050    12654    13181    12723    10494    11844 
   14974    13986    12154    12399    12621    13007    13113    12001 
   11927    13135    13447    12923    12637    12923    12922    12054 
   12275    13806    13342    11225    11807    14445    14164    11272 
   10665    13290    15120    13478    10924    11387    13954    14310 
   12199    11296    12494    13671    13259    12020    12228    13626 
   13574    12168    12100    13207    13188    12517    12456    12712 
   13196    13008    11637    11597    13452    14052    12837    12050 
   12376    12756    12729    12920    13343    13410    12661    11809 
   12561    13896    13424    11901    11408    12484    13903    13786 
   12374    11839    12698    13347    12756    12051    12390    12723 
   12762    13460    13702    12511    11645    12209    13107    13452 
   13074    12401    12252    12553    12680    12761    13356    13636 
   12637    12097    13051    13096    11861    11954    13034    13127 
   12783    12745    12920    13385    13162    12078    11985    12853 
   13066    12677    12251    12193    12881    13625    13651    13020 
   12480    12519    12584    12571    12633    12464    12460    12681 
   12667    13093    13683    12739    11618    12771    14098    13139 
   11983    12310    12841    12798    12452    12496    13049    12911 
   12239    12529    13371    13140    12232    12399    13203    13153 
   12613    12393    12823    13375    12660    11696    12480    13522 
   12992    12459    13290    13718    12641    11828    12166    12822 
   13023    12303    11917    13113    14042    13270    12357    12592 
   13099    12556    11635    12224    13613    13347    12104    12314 
   13493    13575    12333    11724    12989    13749    12421    11913 
   13242    13464    12271    12039    12972    13586    12885    11600 
   12074    13807    13684    12155    12074    13169    13236    12399 
   12201    12691    13014    13069    13024    12656    12414    12700 
   12862    12784    12734    12511    12452    13058    13531    12972 
   12098    12132    12964    13190    12479    12290    12910    13217 
   12926    12476    12657    13305    12810    11759    12590    13917 
   12939    11696    12598    13675    13207    12325    12287    12916 
   13170    12592    12160    12548    12885    12754    12775    12947 
   12899    12820    12748    12576    12679    12837    12560    12546 
   13196    13313    12440    12062    12671    13143    13035    12602 
   12529    12941    12789    12280    12532    13135    13074    12507 
   12475    13015    13001    12661    12954    13142    12409    11761 
   12402    13628    13672    12355    11573    12791    14200    13209 
   11535    12096    13574    13471    12429    12312    12838    12781 
   12336    12334    13042    13583    13022    12370    12577    12866 
   12830    12491    12152    12784    13427    12610    12124    13155 
   13448    12307    12120    13236    13358    12378    12199    12900 
   13311    12988    12237    12021    12811    13414    12988    12529 
   12704    12873    12604    12299    12615    13278    13217    12528 
   12276    12675    13128    13111    12657    12293    12403    12953 
   13250    12937    12742    12734    12533    12615    12852    12656 
   12406    12586    13116    13332    12721    12104    12406    13150 
   13198    12576    12407    12719    12861    13042    13189    12874 
   12367    12210    12621    12947    12606    12465    12939    13100 
   12873    12842    12906    12757    12544    12538    12631    12810 
   12918    12625    12569    12988    12904    12607    12870    12999 
   12687    12553    12667    12761    12833    12704    12329    12501 
   13217    13279    12852    12849    12729    12210    12283    12920 
   13261    13070    12395    12035    12900    13716    13000    12040 
   12383    13151    13014    12421    12332    12725    13142    13062 
   12540    12401    12760    12904    12754    12731    12839    12969 
   12820    12372    12627    13236    12764    12307    12922    13107 
   12644    12677    12815    12580    12483    12634    12820    12955 
   12862    12609    12600    12889    12916    12519    12447    12985 
   13243    12837    12559    12684    12812    12756    12510    12417 
   12710    13055    13023    12656    12661    13043    12777    12179 
   12482    13166    13127    12708    12532    12592    12785    12970 
   12883    12548    12523    12964    13081    12591    12434    12869 
   12934    12526    12471    12933    13394    13169    12266    11882 
   12560    13204    12991    12586    12810    13130    12757    12348 
   12657    12977    12696    12592    13022    13089    12700    12552 
   12540    12559    12845    12997    12669    12491    12906    13134 
   12758    12541    12661    12699    12811    12987    12814    12457 
   12403    12754    13132    12969    12432    12405    12955    13150 
   12748    12561    12771    12766    12658    12799    12881    12726 
   12521    12569    12922    12935    12610    12684    12993    12965 
   12550    12294    12663    13066    12964    12769    12775    12775 
   12611    12479    12729    13146    13039    12464    12282    12738 
   13117    12958    12622    12636    12889    12842    12640    12687 
   12727    12675    12669    12622    12847    13224    12935    12333 
   12368    12808    13011    12907    12653    12459    12696    13116 
