Origin Time       2025/02/01 08:16:00
Lat.              33.667
Long.             130.927
Depth. (km)       8
Mag.              3.1
Station Code      OIT005
Station Lat.      33.4524
Station Long.     131.1142
Station Height(m) 113
Record Time       2025/02/01 08:17:01
Sampling Freq(Hz) 100Hz
Duration Time(s)  60
Dir.              N-S
Scale Factor      7845(gal)/8223790
Max. Acc. (gal)   9.036
Last Correction   2025/02/01 08:17:01
Memo.             
[...]
   -3503    -3505    -3500    -3492    -3496    -3505    -3503    -3497 
   -3499    -3497    -3496    -3499    -3504    -3500    -3496    -3497 
   -3495    -3496    -3504    -3508    -3503    -3493    -3493    -3497 
   -3503    -3507    -3503    -3496    -3493    -3495    -3499    -3503 
   -3504    -3499    -3495    -3499    -3501    -3497    -3496    -3501 
   -3504    -3500    -3497    -3499    -3500    -3497    -3491    -3493 
   -3503    -3503    -3504    -3508    -3499    -3485    -3489    -3510 
   -3516    -3504    -3493    -3493    -3501    -3507    -3503    -3496 
   -3497    -3500    -3501    -3500    -3499    -3496    -3493    -3497 
   -3501    -3501    -3503    -3500    -3493    -3495    -3501    -3505 
   -3503    -3499    -3496    -3496    -3501    -3505    -3505    -3501 
   -3497    -3497    -3499    -3500    -3503    -3503    -3499    -3500 
   -3503    -3499    -3501    -3501    -3496    -3499    -3501    -3500 
   -3500    -3500    -3500    -3500    -3501    -3504    -3499    -3496 
   -3497    -3497    -3501    -3503    -3497    -3496    -3499    -3500 
   -3503    -3503    -3499    -3496    -3495    -3497    -3501    -3501 
   -3500    -3501    -3501    -3497    -3496    -3500    -3503    -3500 
   -3500    -3501    -3500    -3497    -3496    -3497    -3503    -3503 
   -3500    -3499    -3495    -3495    -3500    -3505    -3501    -3496 
   -3497    -3500    -3497    -3495    -3497    -3501    -3501    -3501 
   -3503    -3500    -3493    -3497    -3501    -3500    -3500    -3501 
   -3500    -3499    -3497    -3496    -3499    -3503    -3503    -3503 
   -3501    -3497    -3496    -3496    -3499    -3501    -3501    -3500 
   -3500    -3499    -3496    -3500    -3503    -3501    -3501    -3503 
   -3501    -3497    -3497    -3499    -3497    -3501    -3501    -3499 
   -3499    -3499    -3499    -3499    -3499    -3500    -3500    -3500 
   -3500    -3500    -3500    -3500    -3499    -3500    -3503    -3501 
   -3497    -3497    -3500    -3501    -3500    -3501    -3503    -3501 
   -3500    -3497    -3499    -3497    -3499    -3501    -3501    -3500 
   -3499    -3495    -3497    -3501    -3499    -3501    -3504    -3499 
   -3495    -3497    -3500    -3499    -3497    -3500    -3501    -3499 
   -3497    -3500    -3501    -3501    -3500    -3499    -3499    -3500 
   -3500    -3500    -3500    -3497    -3499    -3500    -3499    -3500 
   -3501    -3499    -3499    -3501    -3499    -3497    -3501    -3501 
   -3496    -3497    -3504    -3505    -3500    -3496    -3496    -3497 
   -3499    -3500    -3501    -3499    -3495    -3496    -3500    -3501 
   -3500    -3499    -3497    -3499    -3501    -3500    -3499    -3499 
   -3497    -3499    -3499    -3499    -3503    -3500    -3493    -3496 
   -3500    -3500    -3499    -3500    -3497    -3496    -3499    -3501 
   -3499    -3497    -3497    -3495    -3496    -3505    -3504    -3500 
   -3500    -3497    -3496    -3500    -3504    -3503    -3497    -3492 
   -3495    -3503    -3504    -3503    -3503    -3497    -3493    -3496 
   -3499    -3501    -3500    -3497    -3500    -3503    -3497    -3495 
   -3503    -3505    -3499    -3496    -3503    -3505    -3499    -3495 
   -3501    -3504    -3500    -3501    -3503    -3501    -3499    -3499 
   -3497    -3497    -3499    -3500    -3504    -3504    -3496    -3493 
   -3499    -3499    -3500    -3504    -3503    -3495    -3493    -3497 
   -3504    -3507    -3503    -3495    -3493    -3495    -3500    -3507 
   -3505    -3496    -3491    -3495    -3501    -3503    -3503    -3500 
   -3497    -3497    -3500    -3500    -3499    -3501    -3500    -3496 
   -3499    -3503    -3500    -3499    -3499    -3499    -3497    -3500 
   -3503    -3500    -3499    -3497    -3495    -3501    -3504    -3499 
   -3496    -3497    -3499    -3503    -3501    -3496    -3497    -3499 
   -3497    -3499    -3503    -3503    -3500    -3497    -3497    -3499 
   -3500    -3501    -3499    -3497    -3499    -3497    -3501    -3504 
   -3499    -3495    -3500    -3501    -3500    -3499    -3499    -3500 
   -3500    -3497    -3496    -3499    -3501    -3500    -3497    -3495 
   -3499    -3504    -3501    -3499    -3500    -3497    -3499    -3500 
   -3500    -3501    -3499    -3497    -3501    -3500    -3499    -3499 
   -3496    -3499    -3500    -3497    -3499    -3501    -3500    -3500 
   -3497    -3497    -3496    -3496    -3501    -3501    -3500    -3501 
   -3500    -3496    -3495    -3500    -3504    -3503    -3503    -3499 
   -3492    -3499    -3504    -3500    -3499    -3499    -3499    -3497 
   -3497    -3497    -3499    -3499    -3501    -3503    -3497    -3496 
   -3499    -3499    -3499    -3503    -3503    -3499    -3496    -3493 
   -3496    -3501    -3504    -3503    -3503    -3500    -3493    -3492 
   -3497    -3503    -3503    -3501    -3500    -3496    -3496    -3499 
   -3500    -3500    -3504    -3504    -3499    -3495    -3493    -3496 
   -3501    -3507    -3504    -3496    -3495    -3497    -3501    -3500 
   -3499    -3501    -3503    -3503    -3504    -3496    -3489    -3495 
   -3504    -3508    -3507    -3500    -3493    -3492    -3497    -3501 
   -3503    -3504    -3501    -3493    -3492    -3499    -3497    -3499 
   -3505    -3505    -3499    -3496    -3497    -3499    -3499    -3499 
   -3501    -3504    -3500    -3500    -3499    -3493    -3501    -3503 
   -3499    -3505    -3504    -3495    -3496    -3501    -3499    -3499 
   -3504    -3504    -3497    -3496    -3499    -3500    -3497    -3500 
   -3501    -3501    -3501    -3499    -3497    -3500    -3503    -3503 
   -3497    -3496    -3500    -3500    -3497    -3500    -3501    -3501 
   -3503    -3503    -3503    -3501    -3496    -3495    -3501    -3501 
   -3500    -3503    -3500    -3497    -3503    -3499    -3493    -3497 
   -3501    -3503    -3501    -3499    -3500    -3499    -3499    -3503 
   -3500    -3496    -3501    -3503    -3497    -3500    -3501    -3496 
   -3496    -3499    -3501    -3500    -3497    -3500    -3503    -3500 
   -3497    -3499    -3499    -3499    -3500    -3500    -3500    -3497 
   -3495    -3501    -3503    -3496    -3496    -3497    -3496    -3497 
   -3500    -3500    -3500    -3499    -3501    -3501    -3497    -3496 
   -3500    -3501    -3501    -3501    -3496    -3499    -3504    -3499 
   -3499    -3504    -3499    -3496    -3501    -3499    -3495    -3499 
   -3504    -3504    -3499    -3497    -3499    -3497    -3497    -3500 
   -3503    -3503    -3500    -3496    -3496    -3500    -3501    -3499 
   -3500    -3501    -3499    -3497    -3497    -3499    -3500    -3500 
   -3503    -3500    -3499    -3500    -3497    -3497    -3499    -3503 
   -3504    -3499    -3496    -3499    -3499    -3497    -3501    -3503 
   -3496    -3496    -3500    -3499    -3499    -3503    -3501    -3497 
   -3496    -3501    -3504    -3501    -3501    -3501    -3500    -3499 
   -3500    -3497    -3497    -3501    -3503    -3497    -3496    -3497 
   -3500    -3500    -3496    -3496    -3501    -3505    -3500    -3495 
   -3495    -3497    -3501    -3507    -3504    -3499    -3495    -3495 
   -3497    -3500    -3504    -3505    -3501    -3497    -3497    -3501 
   -3501    -3500    -3503    -3504    -3500    -3497    -3496    -3493 
   -3496    -3501    -3503    -3499    -3499    -3500    -3500    -3497 
   -3496    -3501    -3505    -3500    -3497    -3499    -3499    -3496 
   -3499    -3504    -3504    -3501    -3500    -3497    -3497    -3500 
   -3500    -3500    -3501    -3501    -3499    -3497    -3496    -3497 
   -3497    -3499    -3500    -3500    -3500    -3499    -3499    -3501 
   -3500    -3499    -3500    -3499    -3496    -3499    -3501    -3497 
   -3497    -3501    -3500    -3497    -3499    -3497    -3497    -3500 
   -3501    -3501    -3500    -3499    -3500    -3499    -3499    -3503 
   -3500    -3496    -3497    -3503    -3504    -3500    -3495    -3497 
   -3501    -3499    -3501    -3505    -3500    -3497    -3496    -3500 
   -3504    -3497    -3496    -3504    -3501    -3496    -3499    -3504 
   -3501    -3496    -3500    -3501    -3500    -3501    -3499    -3496 
   -3500    -3503    -3500    -3495    -3499    -3504    -3500    -3496 
   -3500    -3504    -3500    -3495    -3496    -3500    -3504    -3503 
   -3497    -3493    -3497    -3500    -3501    -3503    -3503    -3499 
   -3497    -3497    -3496    -3497    -3504    -3501    -3497    -3496 
   -3492    -3495    -3504    -3503    -3501    -3504    -3496    -3491 
   -3499    -3501    -3497    -3499    -3500    -3503    -3501    -3493 
   -3495    -3505    -3503    -3496    -3501    -3504    -3499    -3495 
   -3496    -3501    -3504    -3501    -3500    -3501    -3499    -3497 
   -3496    -3496    -3505    -3507    -3495    -3489    -3496    -3504 
   -3503    -3499    -3499    -3497    -3496    -3496    -3500    -3503 
   -3504    -3500    -3492    -3491    -3500    -3507    -3503    -3496 
   -3493    -3497    -3501    -3504    -3503    -3499    -3499    -3497 
   -3496    -3497    -3500    -3501    -3499    -3496    -3497    -3499 
   -3499    -3499    -3500    -3501    -3501    -3500    -3497    -3496 
   -3500    -3501    -3497    -3497    -3501    -3501    -3501    -3501 
   -3499    -3495    -3495    -3501    -3504    -3500    -3497    -3499 
   -3500    -3500    -3500    -3500    -3499    -3497    -3499    -3501 
   -3501    -3496    -3495    -3500    -3499    -3499    -3501    -3503 
   -3500    -3497    -3496    -3499    -3500    -3499    -3500    -3499 
   -3497    -3497    -3499    -3503    -3504    -3501    -3496    -3492 
   -3495    -3500    -3504    -3504    -3499    -3495    -3495    -3497 
   -3499    -3499    -3500    -3500    -3501    -3501    -3500    -3495 
   -3495    -3501    -3507    -3504    -3497    -3497    -3499    -3497 
   -3500    -3504    -3499    -3500    -3526    -3600    -3759    -3902 
   -3699    -2980    -2446    -2930    -3597    -3379    -3519    -4580 
   -4819    -4274    -3352    -1499    -1556    -4276    -4687    -3267 
   -4241    -4711    -2902    -2866    -3161    -1117    -1563    -5498 
   -7325    -6559    -4784     -417     2654     -882    -5667    -6532 
   -6581    -5682    -1988      145    -1620    -3612    -4676    -5560 
   -4390    -2200    -2245    -3245    -3734    -4700    -4630    -3140 
   -3064    -3400    -1888    -1300    -3765    -6195    -6334    -5285 
   -3053      182     1097    -2115    -6508    -8468    -6693    -2560 
     353      205    -1694    -4414    -7159    -7187    -4345    -2112 
   -1077     -398    -1645    -4683    -6821    -6678    -4772    -1956 
     247     -303    -3445    -6635    -7288    -4623    -1264     -371 
   -1846    -3670    -5071    -6265    -5849    -2913     -433    -1085 
   -3110    -4390    -5328    -5448    -3603    -1572    -1564    -3042 
   -4541    -5296    -5026    -3588    -1863    -1495    -2647    -4124 
   -4978    -4895    -3966    -2857    -2339    -2408    -2979    -4075 
   -4810    -4325    -3443    -3019    -2782    -3238    -4180    -3816 
   -2700    -2759    -3678    -4216    -3927    -3412    -3362    -3487 
   -3742    -3874    -3015    -2354    -3476    -4810    -4417    -3024 
   -2195    -2521    -3507    -4430    -5174    -4901    -2986    -1293 
   -1560    -3144    -4552    -5019    -4692    -3858    -2964    -2589 
   -2762    -3184    -3487    -3709    -4145    -4244    -3720    -3245 
   -2928    -2515    -2606    -3708    -4837    -4989    -4301    -3095 
   -2110    -1987    -2552    -3746    -5065    -5316    -4433    -3248 
   -2004    -1277    -2066    -4095    -5813    -5699    -4006    -2496 
   -1750    -1771    -3072    -4780    -5324    -4495    -3123    -2232 
   -2340    -3117    -3846    -4159    -4129    -3828    -3419    -3325 
   -3562    -3658    -3187    -2500    -2837    -4035    -4495    -4222 
   -3866    -3171    -2587    -2810    -3303    -3619    -4104    -4459 
   -4013    -2895    -2166    -2852    -3963    -4047    -3931    -4081 
   -3713    -3118    -2732    -2934    -3734    -3834    -3484    -3838 
   -3842    -3067    -3156    -3917    -3655    -3094    -3387    -3730 
   -3678    -3497    -3260    -3059    -3265    -3983    -4166    -3634 
   -3510    -3443    -2764    -2623    -3730    -4419    -4005    -3898 
   -3646    -2525    -2226    -3403    -4536    -4434    -3466    -3048 
   -3323    -3225    -3156    -3569    -3771    -3933    -4086    -3680 
   -3005    -2504    -2610    -3527    -4383    -4565    -4440    -3724 
   -2386    -1972    -2929    -3721    -3775    -4276    -4876    -3940 
   -2625    -2663    -3187    -3306    -3231    -3321    -4112    -4719 
   -3619    -2737    -3558    -3522    -2604    -3254    -4298    -4070 
   -3777    -3676    -2830    -2328    -3279    -4136    -4118    -4145 
   -3550    -2523    -2813    -3905    -4260    -3790    -3102    -2612 
   -3127    -4530    -4774    -3456    -2500    -2575    -3042    -3871 
   -4544    -4141    -3190    -2802    -3211    -3528    -3497    -3724 
   -3624    -3171    -3642    -4477    -3898    -2662    -2667    -3456 
   -4213    -4608    -3554    -1741    -1709    -3289    -4186    -4941 
   -5899    -4795    -2363    -1081    -1259    -2658    -4742    -6579 
   -7346    -6416    -3970     -395     3303     3894      -98    -5088 
   -8209    -9884    -9347    -5765    -1717      369       68    -2169 
   -3267    -2637    -3721    -5124    -4866    -5105    -5192    -4432 
   -3311     -351     1269    -1547    -4575    -6519    -8845    -8332 
   -3893     1555     5625     4183    -4425   -12676   -12972    -7663 
   -2154     2344     4463     1760    -4553    -9755   -10066    -6930 
   -3358      464     2295      423    -2407    -6143    -9721    -7728 
   -2041      490     -692    -3087    -5273    -5861    -4249    -2118 
   -2459    -3700    -3381    -3808    -4226    -3487    -3350    -2539 
   -2010    -3234    -4313    -5998    -6878    -3754       94     1150 
    -260    -4283    -8649    -9001    -6123    -2556     1409     2722 
    -183    -3927    -8014   -11726    -9698    -1953     4334     5152 
    1178    -6151   -11853   -10435    -4673     -141     1597     -214 
   -3929    -5796    -5514    -4272    -2941    -2569    -2624    -2913 
   -3807    -4423    -4939    -5190    -3485    -1486    -1512    -2420 
   -3719    -4681    -4176    -3508    -3069    -2732    -3330    -4872 
   -6164    -5266    -2442       99      594    -1771    -5629    -8460 
   -7943    -4243     -859      437      452    -1502    -5274    -7217 
   -6551    -5547    -2975      461      276    -3217    -6165    -7013 
   -6087    -3622     -878      -32    -1227    -4114    -7334    -6806 
   -2600      417      -93    -2930    -5896    -7592    -6926    -3376 
     133      378    -1752    -4164    -5888    -6435    -5800    -3731 
    -901      163    -1285    -3828    -6431    -7037    -4750    -2234 
   -1144    -1399    -2612    -3954    -5348    -5452    -3696    -3192 
   -3851    -2794    -1464    -1966    -3588    -4845    -4932    -4757 
   -4448    -2965    -1532    -1786    -3092    -4232    -4672    -4811 
   -4984    -4202    -2393    -1402    -1818    -2540    -3493    -4822 
   -5483    -4904    -3302    -1611    -1678    -3564    -5069    -5040 
   -3747    -2215    -2335    -3792    -4062    -3443    -3855    -4137 
   -2959    -2116    -2898    -3690    -3507    -4006    -5409    -5327 
   -3375    -1463     -966    -2505    -5015    -6052    -4725    -2389 
   -1198    -1957    -3331    -4340    -5320    -5471    -3809    -2361 
   -2789    -3018    -2226    -2667    -4240    -4900    -4510    -3555 
   -2702    -2905    -3485    -3528    -3721    -4082    -3505    -2799 
   -3481    -4183    -3439    -2809    -3010    -3021    -3456    -4502 
   -4726    -4106    -3217    -2241    -2176    -3254    -4217    -4440 
   -4264    -3928    -3210    -1989    -1788    -3662    -5464    -5665 
   -4675    -2799    -1294    -1113    -2006    -3855    -5710    -6085 
   -4850    -3100    -1846    -1420    -2096    -3834    -5240    -5202 
   -4108    -2906    -2751    -3275    -2866    -2052    -2666    -4552 
   -5548    -4814    -3704    -2644    -1869    -2643    -4009    -4379 
   -4197    -3342    -2350    -3067    -4440    -4225    -3230    -2965 
   -2941    -2930    -3819    -5032    -4806    -3164    -2155    -2880 
   -3815    -3592    -3052    -3042    -3458    -4018    -4307    -4071 
   -3474    -2983    -2829    -2732    -3060    -4310    -4968    -4178 
   -3446    -3061    -2481    -2315    -2833    -3669    -4588    -4904 
   -4189    -3356    -2906    -2544    -2520    -3171    -4148    -4413 
   -3757    -3132    -3137    -3804    -4129    -3632    -3481    -3445 
   -2895    -3032    -3870    -3881    -3196    -3111    -3456    -3437 
   -3619    -3979    -3661    -3511    -3723    -3276    -2809    -2983 
   -3322    -3628    -4225    -4779    -4395    -3395    -2417    -1803 
   -2466    -4064    -4895    -4842    -4345    -2884    -1602    -2239 
   -3962    -4912    -4622    -3688    -2367    -1633    -2743    -4336 
   -4812    -4509    -3797    -3242    -3171    -3002    -2768    -2821 
   -3416    -4453    -4664    -3785    -3118    -2982    -2795    -2641 
   -3295    -4509    -4712    -3843    -3318    -3199    -3179    -3618 
   -3692    -3024    -2999    -3526    -3574    -3727    -4274    -4348 
   -3550    -2398    -2026    -2812    -3824    -4500    -4772    -4388 
   -3569    -2897    -2498    -2273    -2728    -4090    -4951    -4479 
   -3809    -3102    -1898    -1451    -2745    -4927    -6208    -5418 
   -3468    -1962    -1490    -2180    -3543    -4541    -4760    -4463 
   -3750    -2632    -2124    -2948    -3883    -4028    -3892    -3943 
   -4206    -4068    -3213    -2471    -2170    -2209    -3177    -4834 
   -5761    -5215    -3643    -1977    -1277    -1873    -3334    -5185 
   -5989    -4774    -2945    -1788    -1440    -2382    -4445    -5728 
   -5188    -3790    -2184    -1302    -2362    -4023    -4610    -4530 
   -4125    -3443    -2829    -2371    -2520    -3604    -4783    -5132 
   -4365    -2787    -1799    -2439    -3503    -3978    -4394    -4314 
   -3396    -2839    -3169    -3677    -3508    -3061    -3403    -3967 
   -3808    -3304    -3261    -3588    -3527    -3369    -3635    -3893 
   -3715    -3111    -2855    -3384    -3959    -4255    -4047    -2872 
   -1918    -2693    -4293    -5073    -4731    -3595    -2481    -2236 
   -2582    -3160    -4199    -5082    -4687    -3411    -2525    -2344 
   -2825    -3786    -4302    -4017    -3458    -3032    -3069    -3485 
   -3825    -3865    -3624    -3412    -3368    -3316    -3316    -3487 
   -3713    -3676    -3392    -3397    -3547    -3358    -3350    -3748 
   -3842    -3739    -3758    -3343    -2805    -2886    -3277    -3732 
   -4409    -4611    -3438    -2088    -2158    -3045    -4205    -5266 
   -4881    -3397    -2417    -2234    -2650    -3504    -4240    -4378 
   -4207    -4054    -3322    -2315    -2177    -2837    -3916    -4919 
   -4842    -3759    -2782    -2492    -2710    -3068    -3626    -4587 
   -5057    -4104    -2506    -1691    -2496    -4095    -4760    -4356 
   -3538    -2720    -2542    -3218    -4128    -4290    -3736    -3426 
   -3253    -2914    -3181    -3913    -4014    -3593    -3392    -3314 
   -3028    -3079    -3613    -3815    -3851    -3981    -3635    -3186 
