Origin Time       2025/01/26 08:11:00
Lat.              34.975
Long.             138.213
Depth. (km)       21
Mag.              3.4
Station Code      SZO014
Station Lat.      34.9649
Station Long.     138.3741
Station Height(m) 19
Record Time       2025/01/26 08:11:37
Sampling Freq(Hz) 100Hz
Duration Time(s)  60
Dir.              N-S
Scale Factor      7845(gal)/8223790
Max. Acc. (gal)   7.141
Last Correction   2025/01/26 08:11:37
Memo.             
[...]
   -3681    -3690    -3703    -3705    -3696    -3682    -3678    -3685 
   -3704    -3712    -3693    -3686    -3696    -3697    -3699    -3697 
   -3685    -3677    -3688    -3696    -3701    -3704    -3689    -3684 
   -3700    -3700    -3692    -3694    -3699    -3696    -3692    -3686 
   -3689    -3694    -3697    -3699    -3697    -3692    -3689    -3697 
   -3699    -3684    -3684    -3697    -3693    -3685    -3694    -3704 
   -3700    -3688    -3688    -3696    -3704    -3704    -3692    -3685 
   -3690    -3684    -3681    -3700    -3712    -3697    -3690    -3696 
   -3693    -3690    -3700    -3696    -3686    -3689    -3693    -3696 
   -3696    -3689    -3699    -3705    -3685    -3680    -3696    -3703 
   -3700    -3697    -3681    -3678    -3703    -3707    -3690    -3689 
   -3684    -3681    -3703    -3707    -3696    -3699    -3692    -3677 
   -3686    -3693    -3697    -3712    -3704    -3685    -3690    -3700 
   -3700    -3699    -3689    -3680    -3685    -3696    -3703    -3700 
   -3689    -3690    -3694    -3684    -3688    -3694    -3688    -3699 
   -3703    -3689    -3696    -3697    -3689    -3694    -3696    -3688 
   -3684    -3686    -3704    -3707    -3690    -3693    -3699    -3688 
   -3689    -3705    -3693    -3682    -3703    -3689    -3673    -3700 
   -3709    -3701    -3692    -3681    -3688    -3693    -3696    -3701 
   -3694    -3689    -3690    -3689    -3689    -3690    -3703    -3707 
   -3694    -3689    -3689    -3689    -3696    -3701    -3697    -3689 
   -3689    -3701    -3701    -3692    -3692    -3693    -3692    -3693 
   -3688    -3686    -3700    -3701    -3686    -3690    -3703    -3690 
   -3684    -3697    -3700    -3689    -3682    -3689    -3708    -3712 
   -3699    -3685    -3685    -3686    -3692    -3703    -3703    -3689 
   -3689    -3696    -3693    -3692    -3694    -3699    -3692    -3686 
   -3699    -3701    -3685    -3690    -3701    -3700    -3699    -3690 
   -3686    -3690    -3688    -3694    -3712    -3711    -3699    -3678 
   -3670    -3685    -3700    -3701    -3705    -3705    -3689    -3681 
   -3696    -3701    -3692    -3693    -3700    -3703    -3693    -3684 
   -3693    -3704    -3700    -3689    -3682    -3686    -3690    -3694 
   -3704    -3705    -3699    -3690    -3688    -3693    -3690    -3690 
   -3704    -3703    -3688    -3688    -3694    -3694    -3697    -3701 
   -3696    -3684    -3681    -3684    -3697    -3720    -3715    -3682 
   -3672    -3685    -3690    -3696    -3709    -3705    -3686    -3676 
   -3682    -3701    -3715    -3705    -3694    -3690    -3681    -3682 
   -3701    -3708    -3697    -3689    -3685    -3678    -3686    -3707 
   -3705    -3694    -3690    -3682    -3684    -3700    -3701    -3697 
   -3693    -3685    -3688    -3694    -3699    -3693    -3690    -3700 
   -3696    -3690    -3703    -3701    -3686    -3689    -3699    -3697 
   -3685    -3685    -3699    -3705    -3694    -3686    -3689    -3690 
   -3693    -3699    -3696    -3697    -3708    -3703    -3689    -3681 
   -3677    -3693    -3709    -3697    -3690    -3694    -3690    -3697 
   -3700    -3690    -3684    -3682    -3688    -3692    -3700    -3712 
   -3697    -3681    -3692    -3689    -3678    -3696    -3703    -3693 
   -3707    -3708    -3681    -3685    -3704    -3694    -3693    -3703 
   -3703    -3699    -3685    -3681    -3692    -3699    -3704    -3694 
   -3684    -3690    -3684    -3677    -3693    -3704    -3700    -3694 
   -3689    -3692    -3704    -3700    -3688    -3694    -3699    -3692 
   -3696    -3697    -3690    -3688    -3689    -3696    -3711    -3709 
   -3689    -3682    -3692    -3688    -3678    -3692    -3713    -3707 
   -3689    -3688    -3689    -3690    -3696    -3694    -3696    -3696 
   -3686    -3690    -3705    -3703    -3693    -3692    -3690    -3692 
   -3703    -3700    -3689    -3689    -3686    -3686    -3707    -3715 
   -3700    -3689    -3692    -3694    -3694    -3697    -3693    -3688 
   -3694    -3694    -3692    -3697    -3694    -3684    -3685    -3694 
   -3696    -3692    -3696    -3699    -3688    -3689    -3701    -3699 
   -3688    -3684    -3693    -3705    -3699    -3686    -3688    -3696 
   -3703    -3697    -3688    -3685    -3689    -3705    -3704    -3685 
   -3681    -3686    -3699    -3712    -3703    -3681    -3676    -3685 
   -3699    -3705    -3700    -3690    -3693    -3689    -3678    -3692 
   -3703    -3690    -3686    -3697    -3708    -3712    -3700    -3684 
   -3681    -3685    -3686    -3692    -3701    -3708    -3707    -3697 
   -3678    -3680    -3701    -3700    -3690    -3699    -3699    -3692 
   -3694    -3694    -3686    -3689    -3694    -3694    -3696    -3705 
   -3699    -3684    -3682    -3686    -3686    -3693    -3700    -3701 
   -3703    -3696    -3684    -3686    -3694    -3697    -3704    -3705 
   -3692    -3689    -3697    -3694    -3696    -3696    -3685    -3693 
   -3709    -3699    -3689    -3699    -3692    -3676    -3685    -3700 
   -3704    -3701    -3688    -3684    -3696    -3703    -3700    -3692 
   -3684    -3684    -3696    -3703    -3701    -3700    -3697    -3688 
   -3680    -3686    -3694    -3696    -3696    -3693    -3690    -3696 
   -3699    -3700    -3699    -3690    -3686    -3689    -3699    -3705 
   -3699    -3696    -3696    -3690    -3689    -3693    -3699    -3704 
   -3700    -3692    -3689    -3686    -3684    -3689    -3701    -3696 
   -3685    -3697    -3705    -3693    -3688    -3692    -3693    -3690 
   -3694    -3701    -3708    -3704    -3681    -3669    -3688    -3709 
   -3711    -3699    -3682    -3682    -3694    -3696    -3689    -3697 
   -3704    -3688    -3685    -3705    -3705    -3686    -3678    -3689 
   -3705    -3703    -3688    -3693    -3696    -3685    -3697    -3705 
   -3690    -3688    -3704    -3705    -3684    -3678    -3696    -3699 
   -3688    -3703    -3717    -3692    -3667    -3684    -3704    -3703 
   -3694    -3690    -3694    -3700    -3697    -3694    -3681    -3681 
   -3707    -3707    -3688    -3693    -3701    -3696    -3681    -3676 
   -3700    -3708    -3692    -3696    -3705    -3686    -3672    -3680 
   -3699    -3713    -3709    -3699    -3696    -3696    -3688    -3685 
   -3689    -3686    -3688    -3707    -3712    -3697    -3690    -3689 
   -3686    -3696    -3703    -3685    -3674    -3694    -3709    -3704 
   -3689    -3681    -3693    -3699    -3689    -3694    -3699    -3692 
   -3693    -3703    -3701    -3682    -3676    -3696    -3711    -3700 
   -3692    -3701    -3699    -3686    -3690    -3693    -3686    -3697 
   -3700    -3689    -3689    -3688    -3690    -3699    -3693    -3690 
   -3703    -3705    -3699    -3690    -3681    -3682    -3693    -3700 
   -3696    -3700    -3704    -3696    -3693    -3693    -3680    -3674 
   -3699    -3716    -3699    -3680    -3688    -3696    -3696    -3700 
   -3697    -3697    -3699    -3684    -3674    -3694    -3711    -3704 
   -3696    -3694    -3694    -3700    -3700    -3686    -3684    -3689 
   -3692    -3704    -3708    -3685    -3684    -3704    -3699    -3684 
   -3684    -3692    -3701    -3705    -3693    -3678    -3686    -3712 
   -3708    -3678    -3677    -3700    -3708    -3699    -3692    -3689 
   -3684    -3686    -3703    -3709    -3696    -3685    -3694    -3694 
   -3678    -3692    -3707    -3693    -3690    -3693    -3684    -3688 
   -3699    -3700    -3696    -3684    -3682    -3707    -3712    -3692 
   -3686    -3692    -3696    -3707    -3700    -3681    -3686    -3699 
   -3699    -3699    -3699    -3701    -3699    -3688    -3688    -3686 
   -3685    -3699    -3697    -3685    -3689    -3697    -3694    -3694 
   -3694    -3696    -3701    -3696    -3684    -3690    -3697    -3697 
   -3700    -3694    -3689    -3693    -3685    -3682    -3694    -3693 
   -3692    -3709    -3713    -3690    -3673    -3684    -3699    -3696 
   -3694    -3701    -3705    -3700    -3681    -3674    -3689    -3697 
   -3694    -3696    -3699    -3700    -3701    -3700    -3684    -3676 
   -3693    -3703    -3697    -3696    -3688    -3684    -3696    -3699 
   -3692    -3692    -3700    -3704    -3701    -3692    -3682    -3686 
   -3694    -3693    -3699    -3703    -3694    -3688    -3685    -3692 
   -3704    -3697    -3692    -3697    -3693    -3685    -3689    -3697 
   -3699    -3692    -3690    -3694    -3692    -3690    -3690    -3689 
   -3696    -3704    -3703    -3697    -3693    -3690    -3699    -3709 
   -3696    -3682    -3696    -3693    -3680    -3693    -3708    -3694 
   -3678    -3688    -3708    -3711    -3694    -3673    -3674    -3705 
   -3719    -3701    -3684    -3678    -3689    -3709    -3709    -3694 
   -3685    -3689    -3699    -3697    -3692    -3685    -3680    -3689 
   -3699    -3694    -3696    -3697    -3694    -3693    -3694    -3703 
   -3704    -3693    -3688    -3689    -3697    -3703    -3694    -3693 
   -3694    -3693    -3694    -3693    -3694    -3696    -3685    -3681 
   -3697    -3707    -3697    -3693    -3689    -3681    -3690    -3696 
   -3686    -3689    -3699    -3700    -3705    -3703    -3690    -3690 
   -3692    -3692    -3696    -3696    -3688    -3688    -3703    -3708 
   -3692    -3682    -3682    -3692    -3708    -3700    -3684    -3692 
   -3701    -3694    -3690    -3690    -3692    -3696    -3699    -3692 
   -3692    -3707    -3697    -3667    -3678    -3705    -3708    -3699 
   -3692    -3692    -3703    -3699    -3682    -3686    -3693    -3692 
   -3694    -3703    -3707    -3700    -3678    -3676    -3700    -3703 
   -3694    -3699    -3690    -3686    -3700    -3700    -3696    -3694 
   -3692    -3699    -3701    -3688    -3684    -3692    -3689    -3688 
   -3699    -3697    -3688    -3690    -3692    -3690    -3699    -3700 
   -3700    -3697    -3685    -3688    -3699    -3694    -3701    -3704 
   -3680    -3677    -3703    -3701    -3686    -3692    -3693    -3690 
   -3696    -3693    -3696    -3703    -3686    -3677    -3690    -3699 
   -3697    -3690    -3697    -3708    -3694    -3684    -3690    -3694 
   -3704    -3715    -3705    -3684    -3666    -3665    -3677    -3680 
   -3672    -3684    -3686    -3654    -3703    -3762    -3676    -3630 
   -3713    -3728    -3754    -3851    -3775    -3690    -3802    -3688 
   -3408    -3568    -3842    -3761    -3720    -3839    -3758    -3443 
   -3221    -3287    -3330    -3365    -3844    -4322    -4359    -4348 
   -3994    -3260    -3186    -3564    -3611    -3727    -4040    -4068 
   -3704    -3442    -3704    -3809    -3461    -3481    -3739    -3696 
   -3635    -3643    -3534    -3427    -3499    -3663    -3843    -4093 
   -4225    -4058    -3759    -3576    -3554    -3599    -3642    -3603 
   -3508    -3600    -3839    -3898    -3835    -3869    -3774    -3385 
   -3169    -3464    -3692    -3379    -3188    -3534    -3919    -4210 
   -4302    -3927    -3578    -3592    -3613    -3607    -3766    -3937 
   -3890    -3732    -3608    -3492    -3576    -3840    -3724    -3384 
   -3623    -4045    -3881    -3601    -3507    -3281    -3208    -3465 
   -3667    -3767    -3940    -4050    -3969    -3855    -3794    -3747 
   -3769    -3793    -3680    -3608    -3739    -3800    -3680    -3646 
   -3727    -3726    -3645    -3573    -3456    -3365    -3535    -3766 
   -3689    -3597    -3800    -3982    -3989    -3978    -3919    -3732 
   -3531    -3515    -3627    -3554    -3334    -3346    -3577    -3724 
   -3821    -3913    -3804    -3701    -3847    -3936    -3824    -3716 
   -3670    -3662    -3686    -3705    -3662    -3492    -3272    -3265 
   -3596    -3997    -4050    -3794    -3666    -3680    -3611    -3682 
   -3870    -3739    -3489    -3484    -3508    -3549    -3858    -4218 
   -4256    -4000    -3708    -3418    -3175    -3364    -3855    -3906 
   -3626    -3797    -4297    -4325    -3829    -3476    -3431    -3315 
   -3214    -3361    -3505    -3545    -3636    -3692    -3665    -3697 
   -3742    -3667    -3487    -3373    -3464    -3551    -3555    -3792 
   -4182    -4392    -4472    -4425    -4171    -3817    -3458    -3218 
   -3229    -3402    -3580    -3699    -3688    -3522    -3446    -3651 
   -3820    -3754    -3728    -3765    -3693    -3704    -3875    -3901 
   -3715    -3568    -3580    -3694    -3778    -3730    -3612    -3524 
   -3441    -3399    -3481    -3628    -3775    -3947    -4027    -3858 
   -3682    -3804    -3923    -3688    -3418    -3403    -3424    -3403 
   -3532    -3767    -3919    -3935    -3851    -3802    -3850    -3816 
   -3642    -3564    -3659    -3704    -3713    -3851    -3917    -3767 
   -3616    -3603    -3662    -3720    -3728    -3640    -3514    -3487 
   -3578    -3724    -3835    -3802    -3694    -3574    -3427    -3434 
   -3673    -3905    -4002    -4018    -3962    -3825    -3666    -3550 
   -3451    -3364    -3438    -3653    -3767    -3777    -3775    -3719 
   -3730    -3923    -4029    -3855    -3627    -3558    -3589    -3636 
   -3655    -3591    -3515    -3546    -3631    -3678    -3744    -3838 
   -3794    -3553    -3330    -3370    -3628    -3862    -3917    -3859 
   -3815    -3812    -3883    -4041    -4104    -3913    -3611    -3438 
   -3422    -3449    -3472    -3450    -3424    -3558    -3800    -3932 
   -3936    -3890    -3807    -3731    -3717    -3747    -3736    -3682 
   -3678    -3697    -3758    -4012    -4274    -4271    -4109    -3997 
   -4149    -4838    -5940    -6885    -7190    -6627    -5186    -3253 
   -1474     -199      951     2488     3792     3442      984    -2592 
   -5930    -8025    -8534    -7886    -6559    -4779    -3164    -2316 
   -1842    -1134     -579     -884    -1993    -3523    -5258    -6817 
   -7695    -7836    -7678    -7391    -6736    -5795    -4618    -2828 
    -793      409      251    -1348    -3955    -5958    -5933    -4311 
   -2513    -1451    -1518    -2875    -5059    -6573    -5940    -3669 
   -1881    -1991    -3565    -4923    -4897    -3908    -2841    -2061 
   -1622    -1583    -2193    -3487    -4837    -5665    -5903    -5379 
   -4060    -2864    -2593    -2821    -3094    -3784    -4982    -5795 
   -5363    -4009    -2678    -1949    -1999    -2635    -3476    -4334 
   -5096    -5644    -5786    -5293    -4297    -3084    -1849     -973 
    -839    -1428    -2506    -3836    -4951    -5374    -5186    -4827 
   -4514    -4225    -3792    -3079    -2533    -2781    -3674    -4656 
   -5378    -5508    -4749    -3349    -2145    -1718    -1931    -2531 
   -3325    -3967    -4276    -4401    -4585    -4882    -5046    -4826 
   -4203    -3391    -2787    -2575    -2652    -2998    -3422    -3522 
   -3262    -3032    -3167    -3667    -4256    -4594    -4503    -4116 
   -3623    -3099    -2797    -2995    -3554    -4118    -4465    -4517 
   -4321    -4129    -4163    -4303    -4298    -4067    -3670    -3257 
   -2932    -2682    -2484    -2370    -2465    -2744    -3040    -3462 
   -4093    -4629    -4951    -5132    -5016    -4531    -3848    -3106 
   -2524    -2380    -2794    -3588    -4266    -4573    -4669    -4573 
   -4267    -3981    -3773    -3461    -3018    -2689    -2709    -3009 
   -3348    -3573    -3618    -3565    -3657    -3977    -4347    -4599 
   -4653    -4480    -4167    -3835    -3613    -3531    -3424    -3161 
   -2857    -2802    -3103    -3555    -4005    -4329    -4345    -4164 
   -4008    -3852    -3646    -3477    -3477    -3667    -3897    -4021 
   -4025    -3923    -3727    -3491    -3271    -3161    -3252    -3441 
   -3592    -3670    -3647    -3619    -3713    -3871    -4000    -4039 
   -4001    -3986    -3974    -3898    -3839    -3923    -4190    -4471 
   -4403    -3850    -3119    -2644    -2590    -2754    -2851    -2902 
   -3069    -3335    -3639    -3944    -4149    -4240    -4329    -4392 
   -4293    -4012    -3642    -3281    -3033    -2975    -3144    -3508 
   -3909    -4174    -4230    -4079    -3811    -3626    -3645    -3684 
   -3514    -3284    -3244    -3319    -3435    -3631    -3800    -3847 
   -3871    -3933    -3929    -3828    -3794    -3898    -3937    -3778 
   -3530    -3307    -3156    -3133    -3258    -3515    -3885    -4228 
   -4349    -4230    -4063    -3979    -3952    -3958    -3964    -3906 
   -3802    -3715    -3645    -3580    -3557    -3582    -3574    -3476 
   -3369    -3385    -3537    -3678    -3707    -3676    -3708    -3836 
   -3966    -4059    -4145    -4163    -4024    -3763    -3518    -3364 
   -3294    -3310    -3373    -3395    -3376    -3424    -3595    -3821 
   -3987    -4000    -3893    -3785    -3771    -3852    -3859    -3734 
   -3666    -3678    -3613    -3465    -3352    -3368    -3481    -3646 
   -3863    -3978    -3859    -3613    -3354    -3204    -3283    -3466 
   -3632    -3805    -3893    -3813    -3712    -3694    -3659    -3528 
   -3434    -3472    -3549    -3685    -3942    -4141    -4189    -4187 
   -4144    -4032    -3883    -3680    -3460    -3358    -3439    -3634 
   -3721    -3576    -3393    -3358    -3505    -3854    -4230    -4387 
   -4297    -4043    -3730    -3526    -3543    -3701    -3785    -3688 
   -3516    -3427    -3443    -3519    -3638    -3667    -3511    -3318 
   -3242    -3330    -3565    -3829    -4062    -4261    -4374    -4365 
   -4233    -4029    -3839    -3662    -3466    -3280    -3106    -2984 
   -2983    -3051    -3169    -3400    -3645    -3798    -3927    -4018 
   -3986    -3866    -3771    -3786    -3869    -3892    -3862    -3819 
   -3763    -3762    -3794    -3782    -3794    -3827    -3761    -3666 
   -3645    -3659    -3692    -3736    -3789    -3836    -3821    -3766 
   -3693    -3532    -3353    -3276    -3257    -3287    -3393    -3537 
   -3730    -3940    -4041    -4068    -4089    -4050    -3954    -3832 
   -3650    -3458    -3387    -3449    -3564    -3673    -3719    -3699 
   -3731    -3848    -3912    -3843    -3721    -3645    -3632    -3674 
   -3734    -3707    -3609    -3578    -3634    -3720    -3788    -3765 
   -3682    -3608    -3511    -3392    -3354    -3462    -3655    -3802 
   -3882    -3913    -3842    -3723    -3666    -3647    -3661    -3721 
   -3765    -3746    -3669    -3566    -3505    -3522    -3601    -3696 
   -3746    -3761    -3793    -3855    -3923    -3940    -3852    -3685 
   -3531    -3505    -3657    -3861    -4002    -4086    -4067    -3935 
   -3815    -3773    -3778    -3773    -3674    -3515    -3473    -3584 
   -3724    -3805    -3767    -3596    -3408    -3315    -3334    -3403 
   -3435    -3442    -3454    -3449    -3487    -3589    -3677    -3716 
   -3711    -3688    -3712    -3782    -3858    -3866    -3774    -3676 
   -3639    -3651    -3715    -3797    -3854    -3896    -3881    -3797 
   -3748    -3778    -3807    -3796    -3740    -3639    -3558    -3570 
   -3670    -3793    -3878    -3881    -3800    -3694    -3628    -3650 
   -3719    -3750    -3731    -3682    -3627    -3612    -3640    -3681 
   -3726    -3754    -3736    -3689    -3665    -3661    -3651    -3635 
   -3609    -3596    -3612    -3639    -3640    -3603    -3570    -3581 
   -3630    -3676    -3685    -3719    -3827    -3925    -3913    -3828 
   -3802    -3842    -3867    -3894    -3904    -3827    -3727    -3653 
   -3578    -3523    -3497    -3492    -3510    -3512    -3500    -3504 
   -3520    -3588    -3727    -3840    -3838    -3747    -3670    -3669 
