Origin Time       2025/01/26 08:11:00
Lat.              34.975
Long.             138.213
Depth. (km)       21
Mag.              3.4
Station Code      SZO014
Station Lat.      34.9649
Station Long.     138.3741
Station Height(m) 19
Record Time       2025/01/26 08:11:37
Sampling Freq(Hz) 100Hz
Duration Time(s)  60
Dir.              E-W
Scale Factor      7845(gal)/8223790
Max. Acc. (gal)   12.494
Last Correction   2025/01/26 08:11:37
Memo.             
[...]
    6763     6768     6774     6772     6756     6756     6772     6774 
    6771     6771     6763     6759     6764     6768     6768     6767 
    6762     6752     6759     6772     6768     6767     6768     6759 
    6756     6767     6763     6755     6766     6774     6771     6772 
    6764     6750     6756     6763     6771     6786     6774     6755 
    6756     6763     6779     6782     6755     6744     6767     6774 
    6763     6762     6767     6766     6764     6758     6754     6770 
    6775     6762     6764     6771     6771     6781     6774     6751 
    6755     6758     6750     6767     6785     6768     6763     6768 
    6758     6754     6766     6774     6779     6771     6758     6755 
    6762     6772     6767     6755     6764     6774     6762     6758 
    6768     6774     6766     6763     6767     6760     6754     6758 
    6766     6775     6779     6764     6755     6758     6762     6767 
    6767     6768     6766     6759     6766     6766     6755     6763 
    6771     6772     6774     6766     6764     6766     6756     6758 
    6766     6767     6767     6764     6764     6766     6764     6763 
    6762     6772     6778     6772     6764     6756     6759     6766 
    6770     6779     6766     6750     6764     6777     6771     6763 
    6762     6764     6760     6762     6778     6779     6764     6759 
    6764     6771     6768     6752     6744     6756     6772     6778 
    6775     6772     6767     6763     6760     6755     6754     6758 
    6768     6771     6767     6771     6770     6766     6771     6771 
    6764     6758     6755     6766     6775     6770     6766     6766 
    6762     6760     6767     6770     6764     6762     6772     6775 
    6756     6744     6756     6770     6768     6768     6768     6764 
    6771     6771     6759     6763     6768     6762     6759     6764 
    6775     6771     6759     6767     6772     6770     6768     6764 
    6760     6758     6758     6759     6764     6771     6768     6763 
    6764     6756     6747     6754     6770     6779     6779     6775 
    6771     6754     6743     6755     6770     6778     6786     6783 
    6767     6748     6745     6760     6779     6786     6772     6760 
    6758     6758     6764     6770     6772     6774     6759     6748 
    6763     6779     6777     6774     6766     6750     6750     6768 
    6774     6768     6762     6758     6767     6778     6774     6764 
    6760     6764     6768     6762     6768     6783     6777     6766 
    6756     6747     6756     6771     6770     6763     6760     6764 
    6770     6764     6758     6758     6768     6777     6768     6760 
    6755     6755     6772     6786     6770     6755     6762     6767 
    6762     6766     6775     6774     6767     6760     6760     6766 
    6767     6768     6763     6754     6754     6756     6779     6790 
    6758     6745     6764     6763     6756     6762     6772     6774 
    6766     6763     6759     6754     6770     6770     6755     6771 
    6790     6770     6750     6754     6756     6759     6775     6782 
    6771     6767     6764     6755     6754     6766     6778     6778 
    6770     6760     6745     6745     6768     6778     6774     6772 
    6763     6760     6760     6759     6767     6767     6762     6770 
    6777     6778     6767     6747     6748     6766     6771     6771 
    6775     6768     6762     6766     6770     6768     6763     6758 
    6760     6763     6758     6764     6771     6777     6779     6763 
    6750     6760     6763     6762     6767     6768     6766     6768 
    6778     6772     6752     6754     6771     6766     6759     6767 
    6781     6775     6758     6758     6767     6770     6766     6758 
    6762     6771     6770     6763     6760     6768     6777     6770 
    6760     6762     6760     6764     6772     6775     6775     6768 
    6760     6752     6755     6768     6766     6762     6770     6778 
    6785     6775     6755     6754     6760     6771     6779     6766 
    6750     6754     6764     6777     6783     6771     6750     6744 
    6762     6770     6766     6766     6766     6768     6770     6766 
    6767     6767     6764     6772     6777     6762     6748     6762 
    6781     6775     6764     6755     6756     6779     6778     6759 
    6752     6751     6760     6774     6767     6762     6767     6767 
    6766     6767     6766     6762     6760     6763     6764     6771 
    6772     6764     6770     6781     6774     6759     6760     6771 
    6767     6762     6763     6756     6763     6779     6770     6759 
    6760     6759     6766     6774     6768     6759     6756     6758 
    6760     6771     6779     6771     6764     6756     6745     6760 
    6786     6777     6752     6754     6775     6777     6764     6766 
    6759     6754     6763     6768     6774     6779     6774     6762 
    6758     6766     6768     6764     6766     6763     6754     6760 
    6777     6783     6767     6750     6751     6759     6767     6771 
    6768     6775     6775     6763     6764     6759     6755     6766 
    6770     6774     6775     6762     6766     6775     6762     6747 
    6755     6770     6771     6770     6770     6767     6766     6760 
    6756     6766     6767     6762     6756     6756     6772     6778 
    6771     6763     6752     6760     6774     6759     6764     6791 
    6786     6760     6745     6755     6767     6759     6759     6774 
    6778     6768     6762     6768     6771     6758     6745     6755 
    6772     6785     6790     6775     6743     6733     6754     6764 
    6768     6781     6785     6772     6755     6762     6783     6772 
    6748     6747     6763     6778     6777     6772     6771     6755 
    6750     6768     6777     6774     6777     6767     6748     6747 
    6766     6779     6774     6766     6767     6762     6751     6758 
    6768     6758     6752     6770     6785     6779     6763     6763 
    6772     6759     6745     6762     6785     6782     6762     6763 
    6772     6766     6763     6759     6754     6770     6777     6763 
    6764     6778     6775     6762     6751     6750     6764     6777 
    6778     6779     6764     6745     6751     6771     6767     6760 
    6774     6775     6759     6752     6764     6783     6772     6754 
    6767     6778     6767     6756     6754     6758     6774     6781 
    6770     6768     6767     6751     6744     6759     6779     6785 
    6770     6758     6764     6763     6759     6766     6759     6751 
    6764     6778     6785     6785     6763     6747     6750     6762 
    6779     6782     6763     6756     6768     6771     6766     6766 
    6762     6766     6766     6751     6755     6778     6785     6774 
    6758     6754     6766     6768     6764     6764     6759     6758 
    6777     6786     6767     6762     6767     6758     6759     6770 
    6766     6771     6778     6763     6768     6778     6759     6750 
    6762     6771     6782     6781     6762     6756     6758     6752 
    6754     6766     6778     6781     6770     6760     6763     6758 
    6751     6775     6790     6770     6751     6747     6759     6783 
    6791     6771     6750     6750     6764     6768     6772     6775 
    6768     6760     6768     6781     6771     6756     6763     6766 
    6754     6760     6781     6778     6762     6754     6756     6767 
    6781     6778     6760     6762     6768     6763     6767     6768 
    6766     6770     6767     6763     6768     6771     6766     6766 
    6771     6767     6760     6766     6766     6760     6766     6768 
    6770     6768     6762     6764     6767     6758     6758     6768 
    6774     6764     6747     6750     6772     6786     6777     6760 
    6758     6764     6770     6772     6764     6754     6759     6771 
    6778     6774     6770     6768     6755     6752     6762     6768 
    6777     6777     6763     6756     6759     6772     6772     6758 
    6758     6770     6774     6772     6768     6760     6755     6756 
    6770     6771     6767     6774     6772     6764     6764     6771 
    6771     6758     6752     6759     6767     6774     6774     6768 
    6767     6764     6762     6760     6754     6754     6767     6775 
    6767     6762     6772     6782     6774     6756     6737     6748 
    6782     6786     6775     6768     6754     6756     6768     6771 
    6764     6754     6764     6783     6775     6762     6762     6763 
    6759     6764     6774     6768     6760     6759     6760     6767 
    6768     6768     6764     6752     6763     6787     6779     6762 
    6759     6754     6756     6772     6779     6770     6763     6771 
    6772     6767     6767     6766     6760     6758     6762     6768 
    6767     6774     6781     6770     6762     6759     6759     6770 
    6774     6763     6750     6752     6770     6771     6763     6771 
    6775     6764     6760     6768     6774     6764     6752     6759 
    6778     6779     6763     6762     6777     6772     6756     6751 
    6755     6771     6779     6767     6766     6772     6770     6767 
    6760     6751     6750     6771     6799     6794     6760     6741 
    6747     6766     6777     6775     6770     6764     6768     6770 
    6762     6762     6762     6759     6760     6763     6772     6772 
    6759     6754     6758     6766     6772     6777     6772     6752 
    6745     6770     6777     6766     6768     6767     6760     6758 
    6756     6760     6774     6778     6767     6764     6774     6768 
    6751     6745     6759     6774     6774     6764     6762     6767 
    6775     6774     6766     6770     6763     6747     6764     6786 
    6785     6790     6802     6805     6806     6816     6824     6818 
    6809     6799     6790     6786     6785     6797     6816     6820 
    6785     6691     6629     6636     6620     6666     6824     6833 
    6686     6717     6825     6674     6466     6431     6423     6539 
    6760     6755     6798     7067     6790     6119     6496     7807 
    8284     7632     7128     6891     6150     5479     5678     6282 
    7234     8112     7265     6073     7056     7886     6508     5331 
    5578     6297     6921     6897     6632     7056     7348     6798 
    6486     6922     7473     7677     7304     6721     6829     7414 
    7233     6285     5701     5643     5783     6393     7267     7554 
    7103     6404     5892     6010     6582     6593     6089     6424 
    7551     8067     7796     7557     7543     7391     6822     6138 
    6003     6359     6504     6421     6747     7419     7831     7792 
    7236     6340     5769     5670     5676     5737     5976     6415 
    6909     7377     7740     7689     7379     7137     6764     6513 
    6681     6529     5994     6133     6918     7376     7237     6868 
    6741     6999     7144     6805     6376     6357     6646     6886 
    7075     7125     6737     6261     6280     6650     7025     7155 
    6810     6399     6488     6828     6914     6654     6264     6211 
    6709     7275     7485     7515     7391     6879     6421     6481 
    6534     6335     6459     6835     6917     6805     6777     6739 
    6539     6273     6276     6693     7064     7006     6885     6933 
    6902     6937     7213     7275     6891     6498     6405     6440 
    6516     6787     7160     7260     7010     6736     6675     6747 
    6724     6521     6319     6289     6401     6525     6648     6925 
    7242     7115     6686     6637     6885     6851     6551     6381 
    6550     6944     7248     7252     7025     6799     6772     6929 
    7036     6926     6658     6367     6327     6741     7168     7114 
    6858     6592     6210     6170     6737     7223     7090     6547 
    6065     6143     6862     7461     7415     7051     6633     6332 
    6439     6628     6552     6654     6997     7042     6883     6862 
    6787     6629     6656     6786     6860     6922     6822     6569 
    6550     6744     6828     6901     7057     7072     7005     7086 
    7052     6624     6241     6357     6778     7090     6972     6493 
    6205     6338     6604     6866     7103     7141     7032     7079 
    7204     6957     6367     5988     6080     6416     6696     6737 
    6637     6675     6833     6949     7155     7398     7294     6939 
    6786     6878     6921     6693     6311     6205     6480     6768 
    6844     6781     6689     6679     6863     7128     7182     7032 
    6910     6783     6544     6409     6417     6331     6326     6648 
    6940     6933     6898     6880     6671     6465     6566     6863 
    7168     7461     7553     7214     6656     6293     6280     6561 
    6879     6922     6691     6438     6470     6878     7300     7265 
    6737     6196     6088     6376     6701     6670     6322     6253 
    6747     7326     7547     7500     7388     7214     6957     6708 
    6529     6399     6359     6469     6606     6686     6723     6663 
    6586     6650     6705     6627     6625     6835     7047     6894 
    6259     5541     5279     5633     6386     7190     7751     8163 
    8785     9497     9764     9387     8424     6971     5467     4496 
    4198     4480     5304     6376     7296     7909     8179     8121 
    7396     5360     2404        0     -830      413     4336    10725 
   17132    19863    17679    13134     9177     6349     3376     -598 
   -3928    -3666     1020     7771    12712    13795    12349    10273 
    8171     6296     4455     2218      182     -170     2231     6528 
   10260    11948    12105    11678    10538     8172     5449     3894 
    3730     4114     4502     5150     6548     8422     9875    10415 
   10207     9609     8667     7053     4769     2542     1413     2230 
    4801     7550     9011     9124     8683     8302     7992     7507 
    6694     5555     4571     4288     4770     5875     7121     7817 
    7794     7398     7095     7045     7034     7111     7516     8033 
    8259     8131     7757     7176     6552     6138     5965     5823 
    5680     5803     6106     6177     6143     6378     6812     7119 
    7067     6862     6943     7130     6971     6648     6612     6956 
    7454     7700     7433     6828     6284     6066     6285     6847 
    7329     7404     7180     6778     6280     5953     5937     6215 
    6698     6980     6751     6336     6258     6571     6839     6740 
    6498     6481     6813     7384     7881     8152     8259     8056 
    7350     6340     5471     4990     4861     4962     5200     5611 
    6340     7356     8287     8679     8465     7977     7426     6972 
    6822     6845     6751     6581     6523     6511     6309     6035 
    6110     6498     6824     6988     6972     6745     6570     6663 
    6820     6693     6389     6386     6798     7267     7511     7522 
    7353     7020     6644     6411     6354     6486     6764     6910 
    6821     6737     6744     6621     6312     6070     6122     6461 
    6941     7395     7705     7774     7577     7277     7022     6781 
    6520     6274     6057     5899     5931     6218     6571     6787 
    6902     7103     7361     7350     6940     6411     6089     6112 
    6423     6824     7064     7045     6947     7029     7358     7665 
    7553     6982     6307     5883     5848     6089     6369     6536 
    6590     6604     6689     6835     6933     7045     7272     7392 
    7207     6983     6991     7051     6978     6912     6939     6983 
    7087     7188     7021     6678     6520     6546     6543     6461 
    6320     6134     5979     5984     6210     6474     6624     6766 
    6974     7094     7038     6926     6862     6793     6747     6790 
    6802     6759     6813     6918     6926     6878     6804     6654 
    6540     6608     6767     6858     6914     7040     7122     7014 
    6809     6698     6729     6756     6697     6631     6604     6647 
    6809     7006     7111     7080     6905     6694     6597     6640 
    6779     6956     7138     7330     7485     7483     7242     6802 
    6324     6033     5965     5956     5946     6004     6131     6338 
    6655     7037     7356     7476     7345     7065     6825     6679 
    6583     6613     6817     6994     6975     6826     6600     6358 
    6326     6508     6656     6685     6631     6534     6471     6543 
    6764     7025     7190     7207     7134     7052     6966     6863 
    6772     6704     6635     6569     6538     6578     6691     6781 
    6805     6868     6920     6891     6930     6974     6814     6609 
    6588     6654     6627     6563     6616     6736     6801     6883 
    6997     6972     6804     6689     6744     6944     7148     7173 
    6991     6758     6624     6644     6779     6893     6852     6697 
    6597     6623     6647     6582     6534     6552     6583     6647 
    6736     6777     6791     6806     6763     6675     6633     6662 
    6690     6733     6852     6961     6955     6870     6768     6690 
    6710     6843     7003     7115     7137     7047     6883     6716 
    6612     6574     6532     6481     6489     6569     6694     6801 
    6805     6748     6714     6669     6646     6705     6760     6787 
    6829     6843     6843     6870     6879     6883     6940     6979 
    6924     6844     6789     6716     6621     6544     6481     6467 
    6613     6851     6953     6933     6902     6782     6621     6631 
    6762     6828     6866     6933     6934     6848     6763     6727 
    6713     6689     6670     6690     6741     6793     6781     6724 
    6775     6902     6936     6926     6959     6970     6920     6805 
    6640     6552     6585     6593     6528     6494     6529     6573 
    6600     6629     6681     6775     6864     6848     6783     6810 
    6924     7005     6979     6925     6912     6879     6810     6764 
    6747     6721     6663     6610     6621     6674     6732     6812 
    6883     6909     6943     6941     6813     6678     6689     6772 
    6787     6708     6602     6562     6620     6671     6619     6538 
    6565     6701     6835     6909     6941     6903     6801     6706 
    6656     6677     6737     6752     6768     6855     6959     7056 
    7102     7044     6960     6910     6832     6720     6678     6771 
    6879     6875     6818     6777     6736     6708     6664     6597 
    6566     6590     6644     6686     6671     6648     6681     6774 
    6870     6871     6786     6708     6669     6674     6741     6821 
    6833     6790     6777     6820     6891     6964     6986     6924 
    6828     6768     6735     6698     6673     6664     6690     6752 
    6772     6728     6662     6579     6509     6478     6497     6590 
    6712     6760     6731     6713     6727     6713     6697     6733 
    6781     6825     6883     6905     6855     6781     6727     6724 
    6798     6907     6995     7056     7052     6956     6875     6879 
    6871     6814     6768     6745     6733     6718     6690     6669 
    6659     6674     6748     6843     6878     6859     6855     6889 
    6934     6968     6951     6859     6745     6698     6720     6723 
