Origin Time       2025/01/26 08:11:00
Lat.              34.975
Long.             138.213
Depth. (km)       21
Mag.              3.4
Station Code      SZO014
Station Lat.      34.9649
Station Long.     138.3741
Station Height(m) 19
Record Time       2025/01/26 08:11:37
Sampling Freq(Hz) 100Hz
Duration Time(s)  60
Dir.              U-D
Scale Factor      7845(gal)/8223790
Max. Acc. (gal)   2.003
Last Correction   2025/01/26 08:11:37
Memo.             
    9278     9279     9277     9283     9293     9283     9271     9273 
    9282     9286     9289     9288     9279     9278     9285     9281 
    9278     9289     9290     9278     9274     9277     9286     9293 
    9283     9278     9285     9282     9281     9289     9290     9281 
    9277     9281     9282     9282     9286     9289     9279     9274 
    9281     9288     9286     9283     9288     9286     9274     9273 
    9288     9294     9286     9273     9275     9286     9285     9282 
    9286     9290     9296     9289     9270     9266     9278     9286 
    9288     9283     9289     9293     9281     9275     9282     9281 
    9279     9285     9286     9282     9288     9290     9278     9274 
    9286     9286     9283     9283     9275     9275     9285     9288 
    9286     9292     9294     9282     9270     9271     9277     9288 
    9298     9293     9285     9279     9274     9279     9283     9279 
    9281     9282     9277     9281     9288     9282     9278     9286 
    9283     9274     9281     9290     9289     9283     9279     9282 
    9282     9278     9283     9289     9288     9282     9279     9286 
    9290     9283     9285     9283     9273     9279     9286     9279 
    9288     9292     9274     9277     9288     9278     9278     9290 
    9278     9266     9285     9297     9288     9279     9278     9279 
    9282     9289     9288     9279     9278     9283     9286     9283 
    9282     9281     9278     9285     9288     9277     9278     9285 
    9290     9289     9274     9277     9288     9282     9285     9290 
    9286     9279     9278     9283     9288     9283     9285     9285 
    9279     9278     9281     9289     9285     9274     9283     9286 
    9277     9281     9285     9278     9283     9294     9285     9270 
    9279     9292     9286     9275     9275     9283     9286     9285 
    9288     9288     9282     9275     9281     9286     9285     9288 
    9283     9270     9275     9288     9288     9286     9289     9283 
    9274     9277     9289     9283     9274     9279     9288     9286 
    9282     9285     9289     9283     9275     9274     9278     9282 
    9289     9286     9281     9282     9281     9277     9285     9293 
    9283     9279     9289     9281     9271     9283     9289     9283 
    9285     9281     9275     9285     9292     9282     9277     9281 
    9283     9283     9288     9288     9281     9286     9286     9271 
    9271     9292     9293     9281     9283     9285     9277     9274 
    9281     9282     9285     9289     9286     9277     9277     9285 
    9288     9282     9283     9290     9289     9278     9271     9277 
    9285     9289     9290     9290     9286     9275     9270     9281 
    9288     9288     9290     9288     9275     9270     9278     9290 
    9289     9281     9278     9279     9289     9286     9278     9289 
    9290     9269     9270     9292     9286     9281     9288     9286 
    9281     9277     9279     9290     9296     9288     9275     9273 
    9274     9278     9288     9289     9278     9279     9285     9277 
    9271     9285     9293     9289     9285     9282     9277     9278 
    9286     9288     9288     9278     9273     9292     9294     9281 
    9286     9275     9273     9292     9281     9271     9290     9290 
    9285     9282     9269     9278     9289     9281     9286     9278 
    9271     9293     9296     9283     9271     9275     9297     9286 
    9267     9292     9294     9273     9279     9282     9282     9302 
    9281     9248     9281     9301     9285     9288     9286     9278 
    9279     9279     9285     9288     9283     9281     9283     9285 
    9285     9285     9282     9279     9277     9278     9286     9288 
    9283     9290     9289     9275     9281     9289     9286     9286 
    9279     9273     9285     9293     9283     9281     9288     9278 
    9269     9285     9294     9285     9278     9283     9282     9274 
    9277     9286     9290     9285     9277     9278     9283     9286 
    9290     9290     9279     9269     9277     9292     9292     9288 
    9283     9278     9282     9283     9279     9286     9292     9278 
    9278     9290     9283     9277     9288     9289     9285     9285 
    9278     9270     9279     9292     9292     9285     9277     9275 
    9286     9292     9290     9292     9283     9270     9273     9290 
    9298     9289     9281     9281     9281     9281     9281     9278 
    9285     9289     9283     9283     9279     9273     9279     9285 
    9281     9288     9290     9278     9282     9292     9281     9274 
    9286     9288     9277     9278     9288     9283     9282     9283 
    9283     9285     9282     9279     9285     9286     9282     9282 
    9283     9279     9279     9282     9278     9278     9279     9281 
    9289     9290     9283     9277     9271     9273     9285     9293 
    9288     9275     9279     9288     9286     9281     9281     9281 
    9282     9282     9279     9281     9289     9290     9282     9281 
    9279     9275     9281     9285     9283     9285     9279     9279 
    9288     9282     9278     9281     9283     9288     9290     9285 
    9277     9273     9278     9289     9290     9288     9285     9278 
    9281     9279     9278     9288     9285     9275     9283     9288 
    9281     9285     9292     9281     9270     9281     9296     9292 
    9279     9279     9283     9281     9282     9286     9289     9286 
    9279     9273     9277     9289     9294     9283     9278     9279 
    9277     9275     9281     9290     9292     9285     9273     9269 
    9281     9296     9292     9277     9279     9288     9281     9274 
    9275     9278     9285     9290     9285     9279     9281     9281 
    9283     9283     9274     9275     9288     9290     9288     9283 
    9277     9279     9293     9297     9278     9263     9281     9298 
    9293     9290     9286     9271     9277     9289     9281     9278 
    9286     9290     9290     9285     9269     9263     9282     9300 
    9301     9294     9270     9262     9289     9292     9271     9281 
    9289     9282     9292     9293     9277     9275     9275     9269 
    9277     9304     9315     9289     9255     9252     9275     9293 
    9304     9304     9290     9273     9262     9269     9290     9300 
    9282     9274     9293     9297     9267     9259     9293     9312 
    9293     9269     9265     9281     9298     9292     9274     9275 
    9278     9279     9293     9296     9277     9267     9282     9296 
    9300     9285     9269     9274     9289     9283     9275     9285 
    9289     9288     9288     9279     9275     9282     9290     9292 
    9286     9275     9271     9282     9296     9293     9279     9281 
    9288     9281     9283     9288     9277     9279     9297     9288 
    9271     9278     9286     9285     9282     9282     9290     9297 
    9286     9270     9274     9289     9293     9289     9285     9277 
    9275     9281     9285     9285     9285     9279     9277     9286 
    9298     9288     9270     9265     9274     9297     9304     9289 
    9281     9281     9275     9278     9289     9283     9274     9290 
    9305     9289     9267     9266     9285     9296     9288     9281 
    9288     9294     9283     9266     9261     9279     9301     9300 
    9289     9283     9271     9269     9296     9306     9275     9262 
    9286     9298     9290     9277     9263     9275     9300     9292 
    9273     9281     9296     9283     9271     9278     9283     9292 
    9298     9283     9269     9274     9277     9278     9294     9301 
    9282     9271     9282     9288     9285     9281     9281     9279 
    9282     9288     9289     9285     9279     9273     9273     9282 
    9290     9290     9282     9273     9271     9282     9294     9296 
    9279     9263     9274     9292     9281     9285     9305     9288 
    9269     9275     9281     9283     9289     9288     9282     9279 
    9283     9288     9286     9282     9279     9283     9285     9281 
    9283     9289     9283     9281     9283     9281     9277     9281 
    9283     9282     9286     9288     9285     9285     9283     9279 
    9281     9289     9285     9277     9278     9283     9288     9289 
    9286     9282     9282     9279     9278     9278     9278     9288 
    9294     9275     9269     9290     9293     9278     9278     9282 
    9283     9285     9286     9283     9278     9278     9285     9282 
    9282     9292     9294     9285     9275     9275     9283     9285 
    9282     9283     9286     9286     9289     9286     9274     9270 
    9279     9285     9283     9281     9279     9285     9289     9286 
    9282     9279     9281     9281     9282     9278     9278     9294 
    9302     9289     9270     9273     9293     9300     9279     9271 
    9285     9285     9275     9282     9290     9289     9283     9282 
    9288     9286     9279     9278     9279     9283     9285     9289 
    9290     9282     9278     9281     9281     9279     9283     9290 
    9292     9288     9281     9281     9283     9281     9283     9286 
    9285     9285     9279     9278     9292     9289     9274     9281 
    9290     9285     9285     9283     9271     9273     9286     9289 
    9292     9292     9279     9277     9286     9286     9289     9285 
    9275     9285     9293     9282     9281     9286     9278     9275 
    9286     9289     9290     9292     9282     9275     9281     9289 
    9286     9277     9275     9281     9290     9296     9289     9275 
    9271     9282     9292     9285     9279     9285     9285     9279 
    9282     9286     9289     9286     9275     9270     9279     9286 
    9290     9293     9285     9274     9277     9288     9283     9275 
    9288     9294     9285     9286     9285     9269     9273     9292 
    9286     9278     9289     9289     9275     9281     9289     9278 
    9275     9286     9286     9278     9279     9290     9294     9288 
    9278     9278     9282     9283     9282     9281     9279     9282 
    9285     9286     9285     9281     9275     9279     9283     9286 
    9294     9293     9292     9306     9315     9312     9313     9320 
    9354     9433     9518     9539     9509     9481     9416     9296 
    9234     9288     9371     9377     9252     9140     9288     9373 
    8711     7986     8287     8517     8054     8676    10065    10260 
    9971     9532     8336     8671    10346     9520     8561    10817 
   11383     9069     8955     9590     8853     9378     9724     8725 
    9290    10135     9261     8561     8536     8626     9001     9450 
    9846     9683     8965     8656     8814     9171     9497     9603 
    9875     9949     9598     9533     9321     8815     9124     9537 
    8973     8938     9653     9225     8600     8970     8872     8704 
    9531    10038     9738     9375     9207     9358     9532     9429 
    9269     9212     9387     9452     9107     9189     9512     8919 
    8548     9537    10152     9455     9072     9360     9080     8702 
    8889     8932     9194     9838     9741     9371     9467     9274 
    8942     9049     9070     9094     9466     9566     9374     9342 
    9343     9437     9433     9076     9070     9412     9362     9377 
    9562     9243     9046     9459     9539     9158     9144     9247 
    8937     8908     9410     9609     9409     9189     9004     9032 
    9197     9316     9421     9358     9351     9652     9733     9483 
    9220     8841     8761     9294     9504     9051     8877     9278 
    9639     9648     9493     9424     9429     9243     8919     8937 
    9491     9996     9594     8822     8928     9204     8884     9105 
    9616     9285     9154     9629     9455     8938     9003     9305 
    9371     9225     9391     9944     9783     9023     8884     8984 
    8980     9308     9401     9289     9558     9499     9035     8974 
    9093     9142     9339     9495     9443     9271     9104     9042 
    9054     9126     9198     9385     9902    10079     9378     8762 
    8864     9234     9652     9828     9625     9513     9161     8344 
    8271     9094     9639     9834     9930     9639     9387     9593 
    9495     8819     8607     9080     9486     9729     9522     8714 
    8446     8973     9227     9212     9455     9687     9765     9732 
    9255     8698     8911     9455     9466     9337     9378     9128 
    8922     9301     9568     9256     9171     9558     9697     9560 
    9481     9273     9055     9028     8896     8884     9367     9693 
    9487     9293     9189     9043     9121     9327     9308     9105 
    9066     9427     9799     9595     9076     8833     8843     9031 
    9390     9582     9618     9622     9323     9034     9180     9344 
    9205     9004     9069     9367     9533     9479     9313     9235 
    9433     9579     9512     9475     9333     9142     9184     9181 
    9117     9277     9348     9227     9208     9186     9128     9252 
    9374     9194     8978     9031     9090     9194     9683     9980 
    9501     8841     8657     8842     9239     9721     9780     9378 
    9219     9499     9759     9680     9308     9008     9015     9157 
    9270     9265     9089     8926     8984     9251     9487     9505 
    9532     9660     9394     8818     8845     9377     9414     9124 
    9216     9416     9448     9439     9251     9159     9549     9779 
    9481     9313     9317     9134     8984     8973     9027     9150 
    9242     9364     9502     9301     8923     8982     9298     9351 
    9297     9336     9429     9566     9567     9298     8964     8811 
    8831     8895     9119     9656    10120    10110     9729     9244 
    8978     8942     8893     9030     9242     9232     9281     9227 
    8950     9081     9459     9634     9876     9906     9437     9292 
    9675     9660     9275     9209     9012     8473     8491     8904 
    8926     9023     9718    10519    10723    10037     8860     8167 
    8451     8897     8761     8573     8810     9332     9969    10211 
    9899     9576     9244     8756     8441     8441     8668     9030 
    9580    10243    10341     9578     8707     8509     8943     9513 
    9944    10077     9867     9647     9599     9391     8962     8904 
    9285     9433     9232     8923     8662     8696     8887     9066 
    9441     9779     9734     9711     9945     9864     9417     9228 
    9151     8993     9139     9262     9086     9054     9042     8992 
    9157     9142     8997     9143     9205     9123     9339     9576 
    9491     9420     9633     9867     9833     9614     9242     8799 
    8710     8974     9197     9301     9236     8954     8658     8550 
    8642     8849     9288     9949    10341    10336    10247     9967 
    9478     9202     9158     9011     8784     8646     8584     8617 
    8851     9285     9695     9834     9705     9451     9259     9297 
    9270     8949     8949     9328     9332     9221     9455     9586 
    9475     9327     9193     9173     9115     9024     9104     9016 
    8869     9281     9713     9556     9416     9563     9526     9296 
    9252     9366     9390     9455     9602     9559     9375     9224 
    9121     9159     9261     9223     9121     9120     9190     9262 
    9328     9342     9317     9309     9267     9224     9273     9398 
    9456     9293     9078     9020     9032     9111     9320     9516 
    9439     9167     9204     9450     9265     8911     8951     9074 
    9135     9497     9783     9558     9335     9306     9228     9290 
    9296     9057     9138     9408     9250     9034     9243     9498 
    9454     9366     9378     9364     9416     9425     9190     9085 
    9217     9163     9092     9301     9389     9208     9134     9177 
    9165     9208     9348     9478     9578     9640     9616     9520 
    9386     9278     9266     9262     9177     9121     9205     9269 
    9150     9120     9256     9173     9047     9170     9138     8955 
    9034     9171     9161     9223     9413     9510     9435     9401 
    9444     9408     9355     9343     9396     9522     9525     9382 
    9288     9244     9221     9213     9170     9228     9386     9323 
    9193     9427     9734     9618     9282     9159     9178     9155 
    9189     9190     9101     9127     9154     9086     9116     9154 
    9105     9142     9236     9266     9329     9418     9343     9240 
    9324     9467     9543     9486     9391     9417     9371     9240 
    9289     9398     9366     9302     9278     9254     9239     9194 
    9120     9115     9142     9115     9123     9220     9302     9362 
    9393     9278     9174     9254     9232     9169     9366     9431 
    9227     9182     9169     9131     9320     9420     9323     9360 
    9424     9381     9397     9479     9486     9329     9213     9352 
    9467     9424     9451     9452     9231     9005     9092     9335 
    9350     9262     9243     9081     8950     9123     9282     9293 
    9382     9378     9175     9099     9140     9158     9274     9400 
    9423     9381     9270     9250     9340     9363     9377     9386 
    9327     9344     9370     9174     8995     9084     9213     9267 
    9300     9266     9227     9196     9175     9292     9378     9344 
    9383     9394     9337     9393     9414     9294     9202     9175 
    9162     9186     9298     9447     9394     9190     9181     9248 
    9205     9281     9340     9201     9246     9397     9304     9279 
    9401     9352     9306     9358     9321     9328     9394     9378 
    9344     9262     9184     9261     9300     9225     9181     9170 
    9267     9379     9313     9270     9304     9202     9121     9217 
    9251     9173     9170     9209     9220     9259     9294     9321 
    9373     9381     9352     9370     9450     9518     9464     9370 
    9366     9336     9309     9390     9364     9211     9148     9151 
    9174     9215     9192     9177     9270     9389     9374     9200 
    9126     9279     9350     9262     9231     9170     9130     9262 
    9258     9135     9247     9373     9308     9258     9274     9292 
    9302     9282     9216     9209     9378     9512     9452     9397 
    9359     9290     9285     9261     9229     9315     9296     9150 
    9177     9263     9208     9190     9251     9300     9324     9248 
    9150     9135     9120     9180     9288     9267     9283     9382 
    9373     9460     9616     9467     9340     9474     9427     9290 
    9352     9385     9360     9343     9252     9227     9281     9266 
    9192     9157     9194     9171     9096     9200     9351     9305 
    9221     9200     9148     9123     9201     9293     9286     9273 
    9325     9313     9252     9259     9232     9192     9270     9350 
    9390     9463     9441     9331     9315     9366     9366     9358 
    9367     9321     9221     9144     9147     9258     9358     9317 
    9239     9232     9255     9240     9196     9204     9261     9262 
    9202     9221     9302     9267     9182     9186     9236     9339 
    9439     9404     9337     9369     9369     9281     9266     9315 
