Origin Time       2025/02/01 08:16:00
Lat.              33.667
Long.             130.927
Depth. (km)       8
Mag.              3.1
Station Code      OIT006
Station Lat.      33.4211
Station Long.     131.3173
Station Height(m) 91
Record Time       2025/02/01 08:17:11
Sampling Freq(Hz) 100Hz
Duration Time(s)  60
Dir.              N-S
Scale Factor      7845(gal)/8223790
Max. Acc. (gal)   2.253
Last Correction   2025/02/01 08:17:11
Memo.             
  -11700   -11705   -11718   -11718   -11707   -11700   -11705   -11716 
  -11715   -11703   -11700   -11708   -11713   -11708   -11703   -11709 
  -11713   -11712   -11709   -11703   -11711   -11727   -11719   -11700 
  -11699   -11715   -11718   -11707   -11708   -11708   -11700   -11705 
  -11713   -11719   -11716   -11701   -11699   -11711   -11720   -11723 
  -11711   -11696   -11701   -11716   -11719   -11709   -11701   -11707 
  -11712   -11703   -11704   -11718   -11720   -11708   -11700   -11709 
  -11719   -11719   -11713   -11705   -11697   -11707   -11723   -11719 
  -11704   -11697   -11700   -11708   -11718   -11713   -11703   -11705 
  -11715   -11713   -11708   -11707   -11713   -11716   -11705   -11704 
  -11716   -11711   -11696   -11704   -11716   -11716   -11713   -11704 
  -11695   -11708   -11726   -11715   -11699   -11703   -11712   -11713 
  -11709   -11707   -11708   -11711   -11708   -11704   -11712   -11720 
  -11707   -11691   -11707   -11726   -11719   -11703   -11700   -11711 
  -11718   -11715   -11709   -11707   -11708   -11711   -11711   -11709 
  -11707   -11703   -11709   -11720   -11720   -11707   -11692   -11696 
  -11723   -11740   -11722   -11676   -11666   -11723   -11770   -11742 
  -11673   -11646   -11692   -11761   -11780   -11715   -11630   -11631 
  -11723   -11800   -11772   -11676   -11631   -11668   -11739   -11786 
  -11750   -11659   -11630   -11697   -11770   -11759   -11696   -11662 
  -11678   -11719   -11751   -11743   -11689   -11659   -11696   -11740 
  -11739   -11705   -11678   -11691   -11727   -11738   -11712   -11686 
  -11689   -11713   -11731   -11723   -11700   -11689   -11701   -11724 
  -11732   -11712   -11684   -11686   -11718   -11738   -11732   -11701 
  -11665   -11681   -11740   -11754   -11705   -11673   -11680   -11704 
  -11743   -11751   -11699   -11665   -11688   -11731   -11746   -11720 
  -11688   -11685   -11700   -11723   -11736   -11718   -11686   -11685 
  -11713   -11732   -11724   -11703   -11686   -11693   -11719   -11731 
  -11715   -11696   -11692   -11705   -11722   -11723   -11713   -11701 
  -11695   -11705   -11726   -11724   -11705   -11691   -11696   -11719 
  -11734   -11724   -11701   -11688   -11697   -11723   -11731   -11712 
  -11696   -11697   -11707   -11720   -11720   -11708   -11703   -11704 
  -11705   -11713   -11716   -11705   -11701   -11708   -11712   -11711 
  -11704   -11708   -11716   -11708   -11699   -11708   -11713   -11707 
  -11708   -11719   -11708   -11692   -11704   -11727   -11723   -11704 
  -11700   -11704   -11704   -11712   -11724   -11719   -11699   -11692 
  -11707   -11719   -11718   -11713   -11701   -11699   -11715   -11719 
  -11709   -11705   -11704   -11703   -11707   -11720   -11723   -11695 
  -11684   -11716   -11734   -11709   -11697   -11704   -11707   -11712 
  -11718   -11716   -11707   -11691   -11696   -11724   -11728   -11707 
  -11693   -11699   -11711   -11722   -11722   -11707   -11693   -11696 
  -11712   -11724   -11720   -11704   -11695   -11703   -11716   -11722 
  -11711   -11701   -11704   -11708   -11712   -11720   -11715   -11699 
  -11695   -11713   -11723   -11715   -11708   -11701   -11703   -11716 
  -11722   -11713   -11704   -11701   -11708   -11713   -11716   -11712 
  -11704   -11701   -11708   -11719   -11719   -11703   -11695   -11708 
  -11723   -11715   -11701   -11700   -11711   -11716   -11712   -11708 
  -11711   -11708   -11708   -11712   -11709   -11704   -11707   -11713 
  -11716   -11715   -11713   -11707   -11699   -11705   -11723   -11722 
  -11704   -11695   -11701   -11715   -11722   -11718   -11707   -11696 
  -11701   -11720   -11731   -11720   -11692   -11681   -11708   -11735 
  -11726   -11703   -11691   -11696   -11718   -11730   -11716   -11699 
  -11692   -11704   -11724   -11724   -11711   -11696   -11692   -11711 
  -11730   -11722   -11707   -11700   -11693   -11705   -11727   -11722 
  -11704   -11701   -11708   -11712   -11711   -11708   -11709   -11708 
  -11705   -11709   -11713   -11715   -11709   -11700   -11703   -11715 
  -11720   -11711   -11697   -11699   -11712   -11719   -11712   -11701 
  -11703   -11713   -11716   -11708   -11703   -11704   -11709   -11712 
  -11711   -11711   -11708   -11700   -11704   -11718   -11720   -11709 
  -11701   -11704   -11713   -11718   -11711   -11701   -11707   -11715 
  -11713   -11709   -11707   -11704   -11711   -11713   -11711   -11711 
  -11708   -11701   -11705   -11713   -11715   -11708   -11701   -11704 
  -11716   -11718   -11704   -11700   -11711   -11722   -11715   -11703 
  -11700   -11709   -11713   -11712   -11711   -11708   -11704   -11704 
  -11712   -11716   -11711   -11705   -11705   -11711   -11715   -11712 
  -11705   -11703   -11709   -11716   -11711   -11705   -11705   -11709 
  -11713   -11712   -11705   -11703   -11711   -11718   -11712   -11708 
  -11709   -11707   -11708   -11712   -11713   -11707   -11703   -11709 
  -11712   -11711   -11711   -11707   -11707   -11711   -11712   -11709 
  -11708   -11711   -11713   -11709   -11707   -11707   -11708   -11709 
  -11713   -11709   -11704   -11709   -11712   -11708   -11705   -11705 
  -11709   -11711   -11708   -11709   -11712   -11711   -11704   -11708 
  -11716   -11709   -11703   -11705   -11707   -11709   -11713   -11711 
  -11708   -11704   -11704   -11712   -11715   -11709   -11705   -11705 
  -11707   -11713   -11712   -11705   -11704   -11705   -11709   -11716 
  -11715   -11705   -11703   -11708   -11711   -11711   -11712   -11708 
  -11705   -11709   -11709   -11708   -11707   -11704   -11711   -11716 
  -11708   -11705   -11708   -11705   -11712   -11718   -11704   -11699 
  -11711   -11720   -11713   -11704   -11704   -11705   -11708   -11719 
  -11722   -11709   -11699   -11701   -11709   -11716   -11719   -11711 
  -11700   -11701   -11711   -11715   -11709   -11708   -11709   -11711 
  -11711   -11712   -11712   -11705   -11703   -11709   -11716   -11719 
  -11713   -11704   -11704   -11712   -11712   -11712   -11708   -11705 
  -11709   -11708   -11707   -11711   -11709   -11705   -11705   -11711 
  -11716   -11711   -11704   -11705   -11712   -11712   -11711   -11708 
  -11704   -11705   -11713   -11720   -11713   -11705   -11705   -11708 
  -11709   -11713   -11713   -11708   -11705   -11709   -11712   -11708 
  -11704   -11705   -11707   -11709   -11712   -11708   -11704   -11708 
  -11711   -11709   -11709   -11712   -11712   -11711   -11708   -11707 
  -11712   -11712   -11711   -11711   -11711   -11708   -11705   -11708 
  -11711   -11708   -11707   -11708   -11708   -11711   -11715   -11711 
  -11705   -11705   -11709   -11712   -11711   -11708   -11707   -11709 
  -11708   -11707   -11709   -11711   -11708   -11704   -11705   -11712 
  -11712   -11711   -11709   -11705   -11707   -11713   -11715   -11712 
  -11704   -11703   -11711   -11713   -11715   -11713   -11703   -11700 
  -11712   -11719   -11713   -11708   -11708   -11705   -11705   -11713 
  -11720   -11712   -11703   -11705   -11716   -11716   -11709   -11707 
  -11708   -11705   -11711   -11715   -11707   -11704   -11708   -11709 
  -11709   -11713   -11711   -11704   -11707   -11711   -11712   -11712 
  -11712   -11708   -11705   -11709   -11712   -11713   -11711   -11709 
  -11709   -11713   -11713   -11708   -11704   -11707   -11713   -11716 
  -11711   -11707   -11707   -11711   -11711   -11708   -11705   -11709 
  -11711   -11709   -11711   -11711   -11705   -11703   -11709   -11716 
  -11713   -11709   -11709   -11708   -11707   -11708   -11712   -11716 
  -11712   -11705   -11703   -11704   -11709   -11713   -11712   -11707 
  -11705   -11708   -11709   -11708   -11711   -11711   -11707   -11711 
  -11715   -11712   -11711   -11709   -11708   -11709   -11708   -11709 
  -11715   -11715   -11711   -11704   -11699   -11703   -11715   -11720 
  -11712   -11686   -11676   -11726   -11772   -11708   -11639   -11696 
  -11751   -11735   -11742   -11696   -11603   -11693   -11815   -11704 
  -11642   -11755   -11716   -11643   -11793   -11816   -11610   -11610 
  -11778   -11728   -11623   -11761   -11813   -11589   -11601   -11850 
  -11778   -11616   -11753   -11772   -11572   -11605   -11762   -11793 
  -11835   -11772   -11529   -11535   -11834   -11873   -11699   -11657 
  -11546   -11564   -11948   -12029   -11653   -11480   -11634   -11736 
  -11691   -11743   -11871   -11739   -11480   -11541   -11823   -11861 
  -11700   -11747   -11830   -11556   -11448   -11882   -11947   -11526 
  -11630   -11888   -11614   -11537   -11897   -11848   -11468   -11691 
  -12036   -11535   -11311   -11996   -12042   -11433   -11576   -11990 
  -11750   -11568   -11753   -11587   -11460   -11889   -12021   -11615 
  -11506   -11788   -11911   -11726   -11511   -11576   -11770   -11767 
  -11708   -11773   -11805   -11666   -11529   -11651   -11854   -11836 
  -11659   -11550   -11623   -11715   -11866   -12039   -11732   -11383 
  -11643   -11811   -11580   -11670   -11909   -11724   -11558   -11682 
  -11685   -11676   -11915   -11946   -11518   -11345   -11750   -11958 
  -11823   -11821   -11608   -11276   -11635   -12069   -11800   -11618 
  -11780   -11686   -11553   -11708   -11900   -11801   -11507   -11580 
  -11838   -11686   -11678   -11913   -11639   -11435   -11871   -12005 
  -11550   -11485   -11824   -11643   -11464   -11958   -12039   -11593 
  -11619   -11701   -11595   -11769   -11796   -11558   -11603   -11789 
  -11862   -11875   -11695   -11475   -11504   -11686   -11901   -11897 
  -11649   -11664   -11831   -11662   -11512   -11742   -11846   -11634 
  -11601   -11724   -11762   -11858   -11796   -11476   -11529   -11894 
  -11846   -11638   -11691   -11665   -11577   -11697   -11894   -11871 
  -11619   -11620   -11761   -11589   -11628   -11939   -11797   -11450 
  -11577   -11929   -11847   -11592   -11712   -11746   -11572   -11707 
  -11749   -11568   -11758   -11911   -11695   -11695   -11812   -11657 
  -11562   -11678   -11684   -11701   -11835   -11747   -11642   -11765 
  -11793   -11653   -11581   -11723   -11861   -11688   -11556   -11774 
  -11820   -11566   -11615   -11874   -11809   -11584   -11588   -11720 
  -11782   -11801   -11745   -11634   -11666   -11786   -11786   -11700 
  -11628   -11589   -11615   -11800   -11963   -11711   -11445   -11699 
  -11844   -11620   -11740   -11944   -11556   -11376   -11919   -12000 
  -11499   -11549   -11836   -11778   -11755   -11778   -11685   -11538 
  -11434   -11734   -12139   -11898   -11489   -11591   -11709   -11632 
  -11781   -11819   -11456   -11518   -12127   -12104   -11385   -11207 
  -11781   -12110   -11796   -11527   -11669   -11726   -11649   -11774 
  -11773   -11523   -11624   -11989   -11861   -11591   -11772   -11684 
  -11346   -11616   -11942   -11812   -11821   -11874   -11515   -11317 
  -11759   -12101   -11790   -11460   -11601   -11755   -11641   -11772 
  -11989   -11589   -11290   -11742   -12054   -11893   -11758   -11608 
  -11414   -11514   -11881   -12048   -11803   -11460   -11399   -11672 
  -11951   -11874   -11696   -11734   -11684   -11557   -11688   -11870 
  -11804   -11560   -11499   -11782   -11900   -11732   -11774   -11670 
  -11280   -11568   -12136   -11893   -11591   -11790   -11603   -11296 
  -11934   -12351   -11511   -11186   -11785   -11808   -11722   -12027 
  -11747   -11264   -11538   -11939   -11842   -11707   -11682   -11570 
  -11630   -11859   -11869   -11747   -11692   -11557   -11477   -11743 
  -11993   -11757   -11516   -11678   -11784   -11786   -11882   -11750 
  -11394   -11404   -11897   -12055   -11593   -11450   -11847   -11923 
  -11646   -11657   -11761   -11533   -11456   -11857   -12104   -11866 
  -11477   -11287   -11576   -12060   -12112   -11763   -11327   -11223 
  -11842   -12343   -11858   -11267   -11425   -11813   -11896   -11867 
  -11753   -11450   -11581   -12027   -11781   -11450   -11738   -11719 
  -11464   -11805   -12120   -11711   -11307   -11565   -11850   -11839 
  -11970   -11816   -11284   -11394   -12015   -12113   -11699   -11430 
  -11480   -11581   -11793   -12171   -11971   -11296   -11367   -11817 
  -11761   -11867   -12100   -11677   -11299   -11526   -11727   -11840 
  -11917   -11650   -11489   -11716   -11790   -11736   -11794   -11695 
  -11577   -11681   -11792   -11772   -11703   -11754   -11731   -11588 
  -11726   -11757   -11530   -11746   -11966   -11622   -11529   -11817 
  -11767   -11616   -11719   -11753   -11599   -11604   -11900   -12001 
  -11727   -11499   -11497   -11638   -11848   -11983   -11816   -11421 
  -11380   -11757   -12001   -12019   -11649   -11057   -11379   -12226 
  -12131   -11707   -11614   -11322   -11530   -12210   -12009   -11565 
  -11677   -11639   -11541   -11696   -11734   -11643   -11597   -11619 
  -11731   -11919   -11969   -11661   -11622   -12226   -12306   -11630 
  -11497   -11740   -11558   -11387   -11299   -11110   -11268   -11601 
  -11830   -12159   -12199   -11877   -11738   -11723   -11862   -11985 
  -11425   -10760   -10885   -11534   -11967   -11616   -11291   -11983 
  -12614   -12656   -12993   -12823   -11354   -10324   -10837   -11434 
  -11304   -11668   -12332   -11898   -11596   -12339   -11969   -10590 
  -10741   -12073   -12955   -13285   -12708   -10828    -9347    -9906 
  -11445   -12630   -12850   -11697   -11051   -12204   -12883   -12267 
  -11607   -10817   -10616   -11722   -12195   -11434   -11603   -12806 
  -12965   -12044   -11244   -10832   -11122   -11556   -11276   -11310 
  -11943   -12366   -12509   -11859   -10793   -10844   -11736   -12204 
  -11894   -11337   -11700   -12576   -11950   -10413   -10457   -12087 
  -13049   -12410   -11591   -11371   -11603   -12256   -12106   -11064 
  -10978   -11743   -12364   -12528   -11668   -10972   -11619   -12012 
  -11902   -12523   -12486   -10775    -9664   -10615   -12204   -12830 
  -12175   -11124   -10963   -11639   -12398   -12611   -11962   -11766 
  -12114   -11175   -10168   -10980   -12397   -13038   -12349   -11040 
  -11175   -12521   -12879   -11815   -10682   -10384   -10789   -11821 
  -12899   -12528   -11268   -11172   -11664   -11465   -11443   -11854 
  -11715   -11484   -12070   -12418   -11920   -11514   -10970   -10854 
  -12413   -13355   -12199   -11308   -11421   -11308   -11090   -11307 
  -11677   -12204   -12969   -12499   -10696   -10399   -11854   -12606 
  -12249   -11489   -10862   -11179   -12035   -12185   -11765   -11452 
  -11171   -11157   -11502   -12005   -12816   -12733   -11084   -10230 
  -11134   -12241   -13134   -12930   -10889   -10102   -11902   -12677 
  -11830   -11711   -11408   -10565   -11300   -12816   -12831   -11674 
  -10447   -10052   -11534   -13602   -13521   -11632   -10480   -11007 
  -12267   -12656   -11691   -10975   -11445   -11929   -11815   -11627 
  -11658   -11707   -11265   -10717   -11040   -12013   -12815   -12725 
  -11599   -10864   -11581   -12656   -12507   -11283   -10949   -11777 
  -11836   -11334   -11562   -11958   -12090   -12028   -11564   -11279 
  -11645   -11963   -11761   -11466   -11475   -11522   -11461   -11722 
  -12001   -11867   -11827   -11811   -11445   -11333   -11793   -11971 
  -11557   -11578   -12147   -12299   -11967   -11589   -11476   -11472 
  -11257   -11533   -12197   -11956   -11470   -11703   -11782   -11662 
  -11940   -12044   -11530   -11032   -11277   -12066   -12556   -12102 
  -10979   -10597   -11557   -12452   -12326   -11777   -11276   -11010 
  -11504   -12671   -13035   -11722   -10343   -10644   -12019   -12779 
  -12226   -11260   -10993   -11407   -11915   -12005   -11639   -11487 
  -11749   -11753   -11603   -11848   -11954   -11726   -11954   -12383 
  -11943   -11018   -10978   -11645   -11889   -11866   -11963   -11664 
  -11394   -12024   -12375   -11564   -11168   -11645   -11712   -11655 
  -12067   -12070   -11479   -11156   -11268   -11562   -12013   -12274 
  -11920   -11356   -11295   -11630   -11797   -11697   -11560   -11524 
  -11873   -12741   -13024   -11712   -10177   -10332   -11759   -12727 
  -12484   -11377   -10497   -11137   -12621   -12874   -11839   -10972 
  -10913   -11568   -12313   -12317   -11588   -10979   -11240   -12063 
  -12515   -12349   -11813   -11242   -11160   -11637   -12160   -12182 
  -11623   -11225   -11438   -11662   -11632   -11724   -11900   -11780 
  -11299   -11071   -11488   -12090   -12422   -12189   -11577   -11326 
  -11547   -11940   -12110   -11638   -11153   -11376   -11817   -12185 
  -12426   -11919   -11098   -11080   -11507   -11751   -11997   -12135 
  -11993   -11624   -11186   -11192   -11766   -12353   -12232   -11433 
  -11188   -11704   -11846   -11713   -11855   -11767   -11522   -11842 
  -12110   -11676   -11379   -11507   -11682   -11974   -12209   -12031 
  -11389   -10920   -11230   -11766   -11965   -11998   -11920   -11639 
  -11287   -11249   -11665   -12105   -12206   -11992   -11643   -11421 
  -11511   -11931   -12235   -11832   -11254   -11376   -11781   -11832 
  -11715   -11631   -11523   -11583   -11888   -11896   -11604   -11688 
  -11982   -11913   -11456   -11060   -11236   -11889   -12532   -12452 
  -11414   -10783   -11379   -12062   -12125   -11813   -11403   -11404 
  -11885   -12116   -11724   -11215   -11199   -11736   -12329   -12339 
  -11716   -11140   -11268   -11865   -12063   -11855   -11812   -11799 
  -11772   -11955   -11934   -11595   -11443   -11384   -11256   -11581 
  -12204   -12054   -11357   -11473   -12091   -11966   -11452   -11313 
  -11479   -11838   -12152   -12112   -11804   -11523   -11427   -11396 
  -11493   -11947   -12328   -12086   -11473   -10983   -10999   -11751 
  -12479   -12233   -11551   -11284   -11314   -11573   -12086   -12195 
  -11669   -11286   -11389   -11708   -12135   -12258   -11740   -11279 
  -11430   -11739   -11834   -11797   -11765   -11875   -11894   -11632 
  -11537   -11693   -11670   -11593   -11682   -11637   -11581   -11871 
  -11970   -11601   -11435   -11570   -11769   -12036   -12040   -11781 
  -11581   -11402   -11381   -11650   -11907   -11962   -11736   -11283 
  -11195   -11740   -12175   -12101   -11951   -11755   -11406   -11333 
  -11638   -11858   -11909   -11993   -11805   -11367   -11408   -11778 
  -11797   -11708   -11773   -11745   -11673   -11784   -11909   -11807 
  -11628   -11491   -11493   -11766   -11905   -11773   -11641   -11462 
  -11564   -11985   -12004   -11603   -11330   -11438   -11773   -11905 
  -11885   -11923   -11757   -11537   -11676   -11848   -11811   -11882 
  -11766   -11271   -11344   -11996   -12100   -11734   -11585   -11642 
  -11720   -11658   -11487   -11585   -11909   -12055   -11940   -11626 
  -11306   -11342   -11670   -11824   -11788   -11944   -12023   -11626 
  -11402   -11678   -11696   -11449   -11627   -11888   -11750   -11719 
  -11878   -11743   -11587   -11749   -11867   -11755   -11659   -11649 
  -11605   -11627   -11713   -11631   -11600   -11838   -11932   -11763 
  -11665   -11695   -11727   -11738   -11780   -11782   -11701   -11712 
  -11732   -11600   -11558   -11654   -11647   -11611   -11746   -11943 
  -11913   -11673   -11497   -11515   -11767   -12079   -11989   -11514 
  -11238   -11457   -11882   -12074   -11877   -11537   -11437   -11685 
  -11967   -11915   -11642   -11519   -11576   -11724   -11847   -11751 
  -11681   -11767   -11665   -11520   -11608   -11684   -11726   -11865 
