Origin Time       2025/02/01 08:16:00
Lat.              33.667
Long.             130.927
Depth. (km)       8
Mag.              3.1
Station Code      OIT006
Station Lat.      33.4211
Station Long.     131.3173
Station Height(m) 91
Record Time       2025/02/01 08:17:11
Sampling Freq(Hz) 100Hz
Duration Time(s)  60
Dir.              E-W
Scale Factor      7845(gal)/8223790
Max. Acc. (gal)   2.380
Last Correction   2025/02/01 08:17:11
Memo.             
[...]
    4598     4592     4596     4600     4604     4603     4600     4606 
    4600     4585     4588     4603     4608     4599     4590     4595 
    4603     4600     4595     4596     4603     4610     4608     4591 
    4583     4599     4615     4614     4594     4575     4584     4608 
    4619     4603     4584     4584     4596     4604     4614     4614 
    4596     4585     4591     4602     4612     4610     4591     4581 
    4594     4612     4611     4594     4584     4594     4604     4606 
    4599     4598     4600     4598     4592     4592     4604     4614 
    4604     4584     4584     4600     4604     4602     4603     4598 
    4590     4592     4599     4606     4611     4603     4590     4590 
    4600     4610     4607     4595     4587     4587     4595     4612 
    4627     4607     4563     4553     4600     4653     4648     4584 
    4537     4558     4625     4672     4634     4544     4519     4598 
    4669     4650     4575     4531     4569     4639     4654     4603 
    4557     4568     4621     4641     4600     4558     4581     4634 
    4631     4579     4558     4594     4627     4626     4600     4568 
    4564     4603     4642     4630     4584     4560     4579     4617 
    4642     4623     4571     4550     4590     4638     4633     4587 
    4564     4584     4618     4625     4603     4581     4579     4602 
    4621     4610     4590     4583     4599     4621     4610     4580 
    4576     4606     4622     4603     4587     4587     4591     4606 
    4617     4607     4594     4587     4594     4611     4615     4600 
    4587     4590     4599     4607     4608     4599     4585     4588 
    4610     4615     4598     4588     4596     4604     4608     4604 
    4594     4588     4600     4615     4610     4588     4583     4596 
    4604     4606     4604     4595     4588     4595     4606     4608 
    4603     4594     4591     4594     4602     4610     4603     4591 
    4591     4598     4606     4606     4598     4595     4599     4600 
    4599     4606     4604     4594     4594     4603     4604     4595 
    4594     4604     4604     4591     4594     4606     4600     4592 
    4599     4603     4600     4598     4595     4595     4599     4604 
    4606     4598     4585     4590     4608     4611     4594     4588 
    4599     4600     4598     4598     4599     4602     4598     4591 
    4599     4608     4602     4592     4598     4607     4603     4592 
    4598     4606     4598     4591     4603     4607     4591     4587 
    4604     4607     4594     4595     4603     4603     4596     4592 
    4602     4607     4594     4587     4599     4606     4600     4595 
    4599     4603     4598     4592     4602     4607     4599     4595 
    4600     4600     4595     4595     4603     4607     4594     4592 
    4606     4603     4592     4594     4598     4604     4604     4595 
    4594     4599     4595     4595     4606     4606     4592     4591 
    4595     4599     4603     4604     4600     4594     4594     4599 
    4603     4603     4598     4592     4594     4600     4606     4600 
    4588     4590     4602     4608     4604     4594     4588     4598 
    4608     4608     4596     4587     4591     4602     4610     4604 
    4590     4585     4592     4603     4611     4608     4595     4587 
    4590     4599     4610     4608     4596     4587     4590     4603 
    4615     4607     4592     4591     4595     4596     4604     4610 
    4599     4588     4591     4600     4604     4604     4599     4591 
    4595     4606     4606     4599     4598     4596     4596     4599 
    4600     4600     4604     4600     4591     4590     4602     4606 
    4600     4594     4594     4598     4603     4603     4599     4594 
    4595     4600     4604     4602     4598     4596     4595     4598 
    4603     4602     4599     4599     4598     4596     4599     4600 
    4600     4600     4599     4596     4598     4603     4603     4600 
    4599     4595     4595     4602     4602     4598     4598     4600 
    4598     4594     4599     4603     4598     4596     4600     4602 
    4598     4594     4595     4600     4602     4598     4596     4599 
    4602     4599     4598     4599     4598     4600     4604     4598 
    4594     4596     4598     4602     4602     4596     4594     4596 
    4600     4603     4599     4594     4594     4599     4607     4604 
    4598     4596     4599     4602     4599     4595     4598     4604 
    4603     4596     4594     4596     4602     4602     4598     4596 
    4600     4602     4602     4600     4596     4595     4598     4600 
    4602     4602     4600     4600     4600     4599     4598     4595 
    4598     4602     4603     4602     4599     4596     4599     4599 
    4595     4599     4599     4596     4599     4602     4600     4600 
    4596     4595     4600     4604     4603     4599     4595     4596 
    4599     4600     4598     4594     4599     4603     4600     4596 
    4599     4604     4603     4596     4599     4602     4596     4598 
    4606     4604     4596     4596     4598     4600     4603     4598 
    4594     4600     4604     4596     4594     4600     4600     4598 
    4603     4602     4594     4596     4603     4600     4594     4598 
    4603     4598     4598     4604     4602     4592     4590     4599 
    4607     4606     4602     4594     4588     4596     4606     4606 
    4600     4594     4591     4598     4603     4603     4602     4598 
    4590     4591     4602     4607     4600     4594     4595     4596 
    4602     4606     4600     4592     4595     4600     4604     4603 
    4600     4598     4596     4600     4603     4599     4598     4602 
    4600     4599     4600     4599     4596     4598     4602     4600 
    4598     4598     4599     4599     4598     4596     4598     4599 
    4600     4603     4602     4596     4596     4595     4596     4603 
    4603     4596     4596     4600     4599     4599     4602     4599 
    4594     4596     4602     4602     4599     4595     4595     4600 
    4603     4600     4595     4595     4598     4602     4602     4600 
    4595     4594     4602     4604     4599     4596     4598     4596 
    4596     4602     4603     4600     4599     4596     4596     4600 
    4604     4602     4594     4592     4599     4606     4606     4600 
    4596     4595     4599     4599     4596     4604     4604     4594 
    4594     4602     4600     4598     4598     4599     4600     4600 
    4596     4595     4598     4602     4602     4598     4594     4596 
    4599     4600     4602     4603     4599     4594     4596     4600 
    4598     4595     4596     4600     4599     4595     4599     4603 
    4598     4596     4598     4599     4598     4596     4596     4599 
    4600     4600     4599     4596     4598     4600     4598     4600 
    4603     4599     4596     4599     4602     4600     4598     4598 
    4598     4596     4602     4602     4595     4592     4598     4599 
    4598     4602     4604     4599     4594     4595     4595     4596 
    4602     4602     4596     4594     4595     4599     4604     4599 
    4594     4596     4602     4599     4594     4596     4599     4599 
    4600     4600     4596     4596     4602     4606     4599     4595 
    4598     4598     4595     4600     4602     4598     4596     4598 
    4602     4607     4606     4599     4588     4587     4598     4607 
    4602     4576     4563     4607     4650     4610     4561     4576 
    4600     4626     4644     4575     4518     4602     4665     4608 
    4577     4594     4583     4584     4622     4630     4592     4596 
    4619     4531     4517     4734     4758     4442     4380     4669 
    4762     4614     4564     4608     4567     4498     4560     4700 
    4783     4639     4345     4411     4791     4839     4577     4401 
    4467     4692     4696     4564     4612     4563     4541     4753 
    4653     4484     4657     4560     4355     4612     4864     4760 
    4519     4371     4482     4747     4868     4625     4322     4457 
    4742     4698     4465     4544     4914     4642     4055     4544 
    5175     4710     4244     4402     4599     4737     4858     4715 
    4374     4418     4739     4571     4372     4819     5108     4548 
    3883     4194     5030     5143     4634     4264     4399     4785 
    4733     4461     4554     4737     4606     4310     4441     4963 
    5007     4449     4108     4500     5109     4905     4116     4055 
    4789     5169     4787     4318     4329     4575     4664     4612 
    4594     4707     4814     4580     4216     4384     4858     4868 
    4596     4496     4483     4569     4689     4661     4631     4600 
    4511     4498     4472     4607     4918     4685     4324     4684 
    4873     4426     4284     4483     4627     4862     4946     4603 
    4270     4442     4792     4650     4351     4541     4880     4853 
    4522     4288     4399     4631     4792     4811     4630     4537 
    4540     4345     4361     4857     5051     4648     4357     4421 
    4576     4716     4661     4457     4502     4753     4811     4600 
    4364     4361     4610     4843     4858     4656     4374     4271 
    4452     4793     5008     4787     4329     4253     4629     4772 
    4579     4679     4820     4529     4303     4455     4695     4795 
    4688     4514     4432     4548     4765     4689     4441     4487 
    4715     4766     4625     4545     4534     4492     4621     4719 
    4563     4533     4608     4583     4642     4716     4592     4453 
    4553     4693     4681     4619     4486     4442     4642     4737 
    4612     4546     4602     4572     4456     4576     4874     4916 
    4549     4128     4274     4831     5026     4788     4395     4198 
    4575     4855     4536     4500     4837     4768     4461     4345 
    4480     4769     4935     4684     4228     4301     4784     4847 
    4567     4503     4684     4687     4433     4413     4699     4812 
    4612     4483     4581     4644     4693     4665     4337     4280 
    4785     5008     4630     4345     4504     4727     4576     4372 
    4698     4993     4675     4396     4436     4417     4564     4820 
    4687     4567     4754     4580     4195     4425     4969     5020 
    4513     4131     4414     4841     4919     4846     4414     3916 
    4369     5240     5231     4540     4055     4060     4491     5116 
    5216     4565     4032     4229     4810     5036     4789     4537 
    4301     4203     4552     4926     4976     4760     4295     4101 
    4561     5067     5020     4525     4099     4202     4787     5166 
    4804     4287     4286     4546     4675     4668     4719     4714 
    4479     4344     4491     4733     4966     4864     4280     4058 
    4639     5096     4854     4449     4342     4419     4496     4699 
    4900     4762     4511     4475     4496     4477     4653     4814 
    4600     4473     4577     4510     4525     4715     4737     4629 
    4549     4571     4627     4550     4495     4681     4892     4707 
    4214     4151     4746     5093     4738     4413     4386     4440 
    4716     4914     4661     4471     4544     4433     4426     4822 
    4923     4536     4260     4398     4900     5039     4387     4117 
    4633     4899     4726     4511     4498     4645     4599     4545 
    4557     4448     4611     4895     4738     4440     4441     4614 
    4594     4503     4716     4909     4735     4413     4245     4453 
    4843     4874     4442     4252     4718     4968     4564     4328 
    4473     4635     4843     4885     4463     4213     4661     4936 
    4507     4234     4503     4819     4881     4652     4374     4329 
    4553     4953     4977     4457     4209     4391     4540     4757 
    4936     4838     4607     4212     4081     4711     5219     4951 
    4444     4058     4167     4855     5229     4862     4253     4047 
    4392     4752     4985     5146     4712     3969     3969     4658 
    5154     5026     4394     3948     4365     5189     5309     4540 
    3979     4259     4772     4990     4766     4311     4178     4348 
    4630     4992     5040     4706     4368     4286     4638     4962 
    4681     4326     4402     4689     4923     4733     4315     4406 
    4693     4455     4140     4352     4731     4818     4500     4256 
    4695     4946     4345     4077     4706     5547     5783     5111 
    4371     4290     4861     5533     5174     4156     3778     3765 
    3746     3856     4199     5085     5393     4234     3555     4344 
    5003     4874     4374     4067     4881     6346     6675     5282 
    3543     3252     4159     4692     4698     4634     4004     2999 
    3568     5838     6767     5517     4266     3947     4387     5022 
    4834     3942     3570     4568     5945     5574     3851     3393 
    4326     4773     4741     5016     5190     4773     3593     2808 
    4429     6708     6241     4217     3141     3365     4648     5355 
    4664     4565     5458     5594     4864     4183     3616     3800 
    5162     6006     5363     4206     3431     3476     4048     4615 
    5032     5055     4664     4326     4490     4851     4708     4521 
    4978     5443     5124     3944     3210     4456     5945     5316 
    3715     2945     3688     5678     6806     5679     3472     2263 
    3257     5346     6550     6315     4916     2875     2104     4318 
    6955     6639     4398     2832     3592     5740     6029     4410 
    3451     3866     4517     4176     4126     5579     5906     4472 
    3901     4133     4595     5452     5193     3966     3690     4297 
    4930     5377     5208     4452     3873     3983     4715     5154 
    4754     4112     3534     3721     5282     6609     6242     4536 
    2682     2695     4769     6334     6134     4927     3553     2984 
    3855     5263     5649     4928     4104     3859     4598     5579 
    5265     3952     3605     4668     5389     4779     3897     3969 
    4806     5171     4768     4340     4179     4679     5521     5115 
    3877     3726     4456     4974     5120     4842     4459     4498 
    4742     4648     4203     4259     5206     5810     5179     4033 
    3146     3057     4336     6003     6060     4623     3411     3456 
    4758     5830     5416     4537     4102     3854     4000     4704 
    5495     5466     4333     3616     4059     4518     4855     5202 
    4972     4695     4648     4368     4382     4823     4970     4680 
    4402     4402     4309     4094     4364     4972     5188     4881 
    4398     4027     4239     4982     5143     4521     4288     4569 
    4604     4603     4712     4629     4688     4839     4612     4324 
    4615     5211     4909     4000     4017     4742     5015     4513 
    3827     4089     5171     5644     4865     3692     3665     4916 
    5691     5078     4045     3717     4202     4858     5325     5304 
    4444     3654     3844     4490     5273     5773     5150     4063 
    3763     4226     4779     5017     4861     4554     4565     4695 
    4355     3977     4286     4941     5161     4800     4438     4558 
    4777     4603     4450     4517     4344     4382     4978     5051 
    4432     4259     4550     4796     5035     4816     3910     3568 
    4560     5610     5344     4085     3298     3920     5301     5898 
    5112     4106     4097     4764     5166     5019     4608     4160 
    3893     4297     5231     5433     4565     3986     4311     4738 
    4635     4213     4248     4985     5502     4934     3819     3635 
    4598     5363     5193     4402     3738     4024     5005     5537 
    5120     4307     4039     4448     4783     4727     4529     4464 
    4515     4430     4495     4874     4934     4446     4051     4338 
    5030     5252     4726     4095     4129     4781     5185     4754 
    4094     4255     4969     5157     4679     4179     4267     4706 
    4635     4282     4533     5062     5036     4692     4514     4356 
    4237     4280     4452     4841     5147     4949     4476     4176 
    4302     4691     4769     4594     4662     4607     4322     4523 
    4950     4972     4766     4429     4066     4195     4725     4880 
    4591     4446     4549     4696     4734     4648     4660     4625 
    4372     4330     4745     5306     5344     4603     3897     3915 
    4502     5103     5055     4434     4028     4137     4468     4818 
    5115     5057     4536     4152     4276     4560     4760     4916 
    4868     4465     4256     4680     4980     4564     4121     4294 
    4688     4739     4649     4700     4696     4665     4654     4518 
    4491     4611     4665     4680     4603     4477     4445     4572 
    4796     4783     4537     4398     4433     4579     4638     4526 
    4491     4527     4567     4780     4988     4882     4511     4232 
    4457     4943     5017     4791     4621     4226     3825     4106 
    4842     5296     5092     4379     3886     4220     5019     5350 
    4837     4145     4058     4402     4671     4801     4792     4656 
    4567     4521     4568     4841     4881     4437     4279     4626 
    4814     4723     4526     4359     4549     4877     4747     4388 
    4527     4957     4865     4395     4220     4390     4627     4715 
    4573     4500     4648     4707     4558     4387     4414     4756 
    4942     4588     4263     4378     4631     4845     4849     4542 
    4379     4588     4760     4664     4542     4591     4665     4588 
    4492     4583     4738     4726     4592     4472     4472     4727 
    4932     4666     4333     4349     4444     4542     4764     4861 
    4630     4444     4652     4888     4803     4557     4259     4101 
    4361     4743     4807     4679     4648     4710     4712     4576 
    4428     4482     4653     4684     4700     4796     4676     4409 
    4330     4442     4634     4704     4552     4450     4618     4922 
    4946     4541     4236     4402     4696     4711     4526     4461 
    4652     4930     4900     4469     4245     4565     4807     4606 
    4448     4519     4564     4541     4577     4781     4907     4656 
    4364     4345     4455     4689     4970     4876     4409     4229 
    4506     4684     4654     4700     4691     4495     4430     4725 
    5036     4873     4349     4028     4216     4725     5004     4723 
    4340     4357     4588     4768     4835     4650     4398     4444 
    4683     4807     4737     4592     4461     4359     4396     4577 
    4734     4803     4720     4529     4500     4703     4796     4600 
    4468     4563     4645     4675     4657     4592     4583     4552 
    4525     4662     4746     4573     4419     4502     4706     4777 
    4558     4359     4510     4757     4760     4522     4311     4445 
    4746     4833     4716     4556     4459     4521     4671     4653 
    4495     4553     4719     4631     4495     4530     4623     4708 
    4729     4664     4527     4391     4534     4850     4845     4522 
    4266     4336     4679     4841     4669     4504     4491     4584 
    4671     4654     4649     4660     4610     4553     4542     4598 
