Origin Time       2025/02/01 08:16:00
Lat.              33.667
Long.             130.927
Depth. (km)       8
Mag.              3.1
Station Code      OIT006
Station Lat.      33.4211
Station Long.     131.3173
Station Height(m) 91
Record Time       2025/02/01 08:17:11
Sampling Freq(Hz) 100Hz
Duration Time(s)  60
Dir.              U-D
Scale Factor      7845(gal)/8223790
Max. Acc. (gal)   1.005
Last Correction   2025/02/01 08:17:11
Memo.             
  -10798   -10797   -10782   -10786   -10797   -10794   -10793   -10793 
  -10786   -10790   -10797   -10791   -10790   -10790   -10785   -10789 
  -10795   -10790   -10787   -10797   -10794   -10782   -10787   -10797 
  -10793   -10787   -10789   -10793   -10797   -10791   -10786   -10790 
  -10790   -10790   -10790   -10789   -10790   -10791   -10789   -10790 
  -10793   -10794   -10795   -10793   -10789   -10787   -10790   -10793 
  -10787   -10786   -10793   -10793   -10787   -10791   -10793   -10790 
  -10791   -10795   -10791   -10787   -10791   -10798   -10795   -10789 
  -10790   -10794   -10793   -10786   -10787   -10793   -10794   -10789 
  -10786   -10790   -10795   -10793   -10787   -10787   -10794   -10795 
  -10793   -10791   -10790   -10793   -10794   -10789   -10787   -10795 
  -10797   -10787   -10786   -10791   -10793   -10791   -10790   -10789 
  -10789   -10790   -10794   -10793   -10789   -10793   -10795   -10787 
  -10786   -10798   -10797   -10783   -10785   -10793   -10793   -10786 
  -10787   -10793   -10793   -10789   -10791   -10791   -10790   -10790 
  -10791   -10793   -10793   -10794   -10790   -10782   -10781   -10797 
  -10809   -10791   -10771   -10785   -10804   -10800   -10789   -10785 
  -10783   -10790   -10805   -10804   -10782   -10768   -10789   -10816 
  -10801   -10774   -10779   -10793   -10794   -10802   -10800   -10773 
  -10771   -10808   -10818   -10790   -10775   -10786   -10790   -10791 
  -10800   -10795   -10779   -10779   -10801   -10808   -10790   -10782 
  -10787   -10786   -10793   -10806   -10798   -10779   -10781   -10798 
  -10805   -10791   -10774   -10783   -10801   -10801   -10791   -10786 
  -10789   -10797   -10794   -10789   -10795   -10795   -10779   -10786 
  -10808   -10798   -10779   -10785   -10797   -10794   -10787   -10793 
  -10795   -10785   -10783   -10795   -10800   -10790   -10783   -10793 
  -10801   -10791   -10787   -10795   -10790   -10786   -10793   -10793 
  -10791   -10785   -10785   -10795   -10794   -10787   -10791   -10790 
  -10787   -10794   -10790   -10789   -10795   -10793   -10787   -10790 
  -10793   -10794   -10793   -10791   -10789   -10790   -10798   -10798 
  -10786   -10786   -10793   -10791   -10790   -10791   -10791   -10791 
  -10795   -10793   -10789   -10791   -10794   -10789   -10787   -10797 
  -10798   -10787   -10785   -10798   -10798   -10782   -10786   -10801 
  -10795   -10782   -10790   -10802   -10790   -10778   -10794   -10808 
  -10785   -10774   -10798   -10806   -10782   -10782   -10806   -10801 
  -10777   -10786   -10806   -10794   -10779   -10791   -10801   -10790 
  -10790   -10794   -10790   -10790   -10795   -10789   -10783   -10794 
  -10801   -10787   -10783   -10801   -10802   -10778   -10782   -10808 
  -10800   -10775   -10787   -10810   -10791   -10771   -10791   -10808 
  -10787   -10777   -10795   -10804   -10787   -10779   -10793   -10800 
  -10787   -10786   -10794   -10791   -10789   -10791   -10795   -10795 
  -10790   -10786   -10790   -10795   -10791   -10786   -10790   -10793 
  -10791   -10790   -10793   -10795   -10791   -10786   -10791   -10795 
  -10791   -10791   -10794   -10791   -10790   -10794   -10794   -10790 
  -10790   -10790   -10789   -10791   -10791   -10790   -10793   -10789 
  -10790   -10800   -10795   -10786   -10790   -10797   -10793   -10787 
  -10791   -10798   -10790   -10785   -10793   -10795   -10786   -10789 
  -10795   -10794   -10787   -10786   -10793   -10795   -10787   -10789 
  -10797   -10793   -10787   -10790   -10793   -10790   -10787   -10794 
  -10800   -10793   -10787   -10793   -10793   -10789   -10791   -10794 
  -10794   -10791   -10787   -10789   -10793   -10794   -10791   -10787 
  -10787   -10791   -10794   -10793   -10790   -10790   -10791   -10789 
  -10790   -10795   -10794   -10789   -10791   -10794   -10793   -10790 
  -10791   -10794   -10795   -10793   -10791   -10791   -10789   -10790 
  -10797   -10797   -10791   -10791   -10794   -10791   -10787   -10790 
  -10793   -10789   -10790   -10791   -10791   -10794   -10794   -10790 
  -10786   -10790   -10795   -10794   -10789   -10790   -10791   -10790 
  -10791   -10793   -10790   -10791   -10794   -10791   -10787   -10791 
  -10791   -10789   -10793   -10794   -10790   -10789   -10790   -10790 
  -10791   -10791   -10789   -10789   -10790   -10791   -10791   -10790 
  -10789   -10791   -10791   -10790   -10790   -10793   -10793   -10791 
  -10793   -10794   -10793   -10789   -10790   -10794   -10793   -10793 
  -10791   -10789   -10790   -10797   -10791   -10786   -10791   -10793 
  -10787   -10791   -10793   -10789   -10790   -10793   -10794   -10793 
  -10789   -10790   -10793   -10790   -10787   -10793   -10794   -10789 
  -10790   -10797   -10793   -10786   -10791   -10793   -10789   -10791 
  -10794   -10790   -10791   -10794   -10791   -10790   -10793   -10793 
  -10790   -10793   -10793   -10786   -10790   -10791   -10789   -10791 
  -10794   -10789   -10790   -10793   -10793   -10790   -10790   -10794 
  -10795   -10787   -10786   -10795   -10793   -10785   -10793   -10797 
  -10786   -10786   -10794   -10790   -10786   -10793   -10793   -10789 
  -10791   -10793   -10789   -10787   -10790   -10794   -10790   -10787 
  -10793   -10794   -10790   -10790   -10793   -10791   -10789   -10791 
  -10794   -10787   -10786   -10791   -10793   -10791   -10791   -10791 
  -10789   -10791   -10793   -10790   -10790   -10791   -10790   -10790 
  -10793   -10791   -10791   -10793   -10790   -10790   -10791   -10793 
  -10791   -10790   -10790   -10791   -10790   -10789   -10791   -10790 
  -10786   -10790   -10793   -10791   -10791   -10789   -10790   -10790 
  -10787   -10791   -10797   -10790   -10786   -10794   -10793   -10789 
  -10790   -10793   -10790   -10789   -10791   -10793   -10790   -10789 
  -10793   -10794   -10787   -10787   -10797   -10795   -10787   -10793 
  -10797   -10790   -10790   -10794   -10791   -10790   -10791   -10793 
  -10790   -10791   -10793   -10790   -10790   -10793   -10790   -10787 
  -10790   -10791   -10793   -10793   -10790   -10791   -10793   -10790 
  -10791   -10793   -10793   -10791   -10790   -10790   -10790   -10790 
  -10789   -10790   -10791   -10793   -10793   -10791   -10790   -10790 
  -10790   -10790   -10791   -10791   -10791   -10791   -10793   -10791 
  -10787   -10790   -10794   -10791   -10789   -10793   -10794   -10790 
  -10789   -10793   -10793   -10789   -10790   -10794   -10791   -10791 
  -10794   -10794   -10791   -10791   -10791   -10791   -10790   -10790 
  -10794   -10794   -10791   -10791   -10794   -10793   -10790   -10794 
  -10795   -10791   -10793   -10795   -10793   -10793   -10795   -10791 
  -10790   -10793   -10793   -10793   -10791   -10789   -10790   -10789 
  -10787   -10791   -10793   -10790   -10791   -10793   -10793   -10793 
  -10793   -10791   -10791   -10793   -10791   -10790   -10793   -10793 
  -10789   -10790   -10795   -10793   -10789   -10794   -10795   -10789 
  -10789   -10794   -10793   -10789   -10787   -10793   -10794   -10789 
  -10790   -10795   -10790   -10787   -10793   -10793   -10791   -10794 
  -10791   -10790   -10793   -10793   -10790   -10791   -10793   -10791 
  -10790   -10793   -10793   -10791   -10790   -10794   -10794   -10790 
  -10790   -10793   -10793   -10793   -10790   -10789   -10793   -10793 
  -10791   -10790   -10790   -10790   -10790   -10791   -10790   -10793 
  -10793   -10793   -10791   -10793   -10794   -10794   -10791   -10790 
  -10793   -10791   -10791   -10791   -10789   -10787   -10789   -10793 
  -10793   -10790   -10791   -10794   -10790   -10787   -10793   -10795 
  -10791   -10790   -10793   -10791   -10790   -10791   -10794   -10790 
  -10789   -10794   -10794   -10790   -10791   -10793   -10787   -10781 
  -10775   -10774   -10789   -10810   -10817   -10812   -10798   -10790 
  -10818   -10844   -10770   -10677   -10759   -10886   -10816   -10723 
  -10801   -10847   -10787   -10785   -10783   -10752   -10806   -10801 
  -10682   -10786   -11001   -10821   -10562   -10809   -11034   -10705 
  -10542   -10906   -10968   -10609   -10633   -10974   -10991   -10763 
  -10686   -10712   -10728   -10854   -10967   -10871   -10701   -10585 
  -10632   -10889   -10990   -10840   -10816   -10802   -10602   -10647 
  -10971   -11003   -10716   -10608   -10782   -10810   -10696   -10887 
  -11070   -10774   -10489   -10696   -11009   -10899   -10727   -10887 
  -10731   -10363   -10775   -11315   -10976   -10532   -10723   -10825 
  -10484   -10678   -11257   -10932   -10466   -10937   -11037   -10376 
  -10569   -11287   -10894   -10241   -10804   -11317   -10647   -10411 
  -11118   -11090   -10436   -10532   -11014   -10921   -10621   -10763 
  -11025   -10912   -10585   -10559   -10833   -10944   -10916   -10872 
  -10690   -10602   -10709   -10828   -10897   -10833   -10764   -10778 
  -10724   -10736   -10955   -11014   -10696   -10557   -10835   -10863 
  -10667   -10822   -10937   -10700   -10697   -10918   -10779   -10629 
  -10910   -10972   -10643   -10692   -10944   -10778   -10670   -10893 
  -10808   -10623   -10894   -10974   -10633   -10652   -10962   -10864 
  -10561   -10767   -11063   -10755   -10616   -10971   -10889   -10517 
  -10704   -11043   -10774   -10532   -10947   -11049   -10588   -10638 
  -10939   -10752   -10733   -11003   -10814   -10563   -10766   -10905 
  -10798   -10760   -10836   -10837   -10714   -10744   -10879   -10797 
  -10729   -10804   -10720   -10689   -10912   -10917   -10733   -10822 
  -10908   -10721   -10693   -10874   -10812   -10651   -10756   -10845 
  -10804   -10845   -10785   -10696   -10837   -10909   -10755   -10729 
  -10905   -10841   -10566   -10670   -10944   -10808   -10705   -10978 
  -10932   -10500   -10592   -11115   -11013   -10530   -10697   -10967 
  -10686   -10662   -10952   -10875   -10682   -10702   -10779   -10876 
  -10932   -10768   -10636   -10821   -10940   -10773   -10685   -10744 
  -10743   -10759   -10868   -10841   -10748   -10874   -10905   -10639 
  -10617   -10943   -10990   -10686   -10606   -10839   -10867   -10720 
  -10812   -10913   -10786   -10694   -10751   -10837   -10841   -10787 
  -10820   -10836   -10723   -10656   -10739   -10899   -10928   -10716 
  -10666   -10913   -10895   -10567   -10671   -11075   -10855   -10517 
  -10943   -11160   -10584   -10451   -10966   -10914   -10494   -10740 
  -11107   -10837   -10563   -10793   -10989   -10737   -10598   -10945 
  -10970   -10470   -10538   -11099   -10986   -10573   -10833   -11095 
  -10697   -10517   -10918   -10932   -10485   -10611   -11133   -11002 
  -10578   -10762   -10994   -10633   -10511   -10957   -10989   -10663 
  -10805   -10926   -10613   -10697   -11119   -10879   -10466   -10790 
  -11025   -10674   -10663   -10930   -10685   -10481   -10963   -11221 
  -10656   -10438   -11014   -11111   -10600   -10654   -11006   -10733 
  -10467   -10844   -11056   -10750   -10667   -10876   -10787   -10620 
  -10785   -10976   -10881   -10619   -10605   -10883   -10959   -10802 
  -10778   -10839   -10797   -10679   -10682   -10882   -10862   -10638 
  -10863   -11118   -10720   -10455   -10812   -10891   -10666   -10948 
  -11075   -10554   -10542   -10944   -10712   -10639   -11242   -11080 
  -10249   -10496   -11176   -10878   -10565   -10917   -10847   -10385 
  -10754   -11350   -10932   -10430   -10693   -10906   -10751   -10687 
  -10883   -11122   -10890   -10369   -10513   -11068   -10956   -10555 
  -10786   -11119   -10768   -10428   -10840   -11146   -10667   -10419 
  -10937   -11084   -10577   -10550   -11024   -11003   -10640   -10683 
  -10827   -10713   -10854   -11114   -10860   -10498   -10561   -10813 
  -10906   -10848   -10868   -10786   -10557   -10736   -11121   -10979 
  -10547   -10590   -10952   -10825   -10594   -10864   -10939   -10732 
  -10808   -10824   -10674   -10802   -10982   -10721   -10497   -10852 
  -11048   -10698   -10693   -10997   -10763   -10544   -10933   -11005 
  -10566   -10644   -11063   -10835   -10416   -10756   -11194   -10862 
  -10520   -10721   -10735   -10632   -11034   -11173   -10656   -10573 
  -10871   -10754   -10760   -11030   -10829   -10534   -10642   -10825 
  -10936   -10947   -10831   -10687   -10633   -10750   -10901   -10935 
  -10758   -10616   -10901   -10926   -10412   -10519   -11075   -11011 
  -10763   -10939   -11041   -10655   -10416   -10751   -10920   -10729 
  -10758   -10858   -10743   -10795   -10997   -10794   -10493   -10700 
  -11053   -11044   -10812   -10669   -10650   -10644   -10650   -10681 
  -10928   -11213   -10876   -10548   -10968   -11133   -10732   -10559 
  -10543   -10582   -10859   -10980   -10682   -10517   -10837   -10926 
  -10647   -10778   -11002   -10820   -10696   -10733   -10806   -11005 
  -11038   -10959   -11153   -10933   -10083   -10123   -11043   -11061 
  -10474   -10615   -11040   -10937   -10629   -10825   -11257   -11007 
  -10488   -10596   -10872   -10862   -10882   -11011   -10944   -10524 
  -10373   -10744   -10644   -10284   -10771   -11164   -10589   -10467 
  -11389   -11562   -10528   -10493   -11472   -10910    -9737   -10582 
  -11765   -11175   -10620   -11002   -10624    -9985   -10773   -11589 
  -10725    -9807   -10332   -10910   -10704   -10625   -10970   -11252 
  -11082   -10839   -11122   -11176   -10466   -10312   -11029   -10948 
  -10224   -10613   -11295   -10930   -10675   -11086   -11292   -11005 
  -10465   -10341   -10706   -10671   -10334   -10503   -10980   -10997 
  -10579   -10558   -10856   -10889   -10987   -11167   -11082   -10924 
  -10839   -10781   -10585   -10515   -10743   -10535   -10291   -10925 
  -11344   -10908   -10709   -10903   -10935   -10862   -10723   -10790 
  -11175   -10879   -10111   -10334   -10939   -10766   -10598   -10948 
  -10956   -10619   -10935   -11441   -10852   -10110   -10754   -11479 
  -10725   -10146   -10943   -11151   -10349   -10515   -11323   -11202 
  -10481   -10335   -11107   -11499   -10593    -9952   -10682   -11504 
  -11134   -10427   -10741   -10993   -10255    -9992   -10547   -10964 
  -11165   -11053   -10744   -10870   -11244   -11148   -10596   -10531 
  -11049   -10949   -10527   -10875   -11199   -10724   -10388   -10458 
  -10249   -10542   -11276   -10975   -10793   -11271   -10764   -10424 
  -11178   -11107   -10351   -10511   -11060   -10980   -10590   -10505 
  -10600   -10625   -10816   -11032   -10929   -10751   -10750   -10825 
  -10833   -11071   -11403   -10905   -10366   -10841   -10953   -10419 
  -10658   -10864   -10064   -10076   -11234   -11163   -10363   -10883 
  -11434   -10982   -10885   -11061   -10727   -10602   -10944   -10964 
  -10612   -10544   -10783   -10886   -10787   -10655   -10669   -10762 
  -10694   -10600   -10669   -10906   -11092   -10963   -10795   -10790 
  -10700   -10565   -10628   -10862   -11049   -11124   -10894   -10345 
  -10513   -11230   -10913   -10469   -11141   -11326   -10488   -10154 
  -10578   -10822   -10754   -10929   -11133   -10941   -10789   -10848 
  -10798   -10640   -10455   -10434   -10872   -11276   -10913   -10505 
  -10930   -11209   -10636   -10392   -10967   -11219   -10717   -10324 
  -10606   -10979   -10795   -10728   -11132   -11007   -10492   -10628 
  -10895   -10593   -10612   -11130   -10995   -10539   -10716   -10917 
  -10704   -10635   -10735   -10758   -10895   -10917   -10639   -10771 
  -11238   -10998   -10454   -10727   -11206   -10932   -10447   -10501 
  -10824   -10781   -10539   -10710   -11005   -11028   -11025   -10939 
  -10681   -10620   -10767   -10708   -10473   -10558   -10876   -10735 
  -10547   -11067   -11264   -10696   -10669   -11026   -10737   -10517 
  -11064   -11272   -10756   -10790   -11126   -10628   -10334   -10914 
  -10933   -10334   -10519   -11079   -10875   -10481   -10624   -10812 
  -10813   -10903   -10920   -10798   -10891   -11091   -10898   -10609 
  -10762   -10801   -10426   -10416   -10766   -10804   -10731   -10948 
  -11132   -10902   -10593   -10633   -10801   -10905   -11016   -10952 
  -10837   -11009   -11151   -10870   -10447   -10428   -10754   -10863 
  -10754   -10712   -10674   -10606   -10662   -10966   -11130   -10708 
  -10455   -10912   -11036   -10642   -10710   -10933   -10669   -10542 
  -10914   -11119   -10899   -10748   -10824   -10843   -10719   -10617 
  -10621   -10685   -10763   -10809   -10844   -10862   -10858   -10929 
  -10891   -10663   -10605   -10681   -10766   -11060   -11144   -10690 
  -10471   -10835   -11034   -10867   -10818   -10777   -10602   -10677 
  -10800   -10744   -10878   -10968   -10635   -10466   -10832   -10980 
  -10639   -10640   -10995   -10855   -10552   -10856   -11109   -10700 
  -10470   -10818   -11002   -10821   -10782   -10925   -10858   -10697 
  -10844   -11005   -10760   -10562   -10804   -10893   -10605   -10624 
  -10936   -10967   -10806   -10773   -10794   -10720   -10746   -10991 
  -11041   -10750   -10592   -10789   -10821   -10535   -10592   -10876 
  -10755   -10629   -10848   -10840   -10611   -10817   -11118   -10821 
  -10589   -10908   -10920   -10681   -10951   -11101   -10706   -10555 
  -10755   -10767   -10675   -10741   -10822   -10777   -10778   -10866 
  -10805   -10682   -10762   -10894   -10895   -10845   -10705   -10608 
  -10840   -10983   -10768   -10708   -10770   -10629   -10694   -11043 
  -11005   -10712   -10867   -10997   -10593   -10528   -10968   -10925 
  -10628   -10860   -11118   -10845   -10574   -10673   -10721   -10638 
  -10679   -10739   -10758   -10855   -10971   -10932   -10743   -10656 
  -10770   -10898   -10851   -10702   -10719   -10852   -10836   -10727 
  -10785   -10930   -10835   -10682   -10783   -10814   -10698   -10756 
  -10839   -10787   -10791   -10870   -10845   -10696   -10706   -10972 
  -11024   -10723   -10617   -10816   -10847   -10644   -10605   -10723 
  -10754   -10812   -10883   -10825   -10867   -10970   -10798   -10624 
  -10751   -10871   -10841   -10851   -10899   -10906   -10860   -10760 
  -10674   -10662   -10706   -10774   -10786   -10729   -10743   -10797 
  -10747   -10777   -10952   -10883   -10647   -10783   -10976   -10740 
  -10646   -10929   -10905   -10621   -10702   -10908   -10779   -10633 
  -10762   -10909   -10852   -10705   -10690   -10767   -10762   -10818 
  -10924   -10820   -10755   -10912   -10874   -10655   -10731   -10952 
  -10836   -10611   -10766   -10978   -10774   -10552   -10746   -10955 
  -10825   -10759   -10876   -10768   -10621   -10770   -10863   -10751 
  -10798   -10955   -10862   -10714   -10804   -10876   -10758   -10689 
  -10787   -10825   -10713   -10735   -10905   -10816   -10623   -10847 
  -11047   -10697   -10544   -10944   -10974   -10596   -10709   -11010 
  -10774   -10561   -10871   -11005   -10681   -10604   -10821   -10812 
  -10759   -10878   -10852   -10723   -10756   -10828   -10820   -10814 
  -10791   -10732   -10763   -10881   -10893   -10758   -10669   -10736 
  -10778   -10746   -10800   -10812   -10723   -10775   -10882   -10801 
  -10708   -10816   -10902   -10790   -10729   -10794   -10802   -10791 
  -10800   -10795   -10832   -10851   -10806   -10787   -10827   -10879 
  -10885   -10821   -10751   -10725   -10770   -10818   -10763   -10710 
  -10716   -10685   -10700   -10820   -10887   -10821   -10759   -10801 
  -10812   -10733   -10694   -10744   -10841   -10899   -10832   -10743 
