Origin Time       2025/01/26 08:11:00
Lat.              34.975
Long.             138.213
Depth. (km)       21
Mag.              3.4
Station Code      SZO003
Station Lat.      34.8158
Station Long.     139.0544
Station Height(m) 149
Record Time       2025/01/26 08:11:51
Sampling Freq(Hz) 100Hz
Duration Time(s)  60
Dir.              E-W
Scale Factor      7845(gal)/8223790
Max. Acc. (gal)   1.206
Last Correction   2025/01/26 08:11:50
Memo.             
[...]
    9015     9022     9027     9028     9024     9018     9011     9015 
    9026     9031     9034     9034     9027     9024     9030     9028 
    9028     9036     9039     9034     9023     9013     9013     9018 
    9023     9030     9028     9018     9015     9024     9031     9030 
    9028     9030     9027     9022     9022     9031     9031     9027 
    9030     9028     9023     9022     9020     9020     9030     9035 
    9030     9024     9023     9024     9026     9020     9018     9027 
    9030     9023     9024     9030     9028     9024     9022     9027 
    9031     9024     9022     9024     9027     9032     9034     9031 
    9030     9026     9023     9026     9026     9023     9020     9020 
    9020     9018     9023     9035     9038     9031     9030     9027 
    9020     9018     9020     9026     9028     9027     9027     9026 
    9024     9026     9022     9022     9027     9030     9030     9030 
    9026     9022     9022     9022     9024     9032     9028     9019 
    9030     9034     9024     9026     9030     9022     9013     9020 
    9028     9028     9030     9027     9015     9009     9020     9030 
    9034     9035     9038     9035     9034     9030     9024     9022 
    9024     9027     9030     9031     9030     9026     9019     9016 
    9022     9028     9030     9026     9018     9020     9028     9031 
    9031     9031     9028     9027     9031     9031     9026     9024 
    9024     9022     9020     9018     9016     9020     9023     9024 
    9027     9031     9038     9034     9023     9022     9027     9027 
    9023     9028     9034     9030     9020     9015     9023     9031 
    9026     9026     9024     9020     9020     9019     9019     9023 
    9028     9036     9036     9031     9028     9028     9030     9024 
    9016     9013     9013     9020     9030     9026     9022     9026 
    9023     9018     9022     9030     9028     9026     9027     9023 
    9028     9034     9028     9024     9023     9023     9022     9018 
    9020     9024     9024     9024     9023     9024     9027     9024 
    9030     9036     9030     9028     9028     9023     9022     9023 
    9016     9016     9023     9026     9030     9031     9027     9026 
    9031     9031     9022     9015     9018     9026     9027     9024 
    9022     9024     9028     9028     9030     9034     9023     9012 
    9019     9024     9026     9026     9024     9027     9027     9027 
    9032     9030     9023     9024     9020     9020     9028     9026 
    9016     9020     9035     9035     9016     9022     9043     9031 
    9020     9036     9028     9012     9024     9026     9015     9018 
    9022     9022     9024     9026     9022     9026     9032     9032 
    9030     9028     9024     9023     9023     9016     9019     9026 
    9023     9027     9036     9031     9027     9024     9015     9012 
    9026     9040     9036     9027     9024     9022     9024     9024 
    9019     9019     9030     9035     9027     9016     9015     9022 
    9024     9022     9022     9030     9034     9028     9024     9020 
    9020     9030     9035     9038     9032     9016     9012     9028 
    9042     9043     9027     9004     9000     9004     9007     9027 
    9049     9046     9035     9022     9008     9011     9024     9035 
    9035     9026     9019     9019     9020     9027     9031     9030 
    9026     9019     9007     9008     9028     9039     9035     9039 
    9040     9020     9005     9020     9034     9032     9040     9046 
    9027     9008     9003     9005     9020     9036     9031     9023 
    9028     9022     9009     9016     9031     9035     9038     9031 
    9015     9011     9019     9026     9032     9039     9042     9027 
    8996     8982     8999     9027     9045     9040     9030     9024 
    9009     9001     9022     9042     9045     9046     9040     9030 
    9019     9008     9018     9035     9027     9015     9008     9005 
    9022     9035     9028     9018     9016     9015     9020     9036 
    9039     9027     9030     9030     9028     9032     9023     9008 
    9005     9005     9012     9026     9034     9036     9038     9035 
    9026     9013     9009     9022     9035     9042     9063     9080 
    9059     9031     9022     9011     8999     8995     8989     8980 
    8978     8992     8997     8982     8981     9012     9040     9069 
    9105     9096     9049     9040     9057     9073     9089     9086 
    9072     9051     8999     8950     8950     8964     8976     8977 
    8945     8943     9016     9054     9020     9012     9040     9054 
    9066     9090     9104     9093     9067     9022     8972     8974 
    8986     8961     8980     9036     9018     8977     9023     9084 
    9070     9053     9073     9078     9057     9027     8993     8951 
    8922     8958     9028     9034     9003     9027     9076     9081 
    9049     9030     9028     9001     8965     8991     9051     9077 
    9090     9092     9046     9013     9012     9032     9067     9043 
    9008     9024     9005     8951     8941     8959     8992     9042 
    9084     9088     9050     8981     8935     8943     8977     9032 
    9096     9113     9093     9103     9120     9080     9001     8959 
    8980     9028     9051     9058     9084     9074     9020     8984 
    8943     8889     8893     8964     9023     9034     9009     8988 
    9011     9061     9104     9130     9116     9054     9003     9030 
    9081     9072     9045     9055     9063     9057     9036     8981 
    8930     8919     8915     8912     8953     9030     9085     9090 
    9078     9069     9057     9046     9040     9047     9081     9111 
    9090     9022     8931     8878     8895     8938     8970     9008 
    9094     9194     9211     9147     9063     8972     8911     8924 
    8977     9012     9005     8986     8986     9005     9032     9053 
    9027     8964     8953     9020     9081     9105     9086     9023 
    8978     8970     8997     9072     9111     9086     9062     9038 
    9012     9039     9108     9138     9090     9028     9003     8992 
    8959     8920     8922     8938     8923     8930     8978     9031 
    9066     9070     9053     9013     8969     8988     9045     9047 
    9043     9086     9116     9115     9115     9115     9088     9028 
    8974     8965     8968     8964     8986     9035     9055     9043 
    9049     9062     9028     8969     8942     8961     8964     8935 
    8961     9019     9009     8995     9040     9065     9059     9073 
    9065     9038     9045     9082     9107     9097     9061     8997 
    8926     8914     8954     8992     9055     9139     9169     9143 
    9094     9023     8959     8943     8943     8926     8910     8931 
    9020     9113     9117     9073     9057     9051     9042     9055 
    9050     8999     8962     8961     8976     9008     9046     9069 
    9069     9067     9097     9117     9070     9012     8995     8997 
    9004     8988     8932     8885     8866     8877     8951     9058 
    9109     9105     9096     9089     9082     9096     9128     9162 
    9171     9147     9093     8992     8868     8816     8845     8888 
    8945     9003     9018     9013     9031     9058     9062     9018 
    8977     9013     9088     9127     9123     9082     9038     9022 
    9024     9027     9022     8991     8965     8981     9020     9073 
    9134     9139     9078     9027     8996     8995     9036     9063 
    9022     8955     8922     8935     8970     8997     8992     8954 
    8941     8991     9055     9097     9109     9084     9045     9015 
    9003     9034     9093     9139     9143     9108     9059     9030 
    9023     9004     8955     8912     8904     8905     8901     8911 
    8931     8961     9016     9081     9144     9180     9144     9069 
    9019     9013     9039     9086     9134     9123     9050     9012 
    9034     9057     9077     9100     9074     8992     8919     8899 
    8919     8942     8954     8958     8966     8982     9000     9027 
    9063     9063     9040     9050     9069     9050     9011     9012 
    9054     9067     9066     9116     9166     9135     9046     8965 
    8919     8910     8943     9004     9028     9012     9020     9047 
    9042     9008     8965     8928     8935     8982     9035     9061 
    9039     9005     9012     9030     9024     9023     9028     9047 
    9093     9108     9094     9113     9112     9050     8999     8973 
    8958     8992     9043     9038     9020     9032     9042     9078 
    9132     9140     9109     9053     8961     8868     8829     8869 
    8932     8961     8984     9003     8991     9019     9105     9116 
    9045     9012     9040     9092     9123     9096     9050     9036 
    9049     9066     9077     9074     9058     9046     9034     9020 
    9000     8965     8943     8957     8964     8939     8904     8892 
    8922     8981     9028     9043     9039     9053     9077     9103 
    9147     9177     9143     9072     9019     9015     9043     9073 
    9084     9053     8991     8941     8914     8914     8942     8970 
    9001     9051     9080     9066     9063     9094     9126     9131 
    9103     9042     8977     8949     8920     8874     8874     8934 
    9009     9055     9074     9085     9062     9027     9051     9107 
    9123     9093     9040     8991     8989     9018     9031     9028 
    9004     8958     8954     9008     9047     9043     9036     9040 
    9031     9020     9032     9036     9009     8996     9015     9031 
    9030     9015     8988     8969     8982     9019     9051     9057 
    9045     9053     9092     9120     9117     9073     9001     8970 
    8985     9005     9035     9063     9073     9067     9024     8946 
    8907     8934     8981     9012     9018     9024     9040     9018 
    8992     9038     9109     9138     9111     9055     9009     8986 
    8985     8997     9016     9038     9046     9051     9053     9018 
    8985     8999     9009     8970     8919     8924     8962     8980 
    9011     9058     9074     9090     9139     9166     9138     9090 
    9042     9008     9012     9024     9028     9035     9024     8980 
    8938     8937     8973     9018     9055     9085     9074     9013 
    8977     8968     8935     8923     8949     8980     9039     9143 
    9228     9225     9130     9001     8920     8915     8957     9011 
    9050     9047     9031     9026     8988     8923     8896     8938 
    9038     9140     9207     9227     9181     9099     9024     8976 
    8970     9004     9026     8997     8927     8884     8896     8930 
    8997     9104     9177     9171     9119     9053     8970     8901 
    8887     8903     8942     9011     9063     9072     9045     9019 
    9032     9063     9072     9062     9061     9073     9078     9062 
    9042     9016     8984     8989     9030     9038     9003     8997 
    9023     9023     9027     9070     9104     9094     9050     8985 
    8941     8973     9036     9067     9066     9049     9019     8986 
    8974     9005     9023     8985     8935     8900     8911     8995 
    9077     9093     9063     9046     9055     9070     9090     9090 
    9036     9001     9046     9082     9045     8981     8978     9031 
    9050     9035     9061     9107     9097     9046     9000     8968 
    8941     8926     8950     9003     9030     9030     9030     9019 
    8997     9005     9038     9031     8972     8934     8958     8991 
    9012     9063     9127     9138     9100     9077     9069     9051 
    9070     9115     9090     9008     8972     9005     9019     8980 
    8953     8945     8926     8954     9045     9112     9135     9109 
    9035     8976     8973     9016     9046     9012     8981     8992 
    9008     9027     9046     9078     9130     9115     9036     8989 
    8966     8943     8950     8968     8965     8958     8970     9003 
    9040     9072     9101     9135     9143     9134     9136     9081 
    8955     8893     8907     8905     8942     9031     9088     9115 
    9115     9093     9082     9030     8959     8958     8991     9020 
    9063     9109     9099     9003     8939     8981     9013     9015 
    9067     9081     8978     8919     8964     8969     8931     8928 
    8914     8892     8938     9022     9073     9082     9061     9045 
    9066     9109     9139     9159     9170     9093     8957     8920 
    8976     9019     9094     9165     9104     8984     8891     8808 
    8769     8835     8942     9003     9112     9321     9478     9540 
    9559     9421     9113     8872     8827     8881     8926     8958 
    8949     8869     8762     8662     8658     8741     8785     8849 
    8977     9027     9043     9205     9435     9513     9455     9381 
    9174     8761     8446     8533     8883     9126     9109     8941 
    8765     8703     8830     9165     9566     9711     9490     9181 
    9024     8984     8955     8950     8972     8972     8977     9005 
    9028     8976     8708     8438     8590     9000     9251     9391 
    9494     9304     8835     8587     8791     9193     9652    10046 
    9957     9213     8337     7989     8167     8475     8815     9058 
    8923     8729     8892     9012     8743     8544     8815     9320 
    9640     9649     9440     9058     8698     8788     9424    10098 
   10289     9909     9209     8541     8175     8356     8931     9136 
    8795     8626     8715     8607     8568     8862     9043     8988 
    9073     9332     9478     9364     9123     9015     9139     9437 
    9805     9973     9648     8985     8464     8286     8370     8669 
    8958     8806     8284     8062     8430     8964     9293     9420 
    9292     8950     8810     9104     9504     9709     9720     9439 
    8891     8565     8758     9086     9161     9040     8954     9005 
    9136     9202     9066     8735     8444     8378     8530     8881 
    9275     9423     9283     9089     9089     9265     9323     9217 
    9188     9247     9247     9162     8968     8673     8473     8559 
    8883     9296     9634     9702     9455     9126     8923     8812 
    8699     8617     8676     8835     8872     8748     8691     8824 
    9078     9371     9564     9468     9142     8885     8795     8776 
    8838     8988     9138     9198     9173     9188     9251     9224 
    9116     8991     8869     8824     8891     9012     9090     9067 
    9016     8996     8985     9005     9065     9092     9040     8907 
    8706     8545     8573     8822     9132     9339     9436     9433 
    9327     9256     9319     9360     9273     9144     9053     8939 
    8795     8708     8626     8451     8325     8384     8542     8738 
    8991     9232     9383     9456     9513     9576     9570     9416 
    9185     9028     9005     9085     9167     9144     9023     8895 
    8784     8683     8667     8823     9078     9208     9138     9034 
    8992     8927     8870     8915     8985     9020     9086     9175 
    9217     9204     9158     9100     9066     9054     9000     8883 
    8791     8819     8923     8996     8962     8815     8681     8698 
    8860     9072     9238     9293     9219     9077     9011     9077 
    9159     9144     9054     8945     8851     8860     9007     9165 
    9217     9207     9182     9131     9100     9154     9234     9243 
    9142     8957     8815     8799     8843     8884     8872     8803 
    8802     8928     9090     9196     9200     9119     9028     8988 
    9023     9121     9232     9259     9144     8996     8972     9081 
    9201     9202     9046     8816     8627     8560     8634     8784 
    8949     9107     9201     9188     9092     8973     8908     8942 
    9039     9154     9254     9252     9136     9049     9065     9128 
    9211     9254     9170     8977     8810     8762     8776     8766 
    8762     8824     8965     9113     9194     9196     9067     8884 
    8854     8993     9161     9262     9290     9263     9198     9140 
    9116     9089     9054     9036     9040     9058     9061     9049 
    9050     9031     8962     8888     8834     8780     8743     8754 
    8793     8824     8881     9023     9204     9317     9325     9244 
    9136     9082     9089     9103     9081     9007     8872     8730 
    8673     8731     8891     9078     9178     9181     9153     9101 
    9061     9100     9208     9262     9169     8995     8862     8816 
    8876     9023     9143     9128     9022     8959     8993     9081 
    9170     9184     9093     9012     9028     9090     9103     9040 
    8982     8981     8992     8988     8995     8986     8946     8920 
    8926     8934     8912     8860     8834     8878     8947     9007 
    9073     9136     9181     9204     9219     9219     9170     9104 
    9061     8996     8918     8910     8986     9094     9186     9224 
    9158     9027     8946     8955     9013     9081     9126     9112 
    9005     8824     8653     8594     8664     8806     8953     9057 
    9113     9140     9126     9084     9065     9099     9170     9224 
    9225     9170     9066     8988     9012     9077     9105     9123 
    9138     9081     8958     8866     8846     8872     8922     8965 
    8977     8945     8873     8830     8891     9020     9138     9200 
    9202     9167     9136     9140     9161     9166     9169     9154 
    9105     9077     9073     9035     8965     8904     8903     8962 
    9003     8997     8961     8907     8876     8866     8843     8835 
    8861     8893     8950     9034     9073     9053     9040     9069 
    9135     9213     9256     9255     9224     9177     9138     9111 
    9069     8996     8899     8796     8750     8784     8849     8923 
    8991     9043     9101     9158     9190     9202     9204     9208 
    9190     9116     9018     8945     8920     8938     8949     8926 
    8916     8916     8889     8873     8899     8930     8966     9040 
    9117     9161     9178     9158     9089     9016     8986     8996 
    9023     9062     9097     9111     9131     9158     9132     9062 
    9015     8973     8924     8927     8973     8999     8986     8966 
    8969     8981     8992     9013     9013     8974     8955     8996 
    9051     9088     9115     9112     9051     8970     8939     8984 
    9076     9158     9188     9148     9070     9012     9012     9070 
    9117     9100     9054     9004     8947     8905     8907     8955 
    9015     9054     9045     8976     8905     8895     8912     8932 
    8969     9016     9040     9042     9063     9101     9130     9143 
    9142     9112     9053     8993     8961     8947     8947     8961 
    8974     8992     9012     9008     8993     8992     9003     9031 
    9069     9076     9046     9005     8968     8962     8997     9036 
    9065     9067     9042     9038     9067     9097     9123     9153 
    9169     9169     9142     9088     9034     8999     8985     9004 
    9047     9090     9120     9119     9074     9026     9004     8984 
    8951     8911     8884     8872     8843     8826     8845     8880 
    8941     9022     9073     9081     9073     9074     9103     9147 
