Origin Time       2025/01/26 08:11:00
Lat.              34.975
Long.             138.213
Depth. (km)       21
Mag.              3.4
Station Code      SZO003
Station Lat.      34.8158
Station Long.     139.0544
Station Height(m) 149
Record Time       2025/01/26 08:11:51
Sampling Freq(Hz) 100Hz
Duration Time(s)  60
Dir.              U-D
Scale Factor      7845(gal)/8223790
Max. Acc. (gal)   0.807
Last Correction   2025/01/26 08:11:50
Memo.             
[...]
    1493     1490     1485     1483     1485     1480     1483     1498 
    1501     1490     1479     1478     1487     1489     1487     1493 
    1493     1485     1475     1478     1487     1490     1485     1491 
    1501     1489     1471     1476     1494     1494     1486     1486 
    1483     1476     1478     1490     1502     1493     1475     1474 
    1478     1479     1487     1494     1497     1494     1486     1475 
    1472     1482     1489     1489     1494     1494     1486     1478 
    1475     1482     1491     1494     1486     1480     1483     1483 
    1485     1489     1489     1487     1480     1471     1474     1490 
    1498     1495     1494     1489     1478     1480     1490     1489 
    1482     1482     1487     1487     1486     1491     1493     1485 
    1478     1483     1487     1490     1491     1486     1479     1485 
    1485     1482     1485     1485     1482     1486     1490     1494 
    1495     1490     1479     1475     1485     1487     1486     1494 
    1489     1476     1480     1482     1479     1489     1497     1495 
    1489     1486     1485     1475     1475     1491     1495     1487 
    1489     1491     1486     1482     1482     1489     1490     1485 
    1483     1485     1489     1491     1486     1485     1490     1489 
    1479     1480     1487     1487     1485     1486     1489     1487 
    1483     1479     1476     1486     1494     1490     1486     1487 
    1482     1475     1476     1489     1493     1482     1478     1483 
    1482     1480     1487     1493     1494     1490     1482     1476 
    1485     1487     1483     1486     1490     1493     1486     1478 
    1489     1493     1482     1485     1490     1483     1475     1479 
    1487     1486     1494     1499     1487     1486     1485     1476 
    1485     1491     1490     1487     1486     1491     1480     1472 
    1486     1494     1483     1474     1485     1495     1485     1482 
    1487     1480     1480     1487     1489     1483     1483     1489 
    1487     1486     1487     1485     1486     1485     1485     1494 
    1494     1485     1483     1485     1483     1483     1486     1487 
    1486     1486     1487     1491     1490     1485     1480     1487 
    1494     1486     1476     1478     1485     1486     1483     1487 
    1489     1486     1486     1489     1486     1483     1483     1483 
    1487     1489     1483     1485     1486     1486     1487     1485 
    1486     1493     1491     1478     1471     1490     1497     1471 
    1474     1502     1493     1472     1486     1493     1472     1478 
    1503     1491     1471     1483     1494     1478     1476     1494 
    1493     1479     1478     1489     1493     1489     1487     1490 
    1486     1482     1486     1482     1475     1483     1497     1495 
    1491     1483     1468     1467     1486     1494     1494     1503 
    1491     1468     1475     1489     1486     1487     1489     1486 
    1487     1483     1474     1476     1487     1502     1507     1495 
    1474     1460     1467     1482     1494     1502     1498     1486 
    1482     1479     1476     1479     1483     1490     1498     1493 
    1478     1472     1478     1482     1485     1490     1493     1489 
    1478     1480     1494     1499     1493     1489     1486     1476 
    1474     1479     1483     1491     1502     1499     1482     1472 
    1476     1478     1486     1502     1498     1483     1483     1486 
    1482     1479     1489     1498     1485     1474     1478     1479 
    1485     1495     1503     1503     1483     1460     1463     1478 
    1487     1499     1513     1501     1479     1474     1474     1475 
    1489     1498     1493     1489     1485     1474     1476     1490 
    1495     1494     1490     1485     1485     1486     1485     1489 
    1491     1489     1485     1479     1483     1490     1486     1485 
    1483     1487     1486     1472     1475     1490     1485     1479 
    1490     1490     1483     1489     1487     1486     1487     1480 
    1489     1497     1468     1448     1471     1514     1556     1560 
    1513     1451     1437     1498     1568     1579     1520     1425 
    1372     1381     1406     1428     1444     1460     1489     1505 
    1499     1507     1518     1510     1514     1556     1602     1625 
    1618     1555     1445     1366     1378     1437     1467     1463 
    1439     1413     1420     1437     1429     1433     1503     1590 
    1614     1560     1485     1468     1499     1520     1533     1517 
    1467     1432     1412     1395     1390     1401     1451     1525 
    1548     1518     1510     1547     1598     1618     1572     1495 
    1426     1399     1449     1493     1440     1393     1428     1453 
    1418     1393     1436     1512     1582     1628     1614     1529 
    1439     1426     1490     1530     1517     1522     1544     1522 
    1459     1410     1418     1482     1514     1463     1412     1405 
    1397     1410     1451     1476     1533     1583     1543     1503 
    1541     1583     1574     1498     1405     1395     1476     1541 
    1524     1439     1354     1360     1466     1566     1591     1559 
    1536     1560     1568     1487     1382     1344     1395     1521 
    1618     1568     1422     1345     1378     1448     1495     1493 
    1471     1493     1545     1590     1609     1548     1425     1377 
    1431     1501     1559     1568     1499     1421     1395     1418 
    1466     1497     1507     1529     1557     1560     1495     1412 
    1431     1536     1584     1543     1467     1397     1371     1389 
    1405     1426     1479     1539     1576     1575     1532     1486 
    1489     1537     1578     1552     1448     1350     1340     1399 
    1470     1509     1497     1468     1483     1545     1605     1615 
    1564     1491     1447     1428     1402     1372     1378     1426 
    1474     1498     1512     1516     1534     1586     1632     1637 
    1582     1472     1381     1359     1385     1437     1475     1432 
    1358     1363     1445     1549     1617     1625     1610     1563 
    1471     1425     1463     1528     1560     1520     1409     1297 
    1271     1364     1509     1584     1559     1529     1555     1575 
    1551     1495     1443     1475     1576     1605     1520     1408 
    1351     1414     1548     1579     1467     1333     1274     1343 
    1493     1597     1591     1526     1494     1537     1582     1575 
    1541     1482     1420     1413     1420     1408     1441     1510 
    1541     1547     1545     1503     1455     1463     1524     1594 
    1591     1476     1344     1297     1340     1416     1464     1479 
    1497     1549     1618     1633     1591     1548     1520     1494 
    1463     1410     1359     1371     1444     1510     1521     1478 
    1426     1440     1512     1583     1605     1547     1456     1414 
    1412     1426     1458     1468     1449     1458     1513     1568 
    1583     1566     1556     1549     1516     1474     1451     1421 
    1386     1393     1436     1464     1470     1485     1520     1544 
    1522     1476     1470     1509     1539     1528     1494     1468 
    1472     1478     1458     1409     1352     1370     1480     1561 
    1568     1566     1579     1576     1551     1516     1480     1443 
    1414     1414     1433     1449     1456     1445     1429     1468 
    1541     1570     1553     1522     1498     1493     1493     1489 
    1497     1510     1495     1449     1412     1386     1372     1421 
    1540     1634     1632     1555     1474     1444     1463     1495 
    1502     1476     1447     1421     1394     1391     1424     1479 
    1556     1621     1618     1559     1510     1497     1503     1509 
    1474     1395     1331     1336     1412     1499     1534     1536 
    1545     1534     1486     1468     1509     1560     1588     1561 
    1467     1372     1358     1421     1516     1566     1514     1410 
    1356     1390     1474     1549     1582     1575     1534     1486 
    1464     1486     1518     1539     1548     1532     1482     1431 
    1389     1362     1383     1440     1468     1452     1447     1489 
    1563     1636     1664     1605     1487     1408     1422     1479 
    1494     1440     1377     1374     1437     1505     1537     1560 
    1570     1559     1534     1474     1416     1422     1466     1514 
    1528     1452     1366     1366     1425     1497     1553     1575 
    1588     1607     1597     1557     1475     1355     1306     1381 
    1467     1501     1525     1533     1491     1447     1471     1548 
    1597     1574     1512     1439     1381     1397     1462     1513 
    1539     1506     1431     1389     1395     1453     1571     1655 
    1624     1514     1406     1391     1472     1549     1568     1520 
    1398     1310     1372     1507     1580     1570     1530     1483 
    1448     1463     1503     1528     1522     1483     1431     1408 
    1414     1436     1460     1478     1506     1545     1561     1540 
    1517     1529     1548     1541     1521     1494     1456     1416 
    1409     1426     1406     1378     1425     1499     1520     1507 
    1498     1495     1528     1602     1633     1551     1426     1362 
    1359     1383     1453     1551     1576     1528     1505     1509 
    1475     1445     1475     1540     1580     1544     1453     1381 
    1350     1378     1483     1584     1590     1530     1487     1478 
    1479     1503     1549     1541     1460     1414     1436     1435 
    1402     1416     1471     1509     1517     1544     1587     1586 
    1539     1491     1445     1410     1424     1472     1503     1490 
    1449     1436     1478     1536     1572     1575     1532     1476 
    1445     1426     1416     1424     1447     1479     1495     1479 
    1459     1471     1512     1553     1564     1539     1518     1517 
    1509     1495     1486     1471     1441     1404     1383     1383 
    1404     1449     1505     1557     1607     1621     1568     1476 
    1404     1395     1440     1493     1539     1551     1525     1487 
    1444     1420     1448     1494     1518     1524     1499     1456 
    1436     1439     1459     1499     1528     1524     1493     1480 
    1514     1548     1549     1533     1507     1476     1460     1466 
    1463     1408     1327     1323     1429     1560     1644     1660 
    1599     1497     1433     1431     1439     1425     1424     1470 
    1517     1510     1478     1451     1425     1425     1474     1547 
    1601     1614     1584     1533     1476     1413     1359     1339 
    1374     1455     1522     1532     1503     1474     1485     1551 
    1641     1696     1653     1506     1355     1291     1316     1378 
    1440     1474     1471     1485     1537     1561     1536     1513 
    1520     1541     1544     1516     1483     1445     1399     1385 
    1405     1424     1449     1516     1583     1598     1570     1526 
    1494     1498     1501     1463     1425     1416     1399     1391 
    1440     1513     1560     1572     1548     1503     1482     1502 
    1517     1480     1435     1414     1418     1464     1534     1571 
    1536     1453     1399     1416     1486     1561     1610     1620 
    1559     1448     1367     1345     1378     1447     1498     1497 
    1494     1513     1536     1549     1545     1539     1534     1493 
    1441     1439     1476     1525     1543     1506     1452     1397 
    1367     1408     1479     1525     1539     1532     1517     1516 
    1544     1574     1545     1475     1435     1409     1385     1406 
    1456     1479     1480     1499     1522     1529     1522     1499 
    1476     1503     1559     1564     1517     1483     1458     1417 
    1397     1387     1385     1448     1555     1606     1579     1525 
    1479     1475     1510     1525     1495     1453     1443     1459 
    1443     1405     1413     1445     1470     1521     1564     1543 
    1533     1615     1661     1564     1406     1291     1270     1352 
    1479     1590     1607     1489     1372     1406     1540     1684 
    1771     1714     1526     1308     1182     1232     1371     1495 
    1607     1624     1522     1467     1471     1448     1475     1534 
    1489     1406     1436     1507     1530     1526     1502     1456 
    1471     1557     1602     1568     1521     1494     1483     1455 
    1406     1402     1416     1381     1341     1310     1287     1345 
    1491     1699     1888     1922     1833     1678     1386     1125 
    1165     1359     1455     1507     1541     1466     1393     1456 
    1579     1634     1575     1443     1320     1242     1267     1467 
    1710     1773     1710     1648     1451     1096      996     1399 
    1930     2084     1833     1447     1128     1055     1316     1660 
    1723     1447     1065      868     1081     1618     2031     2014 
    1721     1451     1391     1564     1784     1786     1549     1296 
    1144     1105     1204     1406     1648     1823     1744     1412 
    1127     1142     1428     1741     1884     1802     1487     1194 
    1270     1547     1645     1676     1819     1806     1483     1138 
     984     1015     1205     1429     1509     1440     1390     1510 
    1737     1892     1922     1800     1501     1270     1398     1699 
    1726     1332      812      639     1036     1713     2126     2027 
    1626     1273     1192     1431     1815     2029     1841     1354 
     938      893     1197     1602     1833     1788     1597     1408 
    1289     1287     1387     1528     1668     1764     1784     1651 
    1354     1085     1031     1189     1472     1722     1776     1733 
    1787     1802     1613     1393     1264     1182     1205     1336 
    1458     1548     1564     1432     1250     1210     1439     1804 
    1952     1742     1418     1258     1363     1633     1853     1876 
    1605     1109      772      915     1413     1849     1900     1624 
    1343     1297     1498     1792     1919     1721     1350     1102 
    1109     1260     1385     1425     1455     1571     1710     1710 
    1617     1579     1563     1526     1548     1566     1422     1197 
    1166     1386     1574     1514     1340     1297     1462     1705 
    1830     1723     1452     1264     1341     1544     1606     1485 
    1328     1277     1372     1579     1796     1872     1703     1378 
    1112     1082     1298     1572     1684     1624     1540     1493 
    1483     1553     1621     1555     1402     1291     1258     1321 
    1491     1667     1678     1522     1389     1375     1451     1579 
    1710     1792     1738     1514     1277     1183     1215     1316 
    1417     1432     1398     1420     1526     1665     1756     1759 
    1663     1529     1443     1401     1341     1286     1304     1366 
    1406     1480     1649     1780     1719     1526     1356     1287 
    1333     1443     1549     1606     1583     1505     1431     1381 
    1379     1432     1495     1549     1583     1564     1503     1441 
    1402     1410     1490     1614     1682     1605     1426     1278 
    1271     1421     1628     1732     1645     1449     1309     1294 
    1363     1482     1590     1614     1597     1603     1599     1516 
    1350     1190     1156     1282     1503     1686     1723     1655 
    1548     1444     1416     1493     1609     1651     1579     1482 
    1425     1381     1339     1314     1305     1332     1416     1532 
    1606     1594     1555     1556     1594     1621     1583     1467 
    1329     1252     1321     1503     1637     1640     1572     1497 
    1441     1431     1466     1499     1499     1502     1533     1555 
    1529     1487     1440     1345     1267     1333     1503     1629 
    1647     1572     1472     1437     1507     1624     1678     1613 
    1452     1283     1209     1259     1371     1466     1507     1521 
    1566     1651     1692     1615     1470     1387     1431     1534 
    1595     1570     1464     1345     1308     1386     1513     1564 
    1514     1455     1448     1499     1570     1595     1553     1499 
    1483     1482     1436     1345     1289     1313     1401     1528 
    1630     1626     1536     1455     1470     1576     1653     1613 
    1498     1389     1335     1352     1424     1491     1483     1408 
    1339     1327     1413     1556     1640     1634     1584     1522 
    1509     1575     1653     1653     1561     1451     1383     1370 
    1401     1441     1451     1437     1429     1433     1444     1453 
    1468     1501     1533     1521     1478     1486     1548     1580 
    1576     1583     1575     1498     1394     1360     1405     1443 
    1441     1436     1447     1479     1534     1578     1575     1529 
    1459     1418     1443     1507     1553     1532     1458     1371 
    1325     1399     1567     1680     1642     1507     1383     1337 
    1391     1498     1567     1557     1497     1448     1433     1422 
    1412     1429     1476     1530     1571     1587     1561     1524 
    1524     1549     1564     1559     1509     1414     1340     1313 
    1320     1371     1455     1536     1578     1563     1509     1463 
    1460     1509     1564     1586     1567     1503     1429     1420 
    1474     1514     1499     1451     1405     1401     1447     1509 
    1548     1540     1497     1470     1493     1551     1586     1543 
    1451     1386     1387     1444     1518     1564     1557     1516 
    1466     1431     1433     1470     1517     1553     1548     1480 
    1389     1348     1389     1440     1449     1445     1458     1490 
    1559     1659     1713     1649     1506     1399     1390     1429 
    1451     1433     1408     1424     1478     1528     1555     1556 
    1534     1499     1491     1524     1529     1478     1433     1408 
    1379     1378     1444     1534     1582     1590     1584     1537 
    1460     1444     1495     1520     1476     1420     1395     1402 
    1435     1487     1536     1553     1539     1491     1428     1391 
    1402     1431     1466     1514     1547     1536     1505     1490 
    1494     1524     1567     1588     1579     1559     1518     1456 
    1413     1414     1426     1417     1405     1408     1417     1432 
    1467     1520     1544     1532     1532     1560     1590     1586 
    1534     1456     1395     1374     1389     1410     1410     1399 
    1402     1447     1540     1645     1703     1687     1610     1509 
    1420     1372     1387     1445     1480     1462     1420     1390 
    1401     1455     1528     1576     1580     1560     1545     1540 
    1530     1503     1449     1390     1378     1421     1471     1502 
    1509     1490     1476     1475     1468     1467     1486     1518 
    1551     1561     1529     1468     1420     1416     1440     1471 
    1494     1502     1506     1512     1509     1503     1505     1506 
    1502     1490     1464     1421     1393     1412     1468     1524 
    1547     1545     1534     1517     1510     1526     1545     1533 
    1490     1451     1435     1433     1437     1445     1467     1497 
