Origin Time       2025/01/26 08:11:00
Lat.              34.975
Long.             138.213
Depth. (km)       21
Mag.              3.4
Station Code      SZO003
Station Lat.      34.8158
Station Long.     139.0544
Station Height(m) 149
Record Time       2025/01/26 08:11:51
Sampling Freq(Hz) 100Hz
Duration Time(s)  60
Dir.              N-S
Scale Factor      7845(gal)/8223790
Max. Acc. (gal)   1.707
Last Correction   2025/01/26 08:11:50
Memo.             
[...]
     714      730      741      739      729      714      700      700 
     710      726      738      726      716      718      708      712 
     726      723      719      716      711      716      724      730 
     730      723      715      714      719      724      722      714 
     710      712      720      722      726      733      719      710 
     722      719      714      719      723      720      712      712 
     723      731      734      723      708      708      711      712 
     724      731      723      716      714      716      729      729 
     722      720      718      712      708      711      716      718 
     724      733      726      716      720      716      707      714 
     722      722      719      716      716      715      714      716 
     727      733      722      715      719      720      718      714 
     710      716      723      718      714      718      720      724 
     726      726      722      714      710      711      719      727 
     727      720      716      715      714      712      715      726 
     734      729      720      714      710      711      712      719 
     724      711      711      730      733      724      722      718 
     710      710      716      719      718      718      712      714 
     726      730      726      722      716      714      712      712 
     719      724      723      714      711      719      716      711 
     720      723      714      716      723      720      723      724 
     722      724      723      716      712      715      716      710 
     712      722      722      715      715      718      715      715 
     723      722      719      726      727      719      719      726 
     724      720      720      716      708      706      711      716 
     718      722      719      708      711      716      716      722 
     729      727      724      722      716      719      719      712 
     710      712      720      724      720      718      715      710 
     711      718      724      726      723      719      712      716 
     729      729      722      722      718      714      712      710 
     716      719      712      718      724      723      724      723 
     719      718      715      719      723      723      726      723 
     716      715      712      716      722      716      712      707 
     703      712      722      726      730      729      729      726 
     716      711      711      711      714      712      712      718 
     719      716      715      722      731      733      727      719 
     716      718      719      712      707      708      708      710 
     722      726      719      715      718      719      723      726 
     726      723      722      716      723      727      716      711 
     708      704      708      711      715      716      712      715 
     724      727      724      729      733      727      723      729 
     720      702      703      714      718      720      703      692 
     711      719      719      735      735      724      729      727 
     720      722      719      711      708      715      718      715 
     715      708      707      715      716      722      735      731 
     715      716      720      720      726      730      719      703 
     706      718      722      719      715      708      708      707 
     708      723      741      742      734      724      715      706 
     702      715      734      741      723      695      689      702 
     700      704      718      718      715      722      727      731 
     739      746      741      719      703      697      700      718 
     724      718      714      703      695      699      706      718 
     733      735      739      741      724      715      714      719 
     730      735      722      699      693      708      720      724 
     719      703      696      704      715      724      734      738 
     745      746      729      710      712      733      747      727 
     689      676      683      689      696      720      738      726 
     722      727      724      730      735      727      723      722 
     722      727      733      734      724      710      696      689 
     685      688      703      715      711      719      738      738 
     730      730      731      733      739      741      729      707 
     693      704      718      711      697      689      685      687 
     707      729      733      737      747      743      723      714 
     726      756      770      741      703      672      645      666 
     718      731      696      666      684      734      774      796 
     783      742      710      693      693      723      754      754 
     743      704      646      658      704      684      630      602 
     649      756      812      773      710      707      776      826 
     785      730      761      828      823      757      680      598 
     564      604      653      669      662      650      649      680 
     723      730      743      816      880      843      776      787 
     808      772      723      680      648      660      710      727 
     660      572      545      581      666      741      738      743 
     819      862      832      785      761      765      780      773 
     712      639      600      600      654      683      639      672 
     780      808      774      734      699      681      660      672 
     749      835      822      719      687      749      803      774 
     664      600      675      781      778      654      537      575 
     758      873      784      635      614      720      857      899 
     792      672      662      708      747      745      665      591 
     611      673      734      774      739      673      696      788 
     831      804      733      648      608      645      716      757 
     742      720      716      730      772      812      770      666 
     642      704      733      716      706      699      695      688 
     662      679      766      841      850      800      706      631 
     643      704      720      695      685      712      738      660 
     542      541      633      734      810      807      750      716 
     719      758      827      869      847      803      789      803 
     793      729      645      622      649      672      702      695 
     626      592      627      666      681      677      684      724 
     762      756      734      724      692      680      735      810 
     839      799      753      792      869      876      796      693 
     639      650      656      594      529      564      679      745 
     700      608      600      743      889      855      710      627 
     657      715      735      731      738      797      855      819 
     715      646      649      700      754      765      757      762 
     753      711      699      722      689      621      615      673 
     753      795      729      625      600      643      712      776 
     799      795      820      854      818      722      653      623 
     623      654      668      626      594      630      708      781 
     834      870      880      837      774      722      675      650 
     660      687      706      693      645      603      621      688 
     750      768      731      685      704      780      831      814 
     761      737      773      816      808      753      662      587 
     602      649      658      668      677      660      638      642 
     643      627      652      753      846      888      926      946 
     896      800      727      693      675      675      658      588 
     534      544      592      679      783      843      830      793 
     789      777      733      729      743      706      660      650 
     634      584      545      592      710      812      878      893 
     835      762      734      729      733      746      746      718 
     688      653      595      573      629      693      704      691 
     706      770      854      897      855      742      643      631 
     673      711      723      723      743      768      742      676 
     626      656      753      819      805      749      691      626 
     569      579      650      707      738      772      773      734 
     724      788      868      885      820      710      630      638 
     702      714      649      588      611      716      799      795 
     727      621      546      580      704      862      957      920 
     807      699      653      679      696      666      652      677 
     715      727      691      635      604      639      722      769 
     774      788      822      872      900      839      699      583 
     577      633      679      734      784      780      765      749 
     680      619      610      621      670      737      730      661 
     630      691      785      807      772      772      797      804 
     796      769      733      711      722      742      737      688 
     607      526      517      616      772      861      841      773 
     720      711      737      739      696      639      614      660 
     746      762      724      730      743      731      742      793 
     847      870      843      761      637      544      546      615 
     680      699      652      591      596      691      801      838 
     823      819      814      818      855      865      768      606 
     506      531      645      737      741      724      714      664 
     646      693      727      750      787      785      746      718 
     695      676      702      762      791      776      772      772 
     750      719      696      680      665      649      658      673 
     643      611      643      743      861      899      834      757 
     714      677      684      742      770      738      684      626 
     572      548      591      702      814      877      877      812 
     727      688      670      625      606      648      724      816 
     841      761      684      666      702      761      792      792 
     812      828      784      691      604      583      614      629 
     637      689      733      711      692      718      746      766 
     785      781      757      742      738      741      749      729 
     677      634      634      677      730      784      834      819 
     747      684      639      627      641      653      693      760 
     796      764      683      645      670      685      711      795 
     843      792      708      650      619      642      729      827 
     891      891      816      714      648      592      519      504 
     594      703      751      750      743      734      724      738 
     764      780      816      874      881      819      756      714 
     695      689      664      615      577      569      588      616 
     653      706      777      849      877      873      843      742 
     621      580      607      654      708      746      754      762 
     795      811      758      648      553      538      608      730 
     832      853      814      769      750      770      792      757 
     722      743      757      724      661      592      571      623 
     692      722      706      684      693      718      730      745 
     781      803      787      742      681      649      691      737 
     733      750      800      810      787      746      688      654 
     646      657      681      665      619      612      654      714 
     762      811      873      903      862      751      629      564 
     550      619      769      857      811      706      615      595 
     646      700      726      761      811      815      758      710 
     724      769      760      685      633      643      683      722 
     741      716      670      672      714      734      710      684 
     716      793      824      787      742      715      675      649 
     676      722      747      766      791      832      846      731 
     553      494      560      658      741      757      727      712 
     723      762      773      723      714      787      834      815 
     761      692      657      656      637      621      661      750 
     815      787      681      589      554      598      765      912 
     896      854      846      754      625      557      549      619 
     714      751      769      760      734      761      772      726 
     711      743      780      785      749      670      579      562 
     623      675      700      737      793      816      785      780 
     768      703      739      845      789      666      672      700 
     672      697      726      666      622      652      688      730 
     769      692      494      379      492      741      912      939 
     923      919      961      997      873      681      639      691 
     697      679      619      492      433      437      375      390 
     544      645      741      909     1085     1352     1520     1210 
     641      309      403      820     1236     1332     1128      807 
     406       58       21      198      351      499      635      616 
     380        8     -147      247     1058     1949     2492     2195 
    1296      598      379      511      866     1077      927      715 
     673      581      152     -473     -963    -1071     -445      812 
    1777     1884     1425      869      685     1080     1524     1418 
    1090     1201     1467     1286      931      718      432      124 
     -24     -122     -153      -25      155      226      195      383 
     946     1528     1798     1648     1146      716      761     1089 
    1185      909      648      583      452      261      175       62 
     167      858     1512     1441      993      553      168      118 
     456      711      654      552      657      912     1081     1055 
     853      571      549      903     1165     1050      846      797 
     815      749      530      257      228      608     1193     1518 
    1371     1013      618      128     -163       68      571      877 
     761      290     -132       -8      684     1325     1356      965 
     737      918     1351     1750     1784     1287      540       75 
      59      171      203      303      442      330      124      255 
     556      787     1144     1497     1432     1090      822      631 
     584      839     1127     1017      631      382      373      522 
     780      981      920      635      415      492      756      912 
     828      594      460      648     1088     1359     1050      306 
    -245     -179      367      980     1278     1155      857      675 
     724      907      985      885      730      581      475      500 
     630      702      693      664      599      596      781     1053 
    1228     1201      946      596      349      276      384      571 
     633      522      454      673     1144     1487     1379      954 
     561      373      414      598      669      479      279      356 
     643      950     1093      958      669      425      380      693 
    1212     1510     1413     1035      531      132      114      430 
     722      820      814      788      761      697      576      480 
     527      724      967     1075      939      708      603      652 
     769      816      710      549      456      480      689      986 
    1097      978      819      712      672      697      723      657 
     538      476      459      465      548      639      710      837 
     966      942      749      540      504      669      865      930 
     847      716      631      639      754      920      999      912 
     768      699      715      758      746      635      511      523 
     683      818      812      693      542      475      508      567 
     616      650      684      760      853      927      962      905 
     797      743      777      870      947      919      819      765 
     783      777      637      383      172      137      280      526 
     770      916      916      826      750      729      733      778 
     913     1059     1077      967      795      602      488      508 
     567      564      537      558      643      760      826      785 
     696      656      691      750      773      762      754      793 
     874      923      905      865      811      733      685      677 
     612      526      579      719      765      689      571      486 
     480      561      727      899      936      830      689      608 
     634      777      932      938      791      648      599      634 
     738      826      822      757      699      681      660      585 
     523      511      529      612      739      808      805      800 
     855      959     1001      931      834      785      773      754 
     714      643      571      558      607      637      589      517 
     510      585      724      901     1004      930      777      676 
     615      564      560      639      766      851      878      877 
     823      734      685      672      649      606      562      587 
     681      749      750      704      630      602      677      799 
     888      920      900      859      849      851      819      757 
     669      596      587      571      502      463      498      560 
     612      677      761      857      943      982      958      874 
     777      737      753      751      684      553      433      436 
     557      689      768      795      789      778      788      803 
     805      808      820      845      880      896      850      724 
     565      467      471      530      594      631      656      726 
     847      945      963      927      858      757      654      552 
     436      382      446      531      562      583      652      772 
     907     1005     1027      985      945      930      923      889 
     783      631      522      494      519      552      577      596 
     577      568      661      800      873      874      861      854 
     831      793      758      710      662      643      627      603 
     581      571      595      648      680      661      619      611 
     680      810      939     1012     1011      962      912      899 
     899      850      720      557      459      463      530      615 
     648      587      527      558      637      696      716      715 
     742      815      897      949      924      830      739      710 
     754      822      842      792      710      654      653      673 
     670      656      639      621      600      571      523      500 
     577      735      878      953      936      843      735      670 
     666      706      753      791      807      773      703      672 
     699      731      751      742      684      619      618      673 
     723      754      773      769      754      758      770      768 
     739      685      629      612      646      691      726      754 
     734      670      630      616      635      703      769      800 
     791      754      741      777      841      888      889      850 
