Origin Time       2025/01/26 08:11:00
Lat.              34.975
Long.             138.213
Depth. (km)       21
Mag.              3.4
Station Code      NGN024
Station Lat.      35.5232
Station Long.     137.8382
Station Height(m) 536
Record Time       2025/01/26 08:11:51
Sampling Freq(Hz) 100Hz
Duration Time(s)  60
Dir.              N-S
Scale Factor      7845(gal)/8223790
Max. Acc. (gal)   1.566
Last Correction   2025/01/26 08:11:50
Memo.             
[...]
  -25702   -25699   -25687   -25689   -25699   -25693   -25675   -25682 
  -25698   -25694   -25694   -25702   -25695   -25678   -25677   -25686 
  -25689   -25689   -25705   -25713   -25698   -25679   -25675   -25678 
  -25681   -25685   -25697   -25706   -25706   -25693   -25685   -25693 
  -25702   -25690   -25672   -25671   -25682   -25694   -25702   -25706 
  -25704   -25695   -25689   -25683   -25681   -25679   -25681   -25689 
  -25699   -25702   -25697   -25689   -25685   -25683   -25691   -25695 
  -25691   -25694   -25698   -25687   -25677   -25689   -25705   -25708 
  -25705   -25702   -25691   -25677   -25668   -25675   -25694   -25712 
  -25714   -25701   -25689   -25679   -25670   -25677   -25698   -25713 
  -25710   -25704   -25690   -25677   -25677   -25685   -25693   -25701 
  -25702   -25697   -25686   -25681   -25686   -25694   -25697   -25698 
  -25697   -25690   -25686   -25687   -25687   -25693   -25706   -25708 
  -25690   -25672   -25670   -25681   -25701   -25713   -25709   -25697 
  -25686   -25679   -25681   -25690   -25697   -25699   -25699   -25693 
  -25685   -25683   -25686   -25689   -25701   -25705   -25693   -25686 
  -25690   -25686   -25685   -25693   -25697   -25687   -25683   -25694 
  -25699   -25691   -25691   -25698   -25699   -25687   -25670   -25666 
  -25685   -25705   -25713   -25709   -25701   -25689   -25678   -25675 
  -25682   -25689   -25695   -25698   -25697   -25697   -25697   -25695 
  -25687   -25682   -25683   -25687   -25695   -25702   -25695   -25683 
  -25681   -25689   -25699   -25701   -25693   -25685   -25683   -25690 
  -25691   -25691   -25695   -25693   -25687   -25689   -25689   -25686 
  -25687   -25693   -25697   -25698   -25694   -25690   -25690   -25693 
  -25695   -25693   -25686   -25682   -25681   -25690   -25699   -25697 
  -25694   -25694   -25690   -25690   -25694   -25691   -25683   -25685 
  -25697   -25701   -25695   -25691   -25689   -25686   -25687   -25690 
  -25693   -25697   -25694   -25689   -25693   -25695   -25691   -25687 
  -25689   -25690   -25691   -25695   -25697   -25690   -25686   -25690 
  -25693   -25691   -25691   -25694   -25695   -25693   -25691   -25695 
  -25698   -25695   -25693   -25691   -25687   -25686   -25689   -25695 
  -25699   -25697   -25690   -25685   -25682   -25685   -25694   -25701 
  -25695   -25691   -25691   -25687   -25685   -25691   -25697   -25697 
  -25695   -25691   -25682   -25681   -25689   -25695   -25699   -25699 
  -25695   -25690   -25689   -25686   -25687   -25691   -25697   -25695 
  -25693   -25691   -25690   -25686   -25687   -25693   -25693   -25691 
  -25697   -25695   -25687   -25686   -25691   -25695   -25699   -25697 
  -25687   -25687   -25687   -25687   -25693   -25694   -25687   -25687 
  -25689   -25686   -25685   -25693   -25698   -25694   -25693   -25698 
  -25697   -25690   -25689   -25693   -25697   -25693   -25687   -25686 
  -25683   -25687   -25694   -25698   -25698   -25698   -25693   -25685 
  -25679   -25678   -25686   -25698   -25701   -25698   -25698   -25691 
  -25686   -25691   -25698   -25695   -25691   -25689   -25683   -25685 
  -25693   -25691   -25690   -25695   -25698   -25694   -25687   -25683 
  -25686   -25690   -25695   -25699   -25695   -25690   -25687   -25682 
  -25685   -25695   -25695   -25687   -25685   -25686   -25687   -25694 
  -25699   -25698   -25693   -25687   -25682   -25683   -25691   -25695 
  -25698   -25704   -25701   -25691   -25685   -25679   -25677   -25686 
  -25701   -25706   -25698   -25690   -25686   -25683   -25687   -25701 
  -25710   -25699   -25687   -25687   -25686   -25685   -25691   -25698 
  -25695   -25690   -25686   -25685   -25687   -25691   -25697   -25702 
  -25697   -25687   -25686   -25687   -25687   -25689   -25693   -25694 
  -25694   -25694   -25691   -25689   -25687   -25690   -25695   -25699 
  -25694   -25687   -25685   -25687   -25690   -25691   -25695   -25697 
  -25691   -25687   -25691   -25687   -25679   -25686   -25698   -25698 
  -25695   -25695   -25690   -25686   -25689   -25691   -25691   -25693 
  -25693   -25693   -25694   -25694   -25694   -25693   -25690   -25687 
  -25683   -25677   -25675   -25685   -25698   -25704   -25697   -25689 
  -25689   -25693   -25693   -25697   -25706   -25709   -25702   -25697 
  -25693   -25682   -25672   -25678   -25694   -25704   -25705   -25705 
  -25691   -25659   -25635   -25654   -25706   -25749   -25753   -25721 
  -25655   -25593   -25601   -25670   -25739   -25775   -25766   -25718 
  -25670   -25647   -25640   -25636   -25651   -25695   -25759   -25826 
  -25849   -25770   -25625   -25529   -25544   -25629   -25712   -25752 
  -25743   -25699   -25682   -25724   -25758   -25698   -25586   -25546 
  -25614   -25741   -25855   -25878   -25768   -25598   -25505   -25540 
  -25636   -25726   -25797   -25840   -25860   -25843   -25756   -25604 
  -25454   -25405   -25512   -25725   -25913   -25951   -25844   -25705 
  -25602   -25542   -25535   -25591   -25693   -25795   -25861   -25857 
  -25752   -25594   -25493   -25505   -25587   -25693   -25795   -25848 
  -25809   -25725   -25674   -25648   -25609   -25581   -25610   -25704 
  -25807   -25861   -25849   -25767   -25612   -25454   -25409   -25516 
  -25710   -25910   -26036   -25998   -25793   -25532   -25369   -25397 
  -25583   -25786   -25887   -25859   -25743   -25613   -25537   -25559 
  -25658   -25768   -25828   -25812   -25737   -25645   -25586   -25591 
  -25656   -25718   -25735   -25731   -25744   -25762   -25760   -25732 
  -25685   -25647   -25624   -25628   -25668   -25713   -25709   -25668 
  -25644   -25660   -25709   -25762   -25770   -25709   -25621   -25579 
  -25608   -25662   -25678   -25659   -25667   -25735   -25812   -25833 
  -25795   -25720   -25624   -25554   -25563   -25636   -25729   -25798 
  -25807   -25770   -25724   -25674   -25617   -25586   -25621   -25705 
  -25771   -25782   -25751   -25693   -25631   -25593   -25598   -25637 
  -25691   -25741   -25780   -25786   -25741   -25670   -25616   -25609 
  -25652   -25724   -25790   -25814   -25767   -25659   -25555   -25516 
  -25555   -25659   -25786   -25868   -25872   -25816   -25725   -25643 
  -25591   -25552   -25539   -25586   -25672   -25749   -25795   -25803 
  -25770   -25706   -25643   -25605   -25591   -25616   -25689   -25780 
  -25830   -25798   -25701   -25597   -25529   -25533   -25632   -25799 
  -25938   -25952   -25837   -25650   -25477   -25423   -25521   -25679 
  -25780   -25790   -25752   -25706   -25674   -25674   -25689   -25698 
  -25712   -25736   -25768   -25793   -25768   -25666   -25543   -25486 
  -25531   -25651   -25779   -25844   -25826   -25755   -25678   -25621 
  -25604   -25645   -25724   -25779   -25778   -25728   -25659   -25610 
  -25585   -25569   -25583   -25666   -25790   -25886   -25906   -25841 
  -25706   -25560   -25475   -25488   -25582   -25709   -25798   -25837 
  -25836   -25790   -25714   -25639   -25589   -25573   -25596   -25666 
  -25780   -25876   -25880   -25782   -25628   -25488   -25428   -25485 
  -25640   -25813   -25909   -25887   -25770   -25635   -25562   -25590 
  -25686   -25775   -25794   -25733   -25647   -25590   -25602   -25671 
  -25747   -25778   -25752   -25710   -25694   -25686   -25667   -25645 
  -25625   -25602   -25606   -25668   -25752   -25817   -25837   -25787 
  -25693   -25604   -25546   -25543   -25608   -25725   -25833   -25853 
  -25775   -25674   -25610   -25612   -25660   -25706   -25728   -25735 
  -25725   -25702   -25670   -25635   -25609   -25614   -25662   -25741 
  -25829   -25883   -25857   -25747   -25605   -25509   -25510   -25586 
  -25677   -25741   -25759   -25741   -25720   -25695   -25664   -25652 
  -25672   -25697   -25709   -25709   -25709   -25708   -25690   -25658 
  -25639   -25654   -25701   -25745   -25752   -25731   -25717   -25714 
  -25706   -25685   -25644   -25602   -25583   -25605   -25672   -25758 
  -25813   -25805   -25739   -25656   -25600   -25589   -25625   -25699 
  -25774   -25803   -25790   -25768   -25729   -25654   -25585   -25567 
  -25600   -25660   -25720   -25751   -25749   -25724   -25685   -25652 
  -25645   -25671   -25721   -25771   -25789   -25762   -25704   -25639 
  -25609   -25629   -25663   -25679   -25678   -25663   -25655   -25664 
  -25698   -25743   -25764   -25748   -25709   -25667   -25648   -25672 
  -25717   -25736   -25713   -25677   -25666   -25693   -25739   -25766 
  -25752   -25702   -25643   -25591   -25583   -25636   -25713   -25762 
  -25772   -25743   -25662   -25567   -25525   -25564   -25667   -25775 
  -25841   -25833   -25748   -25632   -25560   -25578   -25659   -25748 
  -25810   -25844   -25828   -25760   -25682   -25636   -25628   -25639 
  -25652   -25667   -25682   -25701   -25725   -25732   -25701   -25640 
  -25591   -25600   -25671   -25770   -25822   -25776   -25651   -25533 
  -25519   -25624   -25791   -25921   -25929   -25816   -25656   -25543 
  -25519   -25562   -25624   -25660   -25663   -25670   -25726   -25807 
  -25840   -25782   -25670   -25578   -25558   -25613   -25720   -25839 
  -25898   -25856   -25731   -25578   -25454   -25423   -25515   -25681 
  -25845   -25949   -25959   -25853   -25677   -25517   -25451   -25479 
  -25575   -25726   -25895   -25991   -25945   -25762   -25517   -25338 
  -25324   -25493   -25759   -25986   -26057   -25955   -25760   -25587 
  -25505   -25520   -25594   -25671   -25717   -25748   -25772   -25747 
  -25648   -25524   -25446   -25470   -25605   -25802   -25987   -26075 
  -26009   -25821   -25612   -25450   -25377   -25420   -25570   -25774 
  -25942   -25980   -25857   -25648   -25477   -25455   -25604   -25813 
  -25930   -25898   -25758   -25604   -25510   -25504   -25571   -25656 
  -25699   -25718   -25762   -25830   -25853   -25762   -25606   -25505 
  -25519   -25628   -25764   -25853   -25859   -25785   -25672   -25586 
  -25563   -25605   -25668   -25709   -25736   -25775   -25799   -25778 
  -25718   -25640   -25567   -25536   -25558   -25613   -25689   -25753 
  -25762   -25712   -25660   -25668   -25751   -25853   -25898   -25848 
  -25722   -25586   -25502   -25493   -25552   -25664   -25767   -25801 
  -25776   -25733   -25690   -25650   -25625   -25635   -25678   -25725 
  -25751   -25762   -25763   -25753   -25733   -25702   -25654   -25597 
  -25550   -25525   -25556   -25659   -25795   -25888   -25894   -25822 
  -25694   -25560   -25502   -25550   -25651   -25741   -25780   -25778 
  -25775   -25766   -25725   -25679   -25654   -25633   -25618   -25631 
  -25677   -25737   -25793   -25806   -25753   -25658   -25583   -25575 
  -25635   -25726   -25802   -25812   -25739   -25616   -25508   -25490 
  -25583   -25724   -25828   -25857   -25813   -25728   -25637   -25582 
  -25590   -25651   -25718   -25770   -25798   -25797   -25764   -25713 
  -25656   -25605   -25574   -25587   -25645   -25708   -25736   -25720 
  -25690   -25666   -25641   -25627   -25637   -25663   -25699   -25751 
  -25801   -25824   -25820   -25789   -25718   -25635   -25585   -25604 
  -25690   -25797   -25841   -25787   -25664   -25539   -25473   -25505 
  -25612   -25729   -25812   -25845   -25839   -25793   -25712   -25608 
  -25517   -25489   -25555   -25698   -25844   -25905   -25843   -25710 
  -25591   -25540   -25559   -25632   -25724   -25793   -25816   -25798 
  -25745   -25678   -25620   -25567   -25548   -25598   -25698   -25791 
  -25832   -25825   -25787   -25706   -25594   -25513   -25508   -25587 
  -25733   -25884   -25951   -25880   -25716   -25556   -25481   -25494 
  -25586   -25731   -25851   -25878   -25813   -25717   -25647   -25614 
  -25606   -25623   -25671   -25740   -25782   -25762   -25702   -25647 
  -25620   -25620   -25637   -25648   -25654   -25679   -25720   -25759 
  -25791   -25786   -25725   -25647   -25604   -25621   -25674   -25710 
  -25717   -25718   -25731   -25740   -25724   -25675   -25624   -25614 
  -25664   -25728   -25758   -25744   -25709   -25670   -25640   -25633 
  -25647   -25664   -25675   -25681   -25698   -25728   -25739   -25721 
  -25702   -25713   -25740   -25751   -25743   -25721   -25685   -25648 
  -25635   -25655   -25695   -25732   -25740   -25714   -25668   -25624 
  -25612   -25664   -25753   -25805   -25772   -25690   -25623   -25583 
  -25544   -25539   -25620   -25739   -25807   -25798   -25737   -25645 
  -25547   -25486   -25496   -25551   -25635   -25737   -25807   -25799 
  -25717   -25612   -25548   -25550   -25602   -25704   -25836   -25952 
  -26044   -26125   -26204   -26254   -26192   -25945   -25543   -25138 
  -24931   -25026   -25340   -25686   -25886   -25859   -25652   -25398 
  -25261   -25365   -25651   -25901   -25996   -25986   -25945   -25905 
  -25849   -25771   -25695   -25628   -25575   -25602   -25747   -25903 
  -25894   -25663   -25382   -25309   -25544   -25952   -26314   -26455 
  -26296   -25883   -25400   -25061   -24964   -25077   -25313   -25589 
  -25834   -26003   -26046   -25965   -25843   -25755   -25709   -25675 
  -25637   -25596   -25543   -25458   -25381   -25417   -25571   -25679 
  -25591   -25351   -25158   -25139   -25242   -25397   -25629   -25930 
  -26211   -26403   -26501   -26524   -26465   -26271   -25903   -25466 
  -25180   -25178   -25443   -25845   -26222   -26403   -26231   -25666 
  -24943   -24453   -24413   -24779   -25384   -26028   -26491   -26620 
  -26412   -26019   -25668   -25532   -25645   -25891   -26056   -25972 
  -25628   -25122   -24599   -24260   -24302   -24753   -25479   -26299 
  -26995   -27333   -27172   -26605   -25947   -25486   -25338   -25475 
  -25745   -25893   -25744   -25361   -25000   -24916   -25172   -25575 
  -25861   -25898   -25739   -25542   -25447   -25537   -25790   -26061 
  -26194   -26153   -26014   -25861   -25718   -25535   -25281   -25008 
  -24853   -24977   -25390   -25894   -26272   -26414   -26318   -26082 
  -25876   -25856   -26037   -26272   -26361   -26198   -25816   -25375 
  -25070   -25022   -25231   -25571   -25834   -25856   -25618   -25253 
  -24960   -24864   -24937   -25064   -25195   -25393   -25741   -26192 
  -26589   -26771   -26725   -26563   -26360   -26106   -25786   -25440 
  -25172   -25068   -25141   -25363   -25647   -25836   -25837   -25693 
  -25502   -25358   -25331   -25452   -25691   -25945   -26090   -26040 
  -25775   -25394   -25074   -24941   -25000   -25180   -25412   -25693 
  -26034   -26365   -26554   -26522   -26296   -25996   -25751   -25660 
  -25748   -25930   -26073   -26077   -25940   -25752   -25610   -25524 
  -25439   -25316   -25182   -25103   -25119   -25243   -25447   -25655 
  -25790   -25803   -25726   -25677   -25745   -25898   -26006   -25983 
  -25844   -25644   -25470   -25428   -25533   -25683   -25791   -25841 
  -25833   -25785   -25739   -25709   -25681   -25645   -25601   -25551 
  -25515   -25520   -25594   -25725   -25829   -25828   -25745   -25682 
  -25708   -25783   -25820   -25780   -25695   -25623   -25623   -25725 
  -25901   -26071   -26149   -26091   -25906   -25625   -25328   -25130 
  -25104   -25245   -25497   -25778   -25975   -26018   -25953   -25882 
  -25857   -25860   -25847   -25787   -25683   -25563   -25463   -25388 
  -25338   -25350   -25447   -25594   -25732   -25822   -25859   -25857 
  -25826   -25756   -25664   -25608   -25606   -25639   -25689   -25745 
  -25790   -25793   -25710   -25542   -25361   -25269   -25303   -25439 
  -25640   -25840   -25979   -26019   -25940   -25793   -25674   -25647 
  -25717   -25822   -25893   -25915   -25924   -25925   -25895   -25812 
  -25725   -25710   -25751   -25775   -25744   -25640   -25467   -25288 
  -25191   -25230   -25398   -25623   -25807   -25893   -25868   -25771 
  -25648   -25536   -25481   -25527   -25664   -25814   -25906   -25928 
  -25901   -25841   -25787   -25772   -25780   -25782   -25772   -25739 
  -25662   -25558   -25469   -25436   -25481   -25581   -25690   -25759 
  -25753   -25693   -25633   -25641   -25743   -25890   -26022   -26095 
  -26063   -25926   -25745   -25582   -25467   -25417   -25415   -25429 
  -25450   -25477   -25510   -25571   -25663   -25762   -25845   -25902 
  -25909   -25853   -25767   -25705   -25693   -25729   -25802   -25886 
  -25938   -25926   -25848   -25725   -25589   -25486   -25444   -25448 
  -25474   -25505   -25517   -25505   -25474   -25438   -25439   -25508 
  -25612   -25695   -25737   -25762   -25805   -25848   -25861   -25840 
  -25797   -25756   -25735   -25717   -25708   -25720   -25752   -25793 
  -25816   -25802   -25776   -25749   -25686   -25573   -25461   -25436 
  -25533   -25706   -25879   -25990   -26006   -25918   -25747   -25555 
  -25446   -25485   -25645   -25837   -25964   -25959   -25820   -25605 
  -25402   -25294   -25338   -25524   -25753   -25897   -25911   -25847 
  -25752   -25655   -25579   -25548   -25574   -25650   -25745   -25826 
  -25875   -25874   -25813   -25704   -25579   -25496   -25500   -25604 
  -25775   -25937   -26010   -25944   -25776   -25601   -25475   -25417 
  -25432   -25492   -25543   -25547   -25506   -25471   -25498   -25604 
  -25755   -25880   -25925   -25894   -25849   -25832   -25825   -25807 
  -25785   -25772   -25767   -25772   -25801   -25822   -25790   -25702 
  -25604   -25551   -25601   -25739   -25864   -25884   -25774   -25585 
  -25400   -25294   -25316   -25452   -25644   -25799   -25849   -25802 
  -25708   -25605   -25542   -25548   -25604   -25671   -25744   -25833 
  -25920   -25960   -25936   -25849   -25718   -25587   -25512   -25513 
  -25575   -25644   -25666   -25640   -25601   -25590   -25641   -25744 
  -25834   -25859   -25826   -25760   -25671   -25582   -25543   -25578 
  -25678   -25795   -25863   -25849   -25790   -25740   -25705   -25658 
  -25605   -25586   -25600   -25617   -25635   -25679   -25748   -25783 
  -25751   -25691   -25654   -25641   -25640   -25658   -25691   -25710 
  -25710   -25698   -25690   -25695   -25709   -25705   -25685   -25667 
  -25677   -25729   -25805   -25840   -25803   -25709   -25586   -25477 
  -25424   -25448   -25539   -25670   -25807   -25915   -25963   -25937 
  -25857   -25759   -25682   -25652   -25677   -25728   -25776   -25818 
  -25841   -25820   -25749   -25658   -25577   -25533   -25535   -25556 
  -25562   -25542   -25523   -25533   -25564   -25596   -25618   -25635 
  -25647   -25650   -25650   -25664   -25699   -25751   -25807   -25851 
  -25848   -25794   -25721   -25650   -25590   -25582   -25633   -25717 
  -25803   -25849   -25826   -25752   -25667   -25606   -25594   -25651 
  -25741   -25787   -25768   -25708   -25629   -25558   -25519   -25527 
  -25575   -25645   -25726   -25803   -25849   -25841   -25786   -25706 
  -25641   -25610   -25628   -25713   -25837   -25917   -25898   -25783 
  -25633   -25525   -25502   -25562   -25668   -25778   -25849   -25856 
  -25797   -25702   -25618   -25573   -25552   -25554   -25612   -25726 
  -25832   -25875   -25856   -25785   -25671   -25575   -25556   -25616 
  -25718   -25805   -25825   -25776   -25682   -25582   -25533   -25555 
  -25600   -25624   -25604   -25562   -25548   -25581   -25643   -25694 
  -25709   -25698   -25678   -25670   -25699   -25749   -25783   -25795 
  -25805   -25816   -25834   -25857   -25847   -25772   -25656   -25539 
  -25467   -25479   -25577   -25712   -25817   -25852   -25807   -25685 
  -25523   -25413   -25425   -25547   -25704   -25828   -25894   -25899 
