Origin Time       2025/01/26 08:11:00
Lat.              34.975
Long.             138.213
Depth. (km)       21
Mag.              3.4
Station Code      NGN024
Station Lat.      35.5232
Station Long.     137.8382
Station Height(m) 536
Record Time       2025/01/26 08:11:51
Sampling Freq(Hz) 100Hz
Duration Time(s)  60
Dir.              E-W
Scale Factor      7845(gal)/8223790
Max. Acc. (gal)   1.414
Last Correction   2025/01/26 08:11:50
Memo.             
[...]
  -17096   -17095   -17091   -17096   -17123   -17145   -17146   -17128 
  -17096   -17074   -17082   -17118   -17150   -17154   -17131   -17103 
  -17078   -17074   -17101   -17138   -17158   -17149   -17123   -17100 
  -17082   -17078   -17103   -17131   -17146   -17143   -17120   -17092 
  -17080   -17085   -17111   -17140   -17143   -17126   -17115   -17103 
  -17092   -17096   -17115   -17138   -17140   -17118   -17095   -17096 
  -17113   -17126   -17126   -17122   -17115   -17108   -17103   -17100 
  -17109   -17120   -17123   -17135   -17134   -17097   -17074   -17091 
  -17105   -17132   -17165   -17149   -17105   -17091   -17089   -17091 
  -17115   -17142   -17143   -17127   -17107   -17091   -17091   -17107 
  -17130   -17146   -17145   -17120   -17082   -17064   -17088   -17132 
  -17159   -17151   -17124   -17099   -17081   -17076   -17093   -17126 
  -17145   -17140   -17131   -17122   -17100   -17082   -17096   -17123 
  -17134   -17131   -17124   -17105   -17086   -17089   -17108   -17127 
  -17142   -17140   -17119   -17096   -17082   -17088   -17113   -17140 
  -17147   -17135   -17118   -17092   -17070   -17082   -17127   -17159 
  -17153   -17123   -17095   -17080   -17084   -17104   -17128   -17143 
  -17136   -17118   -17097   -17086   -17096   -17119   -17136   -17140 
  -17131   -17108   -17085   -17082   -17105   -17135   -17145   -17132 
  -17118   -17100   -17078   -17078   -17109   -17145   -17153   -17140 
  -17118   -17093   -17081   -17088   -17109   -17139   -17146   -17124 
  -17107   -17101   -17093   -17095   -17120   -17140   -17134   -17112 
  -17099   -17097   -17107   -17116   -17120   -17123   -17119   -17107 
  -17104   -17111   -17115   -17122   -17128   -17127   -17112   -17091 
  -17081   -17097   -17127   -17146   -17146   -17124   -17095   -17081 
  -17088   -17111   -17138   -17147   -17132   -17115   -17103   -17089 
  -17084   -17099   -17132   -17150   -17131   -17108   -17101   -17091 
  -17088   -17109   -17138   -17150   -17138   -17109   -17085   -17076 
  -17086   -17122   -17150   -17149   -17128   -17105   -17085   -17078 
  -17096   -17126   -17150   -17147   -17119   -17088   -17077   -17089 
  -17113   -17135   -17146   -17135   -17107   -17086   -17089   -17101 
  -17118   -17136   -17139   -17124   -17109   -17095   -17088   -17103 
  -17126   -17135   -17135   -17124   -17101   -17088   -17093   -17112 
  -17130   -17136   -17131   -17113   -17096   -17095   -17108   -17123 
  -17136   -17138   -17126   -17107   -17089   -17085   -17104   -17130 
  -17143   -17140   -17124   -17100   -17078   -17081   -17112   -17142 
  -17150   -17135   -17108   -17086   -17085   -17101   -17123   -17142 
  -17143   -17124   -17100   -17088   -17091   -17105   -17127   -17143 
  -17139   -17123   -17099   -17077   -17084   -17113   -17140   -17145 
  -17131   -17111   -17093   -17086   -17099   -17122   -17135   -17136 
  -17126   -17105   -17089   -17088   -17101   -17126   -17145   -17139 
  -17118   -17099   -17088   -17092   -17111   -17135   -17146   -17138 
  -17113   -17089   -17082   -17097   -17126   -17142   -17136   -17115 
  -17093   -17085   -17093   -17119   -17145   -17153   -17135   -17108 
  -17084   -17073   -17091   -17122   -17140   -17145   -17135   -17111 
  -17091   -17084   -17096   -17128   -17153   -17149   -17123   -17092 
  -17074   -17086   -17116   -17135   -17143   -17134   -17107   -17085 
  -17085   -17100   -17124   -17145   -17142   -17122   -17104   -17092 
  -17088   -17103   -17132   -17153   -17146   -17115   -17082   -17069 
  -17081   -17115   -17146   -17151   -17138   -17109   -17084   -17082 
  -17104   -17127   -17140   -17139   -17120   -17099   -17086   -17085 
  -17104   -17130   -17143   -17138   -17122   -17099   -17082   -17088 
  -17116   -17143   -17145   -17130   -17111   -17093   -17088   -17097 
  -17118   -17135   -17139   -17124   -17100   -17084   -17091   -17113 
  -17136   -17143   -17130   -17104   -17086   -17086   -17101   -17126 
  -17143   -17140   -17126   -17107   -17086   -17081   -17097   -17126 
  -17146   -17149   -17130   -17103   -17091   -17092   -17104   -17126 
  -17139   -17130   -17108   -17092   -17086   -17101   -17127   -17138 
  -17132   -17123   -17108   -17092   -17092   -17108   -17127   -17136 
  -17134   -17118   -17097   -17086   -17093   -17113   -17134   -17139 
  -17128   -17112   -17100   -17093   -17097   -17116   -17134   -17134 
  -17122   -17104   -17088   -17084   -17103   -17131   -17147   -17146 
  -17124   -17092   -17081   -17097   -17113   -17128   -17138   -17131 
  -17115   -17103   -17099   -17111   -17132   -17142   -17135   -17118 
  -17097   -17084   -17081   -17089   -17105   -17115   -17119   -17123 
  -17112   -17082   -17065   -17078   -17115   -17162   -17201   -17192 
  -17120   -17039   -17022   -17084   -17170   -17223   -17205   -17122 
  -17027   -17016   -17107   -17212   -17231   -17143   -17032   -17001 
  -17059   -17131   -17145   -17105   -17061   -17057   -17100   -17131 
  -17097   -17039   -17053   -17172   -17294   -17282   -17134   -16950 
  -16864   -16983   -17251   -17450   -17406   -17178   -16968   -16911 
  -16992   -17113   -17180   -17165   -17120   -17096   -17076   -17034 
  -17014   -17057   -17122   -17154   -17153   -17132   -17103   -17085 
  -17070   -17057   -17072   -17115   -17147   -17158   -17154   -17169 
  -17215   -17244   -17204   -17091   -16973   -16957   -17062   -17203 
  -17278   -17255   -17165   -17054   -16981   -16989   -17054   -17130 
  -17176   -17149   -17068   -17018   -17054   -17149   -17220   -17219 
  -17146   -17057   -17016   -17049   -17101   -17128   -17132   -17130 
  -17134   -17157   -17167   -17120   -17037   -16999   -17059   -17192 
  -17289   -17263   -17130   -16993   -16956   -17035   -17162   -17220 
  -17155   -17055   -17051   -17135   -17181   -17120   -17051   -17095 
  -17196   -17220   -17134   -17023   -16976   -17012   -17109   -17213 
  -17242   -17162   -17039   -16972   -17005   -17091   -17163   -17208 
  -17216   -17181   -17128   -17085   -17070   -17085   -17120   -17176 
  -17213   -17174   -17077   -16999   -16996   -17047   -17097   -17143 
  -17190   -17208   -17172   -17111   -17070   -17061   -17053   -17032 
  -17026   -17054   -17124   -17220   -17286   -17263   -17135   -16972 
  -16896   -16962   -17111   -17236   -17281   -17250   -17173   -17073 
  -16997   -16989   -17047   -17135   -17212   -17244   -17199   -17096 
  -17016   -16995   -17027   -17089   -17139   -17163   -17170   -17149 
  -17092   -17046   -17054   -17116   -17194   -17247   -17254   -17205 
  -17097   -16970   -16903   -16939   -17054   -17189   -17296   -17313 
  -17209   -17069   -17011   -17047   -17096   -17100   -17076   -17061 
  -17091   -17163   -17212   -17172   -17064   -16977   -16988   -17096 
  -17220   -17275   -17232   -17123   -17026   -17005   -17046   -17080 
  -17088   -17097   -17134   -17190   -17235   -17230   -17169   -17080 
  -17022   -17038   -17113   -17201   -17234   -17162   -17042   -16962 
  -16964   -17026   -17111   -17176   -17180   -17127   -17072   -17064 
  -17107   -17155   -17165   -17135   -17095   -17069   -17066   -17097 
  -17157   -17207   -17227   -17216   -17165   -17089   -17038   -17028 
  -17046   -17089   -17135   -17147   -17111   -17054   -17023   -17054 
  -17118   -17155   -17173   -17182   -17167   -17131   -17101   -17104 
  -17127   -17130   -17107   -17091   -17096   -17126   -17178   -17205 
  -17162   -17076   -17008   -17008   -17066   -17115   -17119   -17122 
  -17130   -17111   -17064   -17034   -17069   -17157   -17221   -17205 
  -17130   -17069   -17074   -17135   -17196   -17205   -17157   -17077 
  -16995   -16954   -16993   -17100   -17221   -17305   -17290   -17169 
  -17035   -16984   -17014   -17064   -17086   -17066   -17037   -17046 
  -17092   -17154   -17216   -17250   -17230   -17136   -17014   -16974 
  -17050   -17161   -17239   -17257   -17223   -17169   -17097   -17022 
  -16993   -17042   -17136   -17207   -17205   -17138   -17037   -16957 
  -16939   -16991   -17100   -17226   -17286   -17234   -17113   -17027 
  -17019   -17072   -17161   -17223   -17192   -17088   -16997   -16978 
  -17042   -17153   -17238   -17236   -17169   -17107   -17088   -17101 
  -17124   -17132   -17109   -17066   -17045   -17069   -17124   -17167 
  -17158   -17107   -17061   -17058   -17092   -17135   -17170   -17182 
  -17174   -17158   -17142   -17119   -17085   -17059   -17053   -17050 
  -17058   -17104   -17169   -17185   -17128   -17039   -16985   -17004 
  -17077   -17153   -17190   -17203   -17204   -17185   -17158   -17151 
  -17154   -17142   -17115   -17084   -17068   -17074   -17097   -17118 
  -17111   -17077   -17059   -17081   -17118   -17142   -17157   -17145 
  -17091   -17028   -17008   -17042   -17112   -17182   -17204   -17162 
  -17091   -17046   -17070   -17158   -17247   -17275   -17232   -17154 
  -17076   -17008   -16968   -16988   -17073   -17165   -17197   -17162 
  -17105   -17064   -17050   -17069   -17112   -17165   -17199   -17197 
  -17154   -17074   -16997   -16988   -17062   -17150   -17172   -17145 
  -17131   -17142   -17149   -17143   -17128   -17107   -17108   -17151 
  -17197   -17192   -17135   -17054   -16977   -16953   -16991   -17062 
  -17150   -17224   -17239   -17185   -17101   -17051   -17069   -17134 
  -17203   -17232   -17192   -17100   -17022   -17015   -17070   -17123 
  -17113   -17065   -17050   -17088   -17132   -17150   -17139   -17108 
  -17089   -17115   -17174   -17207   -17170   -17099   -17047   -17032 
  -17051   -17099   -17145   -17155   -17146   -17143   -17139   -17118 
  -17101   -17096   -17086   -17082   -17101   -17130   -17138   -17113 
  -17072   -17041   -17045   -17074   -17105   -17132   -17162   -17193 
  -17226   -17242   -17196   -17096   -17027   -17049   -17112   -17147 
  -17136   -17095   -17049   -17035   -17061   -17088   -17097   -17104 
  -17120   -17165   -17223   -17239   -17176   -17062   -16972   -16950 
  -17010   -17127   -17231   -17262   -17216   -17135   -17064   -17016 
  -16988   -16987   -17019   -17076   -17149   -17224   -17266   -17247 
  -17181   -17107   -17065   -17078   -17116   -17142   -17153   -17157 
  -17154   -17136   -17115   -17096   -17076   -17066   -17077   -17092 
  -17092   -17077   -17073   -17100   -17136   -17162   -17167   -17153 
  -17115   -17068   -17042   -17061   -17103   -17126   -17123   -17105 
  -17070   -17041   -17057   -17119   -17176   -17192   -17184   -17165 
  -17138   -17104   -17057   -17010   -17015   -17092   -17193   -17270 
  -17298   -17274   -17205   -17100   -16988   -16906   -16892   -16957 
  -17065   -17178   -17257   -17280   -17259   -17204   -17120   -17032 
  -16981   -16985   -17032   -17089   -17130   -17155   -17178   -17196 
  -17194   -17162   -17105   -17045   -17005   -17014   -17078   -17163 
  -17197   -17165   -17113   -17084   -17074   -17078   -17113   -17162 
  -17157   -17086   -17035   -17059   -17126   -17165   -17159   -17124 
  -17069   -17022   -17030   -17104   -17197   -17239   -17207   -17127 
  -17041   -16989   -17022   -17128   -17232   -17267   -17211   -17092 
  -16976   -16930   -16989   -17127   -17269   -17338   -17302   -17203 
  -17092   -17010   -16989   -17023   -17066   -17077   -17046   -17004 
  -16996   -17027   -17088   -17159   -17203   -17194   -17151   -17095 
  -17064   -17092   -17173   -17267   -17335   -17335   -17247   -17108 
  -16988   -16920   -16904   -16939   -17024   -17126   -17217   -17293 
  -17317   -17248   -17112   -16972   -16879   -16880   -16987   -17139 
  -17266   -17320   -17282   -17189   -17097   -17027   -16977   -16960 
  -16995   -17058   -17126   -17182   -17204   -17173   -17131   -17128 
  -17158   -17170   -17132   -17072   -17039   -17058   -17113   -17177 
  -17213   -17197   -17130   -17051   -17020   -17055   -17122   -17167 
  -17180   -17157   -17108   -17066   -17061   -17086   -17130   -17176 
  -17217   -17217   -17138   -17010   -16912   -16908   -16989   -17103 
  -17208   -17273   -17271   -17197   -17096   -17019   -16993   -17023 
  -17089   -17162   -17209   -17216   -17203   -17192   -17182   -17154 
  -17091   -17024   -16996   -17012   -17051   -17085   -17107   -17112 
  -17103   -17100   -17126   -17172   -17209   -17212   -17170   -17095 
  -17005   -16945   -16946   -17018   -17134   -17243   -17292   -17255 
  -17159   -17062   -17010   -17012   -17038   -17085   -17154   -17201 
  -17203   -17178   -17143   -17128   -17138   -17139   -17122   -17105 
  -17093   -17085   -17091   -17099   -17097   -17093   -17081   -17055 
  -17046   -17076   -17127   -17158   -17135   -17076   -17032   -17032 
  -17081   -17153   -17185   -17151   -17119   -17149   -17204   -17221 
  -17215   -17228   -17274   -17317   -17315   -17254   -17147   -17054 
  -17050   -17151   -17293   -17398   -17440   -17433   -17356   -17163 
  -16883   -16591   -16348   -16193   -16166   -16283   -16544   -16920 
  -17307   -17535   -17512   -17281   -16938   -16599   -16402   -16476 
  -16827   -17304   -17726   -18022   -18218   -18310   -18285   -18191 
  -18031   -17722   -17232   -16702   -16343   -16251   -16343   -16497 
  -16687   -16906   -17068   -17073   -16931   -16758   -16642   -16576 
  -16584   -16772   -17166   -17594   -17803   -17694   -17396   -17128 
  -17030   -17097   -17236   -17317   -17262   -17130   -17076   -17217 
  -17512   -17745   -17685   -17265   -16661   -16181   -16082   -16445 
  -17146   -17911   -18457   -18596   -18289   -17644   -16896   -16316 
  -16044   -16013   -16073   -16159   -16302   -16522   -16810   -17135 
  -17421   -17578   -17550   -17388   -17230   -17176   -17208   -17217 
  -17108   -16916   -16779   -16821   -17103   -17571   -18061   -18377 
  -18358   -17952   -17300   -16726   -16518   -16726   -17192   -17647 
  -17818   -17582   -17008   -16314   -15781   -15661   -15994   -16559 
  -17065   -17312   -17259   -17035   -16819   -16752   -16907   -17230 
  -17544   -17698   -17703   -17678   -17699   -17748   -17694   -17424 
  -17005   -16626   -16438   -16526   -16826   -17126   -17238   -17130 
  -16903   -16686   -16571   -16615   -16848   -17228   -17635   -17913 
  -17955   -17722   -17298   -16903   -16738   -16803   -16934   -16989 
  -16935   -16833   -16794   -16885   -17118   -17421   -17658   -17722 
  -17622   -17420   -17177   -16956   -16829   -16857   -17016   -17188 
  -17247   -17165   -17015   -16873   -16761   -16665   -16611   -16649 
  -16830   -17167   -17554   -17787   -17757   -17504   -17130   -16800 
  -16700   -16891   -17215   -17439   -17450   -17289   -17080   -16939 
  -16930   -17028   -17140   -17140   -16989   -16789   -16696   -16767 
  -16943   -17167   -17405   -17626   -17782   -17806   -17653   -17363 
  -17046   -16810   -16677   -16610   -16602   -16683   -16881   -17166 
  -17448   -17593   -17487   -17172   -16835   -16688   -16808   -17064 
  -17242   -17274   -17236   -17205   -17193   -17181   -17149   -17086 
  -17019   -17008   -17084   -17193   -17253   -17208   -17084   -16980 
  -16993   -17142   -17375   -17575   -17589   -17377   -17058   -16776 
  -16623   -16656   -16848   -17077   -17211   -17200   -17072   -16889 
  -16730   -16667   -16744   -16946   -17190   -17373   -17466   -17506 
  -17517   -17485   -17401   -17288   -17170   -17076   -17001   -16953 
  -16945   -16974   -17011   -17035   -17041   -17038   -17058   -17108 
  -17184   -17269   -17329   -17338   -17301   -17219   -17103   -17008 
  -17007   -17111   -17263   -17363   -17331   -17178   -16989   -16845 
  -16776   -16781   -16857   -16991   -17146   -17288   -17388   -17397 
  -17267   -17024   -16789   -16677   -16726   -16885   -17045   -17112 
  -17078   -17022   -17042   -17169   -17332   -17451   -17497   -17475 
  -17367   -17163   -16933   -16779   -16769   -16887   -17065   -17243 
  -17352   -17334   -17209   -17074   -17018   -17055   -17118   -17140 
  -17124   -17120   -17163   -17257   -17351   -17386   -17363   -17338 
  -17332   -17328   -17289   -17189   -17038   -16866   -16726   -16679 
  -16729   -16829   -16920   -16956   -16919   -16846   -16783   -16779 
  -16868   -17027   -17181   -17258   -17254   -17238   -17280   -17389 
  -17517   -17614   -17637   -17550   -17362   -17135   -16956   -16883 
  -16906   -16969   -17026   -17061   -17101   -17154   -17184   -17166 
  -17107   -17042   -17020   -17047   -17086   -17119   -17134   -17128 
  -17126   -17143   -17172   -17181   -17146   -17073   -16999   -16951 
  -16939   -16960   -17008   -17085   -17178   -17270   -17331   -17308 
  -17196   -17061   -16989   -16999   -17058   -17138   -17215   -17250 
  -17207   -17096   -16991   -16970   -17032   -17104   -17140   -17149 
  -17139   -17123   -17099   -17068   -17057   -17082   -17113   -17112 
  -17078   -17042   -17026   -17028   -17047   -17086   -17154   -17228 
  -17273   -17269   -17227   -17199   -17221   -17277   -17331   -17338 
  -17273   -17166   -17057   -16962   -16910   -16922   -16984   -17046 
  -17066   -17042   -16993   -16962   -16978   -17019   -17039   -17043 
  -17062   -17122   -17221   -17321   -17356   -17290   -17163   -17066 
  -17039   -17068   -17123   -17167   -17193   -17200   -17162   -17059 
  -16934   -16853   -16853   -16918   -17001   -17061   -17097   -17134 
  -17181   -17220   -17240   -17261   -17277   -17262   -17211   -17162 
  -17147   -17146   -17145   -17142   -17146   -17163   -17197   -17219 
  -17200   -17131   -17030   -16943   -16907   -16904   -16912   -16939 
  -16996   -17069   -17145   -17197   -17223   -17244   -17282   -17323 
  -17338   -17300   -17216   -17092   -16945   -16853   -16889   -17038 
  -17219   -17328   -17325   -17244   -17135   -17030   -16938   -16873 
  -16860   -16896   -16957   -17035   -17119   -17196   -17262   -17292 
  -17265   -17208   -17166   -17161   -17178   -17189   -17181   -17159 
  -17132   -17095   -17042   -16977   -16929   -16943   -17028   -17123 
  -17176   -17199   -17208   -17205   -17189   -17158   -17108   -17043 
  -16973   -16926   -16937   -17003   -17104   -17199   -17247   -17251 
  -17240   -17216   -17173   -17124   -17088   -17073   -17072   -17092 
  -17138   -17173   -17165   -17128   -17099   -17101   -17130   -17143 
  -17116   -17068   -17026   -17026   -17066   -17107   -17119   -17108 
  -17095   -17088   -17086   -17101   -17147   -17215   -17271   -17300 
  -17289   -17246   -17192   -17143   -17091   -17034   -16987   -16976 
  -17010   -17066   -17127   -17170   -17155   -17081   -17001   -16966 
  -16976   -17016   -17081   -17136   -17143   -17109   -17086   -17093 
  -17109   -17111   -17099   -17093   -17093   -17089   -17085   -17104 
  -17153   -17207   -17228   -17207   -17158   -17100   -17041   -17008 
  -17038   -17127   -17224   -17282   -17293   -17275   -17234   -17154 
  -17070   -17034   -17053   -17108   -17170   -17194   -17161   -17086 
  -17010   -16972   -16981   -17004   -17034   -17068   -17078   -17058 
  -17047   -17043   -17024   -17008   -17019   -17065   -17126   -17169 
  -17193   -17215   -17223   -17200   -17153   -17099   -17073   -17084 
  -17116   -17166   -17230   -17273   -17236   -17118   -17014   -17007 
  -17095   -17221   -17298   -17271   -17169   -17076   -17046   -17072 
  -17109   -17128   -17131   -17124   -17105   -17096   -17113   -17123 
