Origin Time       2025/01/26 08:11:00
Lat.              34.975
Long.             138.213
Depth. (km)       21
Mag.              3.4
Station Code      NGN024
Station Lat.      35.5232
Station Long.     137.8382
Station Height(m) 536
Record Time       2025/01/26 08:11:51
Sampling Freq(Hz) 100Hz
Duration Time(s)  60
Dir.              U-D
Scale Factor      7845(gal)/8223790
Max. Acc. (gal)   0.678
Last Correction   2025/01/26 08:11:50
Memo.             
[...]
   38411    38383    38369    38375    38399    38429    38438    38421 
   38398    38380    38371    38381    38406    38426    38437    38429 
   38394    38361    38369    38399    38421    38439    38433    38392 
   38373    38383    38380    38398    38439    38442    38400    38379 
   38389    38398    38388    38391    38426    38439    38410    38385 
   38380    38381    38395    38416    38435    38426    38392    38373 
   38376    38384    38406    38433    38438    38418    38392    38372 
   38371    38388    38414    38435    38441    38419    38383    38362 
   38371    38392    38421    38443    38430    38389    38367    38379 
   38402    38415    38422    38426    38414    38385    38375    38388 
   38398    38406    38423    38431    38415    38385    38371    38380 
   38403    38422    38429    38416    38398    38389    38384    38383 
   38400    38418    38418    38415    38403    38384    38381    38391 
   38408    38430    38431    38403    38373    38371    38389    38408 
   38423    38430    38414    38387    38379    38381    38385    38402 
   38426    38433    38418    38395    38375    38373    38389    38411 
   38427    38425    38406    38392    38385    38380    38389    38415 
   38434    38425    38398    38377    38377    38392    38412    38429 
   38422    38398    38381    38380    38385    38402    38425    38434 
   38419    38398    38385    38383    38384    38396    38422    38431 
   38415    38388    38379    38384    38391    38406    38427    38431 
   38415    38395    38375    38368    38394    38426    38437    38425 
   38402    38380    38376    38391    38414    38429    38421    38400 
   38387    38384    38389    38400    38410    38419    38421    38404 
   38388    38384    38384    38396    38421    38433    38421    38400 
   38381    38375    38388    38414    38430    38426    38407    38392 
   38383    38380    38392    38412    38430    38434    38412    38384 
   38372    38379    38403    38429    38437    38418    38388    38372 
   38381    38394    38404    38423    38427    38408    38392    38384 
   38383    38399    38422    38429    38422    38404    38383    38375 
   38384    38403    38422    38429    38418    38395    38379    38377 
   38391    38414    38431    38429    38408    38387    38377    38384 
   38399    38419    38430    38418    38399    38383    38379    38387 
   38402    38419    38430    38421    38396    38381    38380    38388 
   38412    38434    38429    38407    38389    38380    38381    38396 
   38421    38431    38418    38402    38391    38380    38384    38403 
   38425    38431    38415    38391    38381    38387    38394    38406 
   38422    38425    38410    38388    38376    38379    38396    38421 
   38435    38422    38395    38377    38372    38385    38416    38435 
   38427    38403    38384    38379    38383    38396    38416    38431 
   38429    38407    38384    38377    38383    38398    38421    38434 
   38419    38391    38375    38376    38389    38411    38426    38426 
   38414    38391    38371    38373    38398    38422    38433    38419 
   38394    38379    38377    38385    38407    38430    38434    38415 
   38392    38381    38383    38391    38407    38427    38429    38407 
   38385    38379    38384    38399    38416    38425    38421    38403 
   38385    38381    38385    38400    38419    38429    38418    38395 
   38376    38377    38394    38416    38431    38426    38404    38385 
   38380    38385    38398    38416    38429    38421    38399    38379 
   38376    38389    38410    38427    38430    38411    38384    38375 
   38387    38400    38415    38430    38422    38399    38385    38379 
   38377    38398    38425    38433    38421    38399    38380    38379 
   38392    38412    38427    38425    38404    38388    38383    38385 
   38394    38410    38423    38422    38404    38381    38373    38384 
   38404    38430    38437    38415    38389    38376    38373    38391 
   38416    38430    38425    38408    38387    38377    38385    38398 
   38416    38431    38423    38398    38381    38380    38389    38408 
   38425    38425    38414    38399    38384    38377    38391    38415 
   38431    38429    38407    38383    38375    38381    38402    38426 
   38441    38431    38408    38391    38389    38398    38414    38439 
   38453    38433    38395    38372    38375    38398    38411    38379 
   38317    38269    38273    38349    38466    38524    38457    38325 
   38259    38319    38461    38608    38666    38539    38292    38160 
   38241    38394    38488    38524    38518    38480    38461    38442 
   38357    38265    38272    38373    38516    38607    38512    38277 
   38130    38207    38389    38504    38510    38411    38271    38271 
   38458    38607    38551    38395    38304    38294    38344    38475 
   38600    38573    38437    38371    38349    38238    38164    38290 
   38465    38515    38518    38520    38453    38371    38353    38353 
   38373    38441    38460    38392    38365    38429    38449    38354 
   38254    38254    38353    38506    38595    38503    38334    38295 
   38383    38442    38427    38406    38403    38406    38439    38450 
   38356    38264    38344    38516    38564    38443    38308    38280 
   38354    38473    38558    38523    38388    38259    38215    38329 
   38560    38651    38453    38164    38078    38263    38543    38695 
   38643    38469    38310    38265    38298    38308    38319    38406 
   38531    38597    38514    38311    38176    38223    38358    38452 
   38484    38485    38443    38379    38384    38446    38456    38423 
   38423    38434    38434    38438    38427    38369    38273    38229 
   38292    38389    38456    38496    38495    38439    38383    38360 
   38353    38368    38412    38462    38491    38489    38460    38425 
   38380    38304    38234    38268    38407    38541    38595    38560 
   38434    38272    38188    38250    38372    38454    38516    38530 
   38431    38322    38322    38371    38372    38375    38448    38554 
   38576    38454    38303    38234    38249    38338    38470    38543 
   38507    38411    38329    38307    38344    38384    38385    38376 
   38403    38462    38507    38507    38488    38452    38356    38232 
   38191    38259    38392    38558    38665    38593    38372    38188 
   38192    38338    38483    38572    38591    38500    38358    38322 
   38379    38377    38317    38306    38346    38376    38415    38491 
   38522    38426    38306    38303    38376    38445    38512    38519 
   38414    38311    38319    38383    38421    38435    38442    38421 
   38372    38365    38416    38452    38410    38337    38304    38322 
   38372    38435    38479    38484    38456    38399    38346    38353 
   38426    38504    38527    38473    38368    38275    38252    38300 
   38387    38469    38511    38483    38407    38353    38345    38365 
   38425    38496    38489    38391    38302    38296    38338    38380 
   38437    38496    38480    38385    38314    38338    38431    38515 
   38530    38462    38356    38295    38327    38402    38450    38485 
   38518    38462    38299    38164    38190    38344    38492    38550 
   38512    38427    38372    38381    38402    38384    38361    38385 
   38439    38445    38400    38379    38407    38437    38427    38396 
   38385    38392    38403    38431    38426    38360    38335    38407 
   38442    38389    38384    38454    38476    38416    38353    38327 
   38350    38419    38477    38465    38415    38410    38446    38438 
   38365    38299    38292    38329    38381    38430    38468    38488 
   38493    38484    38438    38340    38261    38288    38377    38438 
   38464    38468    38422    38331    38277    38338    38464    38530 
   38527    38496    38434    38372    38360    38368    38352    38350 
   38387    38407    38395    38398    38421    38421    38406    38414 
   38408    38375    38383    38435    38458    38425    38361    38299 
   38280    38319    38380    38430    38469    38483    38443    38391 
   38407    38481    38530    38520    38472    38384    38302    38306 
   38367    38391    38381    38388    38407    38406    38385    38360 
   38338    38348    38408    38466    38457    38431    38454    38475 
   38430    38365    38348    38360    38383    38416    38423    38395 
   38388    38418    38414    38357    38337    38381    38400    38364 
   38362    38439    38529    38570    38530    38389    38241    38225 
   38330    38448    38510    38487    38416    38383    38392    38381 
   38365    38410    38464    38414    38303    38287    38364    38427 
   38464    38483    38454    38410    38422    38476    38476    38403 
   38345    38364    38410    38402    38335    38291    38313    38354 
   38367    38367    38396    38450    38476    38460    38431    38421 
   38453    38510    38502    38418    38341    38307    38298    38322 
   38387    38435    38442    38443    38438    38400    38392    38466 
   38533    38469    38323    38240    38283    38398    38489    38485 
   38398    38302    38248    38245    38300    38412    38551    38647 
   38616    38457    38281    38202    38225    38292    38392    38533 
   38630    38601    38495    38385    38276    38219    38298    38445 
   38510    38484    38461    38450    38391    38321    38292    38279 
   38292    38384    38499    38550    38539    38480    38372    38271 
   38248    38292    38369    38472    38553    38537    38458    38407 
   38368    38300    38281    38341    38391    38407    38429    38458 
   38480    38477    38438    38380    38335    38319    38349    38402 
   38416    38385    38364    38396    38470    38522    38515    38461 
   38377    38288    38233    38249    38350    38480    38535    38507 
   38452    38383    38340    38349    38352    38367    38442    38493 
   38454    38391    38375    38398    38402    38356    38318    38345 
   38439    38562    38607    38504    38354    38277    38272    38315 
   38400    38487    38510    38456    38368    38287    38210    38192 
   38298    38477    38611    38642    38592    38503    38410    38331 
   38283    38273    38311    38388    38439    38427    38419    38439 
   38422    38385    38394    38404    38387    38376    38358    38327 
   38356    38449    38519    38508    38427    38335    38313    38367 
   38419    38400    38350    38376    38480    38564    38569    38506 
   38411    38319    38242    38219    38288    38398    38469    38481 
   38450    38414    38391    38380    38388    38394    38362    38344 
   38403    38503    38550    38516    38439    38354    38290    38275 
   38321    38402    38462    38464    38407    38331    38288    38292 
   38335    38412    38483    38511    38507    38484    38427    38368 
   38364    38404    38438    38456    38489    38516    38479    38389 
   38313    38271    38273    38338    38419    38453    38430    38380 
   38329    38292    38296    38360    38442    38466    38426    38404 
   38445    38485    38488    38492    38491    38434    38350    38315 
   38322    38345    38414    38485    38461    38367    38313    38317 
   38358    38438    38500    38481    38419    38379    38353    38344 
   38372    38422    38462    38492    38489    38425    38330    38268 
   38264    38326    38449    38562    38557    38429    38288    38236 
   38298    38423    38510    38499    38404    38310    38310    38381 
   38439    38480    38519    38512    38438    38357    38329    38344 
   38391    38460    38488    38427    38348    38345    38395    38426 
   38422    38414    38412    38381    38333    38334    38395    38470 
   38499    38425    38303    38261    38326    38425    38499    38516 
   38470    38388    38313    38271    38283    38340    38429    38518 
   38557    38520    38429    38341    38313    38331    38353    38368 
   38407    38470    38503    38484    38445    38412    38398    38379 
   38342    38338    38408    38503    38523    38450    38367    38334 
   38319    38290    38294    38368    38464    38523    38523    38452 
   38354    38308    38318    38342    38384    38456    38500    38461 
   38365    38286    38268    38326    38415    38443    38394    38360 
   38399    38450    38445    38404    38369    38362    38414    38488 
   38487    38411    38396    38473    38499    38412    38352    38399 
   38454    38434    38379    38345    38331    38333    38344    38341 
   38349    38415    38493    38506    38433    38304    38187    38148 
   38205    38326    38456    38526    38553    38614    38678    38665 
   38612    38597    38593    38510    38348    38234    38234    38260 
   38265    38281    38307    38307    38249    38178    38205    38326 
   38439    38512    38556    38562    38546    38556    38637    38751 
   38765    38583    38279    38041    37993    38075    38191    38335 
   38504    38612    38632    38614    38556    38416    38198    37986 
   37909    38020    38280    38581    38800    38913    38973    38981 
   38875    38622    38269    37955    37813    37870    38045    38214 
   38256    38190    38183    38330    38518    38608    38591    38507 
   38381    38318    38418    38631    38824    38885    38730    38377 
   37995    37798    37878    38156    38495    38780    38905    38828 
   38612    38395    38325    38395    38450    38414    38313    38173 
   38009    37870    37833    37921    38136    38469    38844    39113 
   39112    38812    38362    37960    37740    37766    38003    38335 
   38634    38816    38851    38777    38664    38531    38373    38242 
   38230    38341    38452    38508    38556    38588    38570    38504 
   38375    38207    38167    38315    38458    38427    38322    38291 
   38322    38342    38346    38380    38457    38522    38476    38308 
   38155    38179    38398    38641    38715    38641    38557    38475 
   38369    38298    38322    38416    38491    38479    38415    38406 
   38473    38520    38497    38431    38345    38279    38283    38307 
   38261    38186    38148    38122    38113    38173    38331    38564 
   38782    38878    38827    38692    38537    38379    38292    38349 
   38456    38473    38419    38369    38330    38292    38281    38287 
   38265    38232    38227    38271    38360    38480    38610    38681 
   38643    38516    38357    38211    38113    38098    38195    38379 
   38577    38728    38757    38639    38462    38322    38261    38268 
   38290    38306    38317    38296    38263    38277    38364    38500 
   38639    38693    38612    38458    38372    38426    38541    38562 
   38449    38291    38199    38222    38323    38419    38461    38448 
   38402    38318    38179    38049    38074    38268    38466    38560 
   38566    38468    38273    38153    38232    38426    38585    38658 
   38647    38568    38481    38457    38477    38508    38569    38619 
   38587    38515    38473    38416    38307    38219    38234    38331 
   38429    38460    38400    38286    38199    38160    38133    38142 
   38223    38314    38356    38402    38485    38539    38533    38504 
   38466    38422    38412    38450    38489    38512    38527    38527 
   38504    38450    38384    38357    38387    38435    38445    38388 
   38315    38313    38399    38495    38522    38472    38383    38334 
   38369    38431    38450    38439    38431    38426    38408    38352 
   38271    38229    38236    38246    38265    38307    38364    38416 
   38437    38421    38425    38479    38535    38539    38473    38387 
   38361    38434    38542    38578    38502    38384    38299    38272 
   38313    38399    38454    38448    38422    38375    38281    38211 
   38233    38303    38342    38360    38399    38454    38506    38566 
   38593    38512    38381    38345    38431    38534    38578    38570 
   38516    38422    38331    38275    38254    38283    38348    38384 
   38345    38280    38261    38286    38311    38333    38356    38377 
   38421    38503    38584    38614    38580    38496    38399    38346 
   38368    38427    38466    38464    38439    38414    38380    38352 
   38361    38396    38403    38367    38322    38310    38344    38406 
   38443    38421    38384    38399    38435    38442    38416    38376 
   38344    38346    38365    38340    38273    38242    38288    38380 
   38470    38539    38589    38624    38620    38546    38446    38422 
   38479    38506    38443    38358    38326    38326    38314    38298 
   38311    38353    38395    38400    38367    38326    38326    38375 
   38423    38419    38375    38346    38362    38385    38391    38398 
   38406    38402    38403    38410    38400    38400    38460    38537 
   38561    38519    38438    38360    38323    38350    38411    38443 
   38429    38387    38334    38287    38268    38284    38349    38457 
   38529    38495    38406    38352    38353    38379    38419    38456 
   38460    38449    38452    38441    38415    38423    38453    38427 
   38334    38259    38269    38353    38469    38562    38574    38503 
   38387    38260    38180    38205    38326    38460    38504    38445 
   38367    38334    38341    38353    38364    38387    38414    38430 
   38438    38430    38407    38408    38439    38460    38441    38380 
   38331    38353    38419    38465    38468    38453    38460    38493 
   38519    38522    38522    38535    38537    38481    38365    38261 
   38248    38296    38335    38350    38344    38325    38327    38362 
   38396    38407    38387    38353    38340    38361    38391    38419 
   38443    38450    38449    38458    38460    38437    38402    38384 
   38381    38391    38425    38456    38441    38399    38377    38379 
   38387    38402    38404    38388    38379    38391    38399    38395 
   38385    38380    38381    38369    38334    38302    38310    38360 
   38418    38468    38484    38453    38416    38396    38375    38362 
   38387    38430    38457    38465    38468    38457    38437    38435 
   38437    38387    38299    38249    38295    38388    38452    38470 
   38465    38439    38398    38358    38348    38371    38398    38404 
   38403    38407    38396    38379    38391    38437    38481    38502 
   38491    38449    38400    38375    38368    38356    38357    38388 
   38419    38438    38464    38489    38483    38438    38381    38342 
   38325    38326    38360    38404    38421    38423    38437    38441 
   38426    38399    38376    38379    38411    38445    38443    38398 
   38334    38287    38275    38287    38306    38338    38395    38449 
   38458    38431    38410    38421    38462    38496    38488    38450 
   38412    38371    38346    38387    38476    38524    38492    38418 
   38356    38327    38344    38392    38425    38403    38356    38323 
   38319    38350    38404    38437    38423    38392    38367    38344 
   38331    38345    38387    38435    38470    38481    38460    38419 
   38396    38407    38430    38434    38425    38415    38410    38406 
   38406    38394    38381    38394    38410    38403    38399    38421 
   38449    38465    38457    38422    38394    38404    38437    38437 
   38412    38415    38437    38427    38384    38334    38306    38313 
