Origin Time       2025/02/01 08:16:00
Lat.              33.667
Long.             130.927
Depth. (km)       8
Mag.              3.1
Station Code      OIT002
Station Lat.      33.5691
Station Long.     131.2675
Station Height(m) 8
Record Time       2025/02/01 08:17:06
Sampling Freq(Hz) 100Hz
Duration Time(s)  60
Dir.              U-D
Scale Factor      7845(gal)/8223790
Max. Acc. (gal)   2.913
Last Correction   2025/02/01 08:17:06
Memo.             
[...]
    6629     6629     6629     6631     6628     6627     6628     6627 
    6627     6631     6631     6631     6632     6633     6632     6631 
    6629     6628     6631     6635     6633     6629     6625     6625 
    6627     6627     6631     6635     6633     6635     6636     6633 
    6632     6632     6631     6631     6633     6632     6631     6632 
    6632     6629     6628     6629     6627     6624     6632     6636 
    6629     6625     6628     6628     6629     6636     6639     6633 
    6632     6633     6632     6632     6635     6631     6625     6624 
    6627     6629     6631     6633     6636     6632     6628     6629 
    6629     6632     6636     6637     6636     6633     6629     6623 
    6624     6629     6632     6633     6633     6628     6628     6629 
    6629     6631     6632     6632     6631     6628     6628     6629 
    6635     6639     6633     6627     6629     6633     6631     6633 
    6635     6628     6625     6623     6621     6628     6636     6635 
    6633     6635     6629     6629     6635     6636     6635     6633 
    6632     6631     6629     6632     6633     6629     6624     6624 
    6627     6631     6628     6627     6631     6636     6636     6633 
    6635     6635     6635     6635     6632     6627     6628     6633 
    6633     6632     6631     6627     6627     6631     6633     6632 
    6629     6625     6625     6628     6632     6637     6637     6635 
    6632     6631     6629     6631     6633     6635     6633     6633 
    6632     6625     6625     6632     6636     6635     6631     6625 
    6624     6628     6633     6632     6632     6633     6632     6628 
    6628     6628     6629     6633     6631     6628     6633     6632 
    6627     6629     6633     6636     6636     6631     6629     6632 
    6637     6635     6625     6623     6628     6631     6633     6636 
    6632     6625     6621     6620     6624     6636     6642     6633 
    6629     6629     6629     6629     6631     6632     6633     6629 
    6625     6628     6631     6631     6631     6629     6633     6637 
    6636     6635     6633     6632     6632     6631     6628     6627 
    6627     6628     6628     6629     6632     6631     6625     6627 
    6628     6624     6625     6632     6633     6631     6632     6635 
    6635     6628     6625     6628     6632     6636     6637     6632 
    6624     6624     6627     6631     6635     6631     6628     6628 
    6627     6629     6636     6633     6629     6633     6631     6631 
    6635     6635     6628     6624     6624     6628     6629     6627 
    6628     6629     6631     6632     6633     6635     6631     6627 
    6629     6632     6631     6633     6635     6629     6624     6627 
    6632     6632     6632     6635     6635     6632     6629     6628 
    6624     6624     6632     6636     6633     6628     6627     6627 
    6629     6632     6632     6631     6632     6632     6632     6631 
    6628     6631     6636     6632     6628     6629     6627     6625 
    6632     6632     6627     6628     6628     6625     6629     6635 
    6633     6632     6632     6632     6631     6628     6627     6631 
    6631     6631     6629     6631     6636     6636     6635     6633 
    6625     6623     6629     6632     6631     6632     6629     6627 
    6628     6628     6628     6632     6632     6631     6633     6633 
    6631     6635     6633     6627     6628     6628     6624     6625 
    6631     6632     6631     6633     6635     6631     6629     6631 
    6627     6629     6636     6635     6632     6633     6635     6632 
    6633     6636     6635     6628     6624     6624     6625     6627 
    6628     6628     6627     6627     6631     6631     6628     6627 
    6627     6631     6635     6639     6637     6632     6627     6627 
    6632     6636     6637     6637     6633     6627     6623     6628 
    6636     6633     6627     6628     6632     6631     6633     6636 
    6631     6623     6625     6631     6636     6637     6628     6620 
    6623     6621     6624     6635     6640     6639     6635     6624 
    6627     6639     6636     6628     6628     6624     6623     6629 
    6629     6628     6635     6635     6627     6628     6633     6631 
    6629     6629     6635     6636     6629     6627     6625     6628 
    6632     6631     6629     6632     6633     6629     6629     6635 
    6635     6631     6631     6628     6625     6629     6632     6631 
    6629     6629     6631     6628     6629     6635     6636     6632 
    6632     6633     6629     6627     6629     6629     6629     6629 
    6629     6628     6621     6623     6633     6636     6631     6631 
    6633     6635     6635     6635     6633     6629     6628     6631 
    6635     6635     6632     6631     6629     6631     6633     6633 
    6629     6627     6625     6624     6624     6628     6631     6633 
    6636     6633     6627     6625     6628     6629     6627     6624 
    6628     6632     6631     6633     6640     6637     6631     6628 
    6625     6625     6629     6635     6635     6631     6629     6629 
    6628     6629     6632     6635     6632     6627     6627     6625 
    6627     6629     6629     6629     6631     6628     6628     6631 
    6635     6639     6633     6625     6627     6631     6632     6632 
    6632     6633     6631     6627     6624     6627     6631     6635 
    6636     6633     6629     6628     6632     6632     6629     6628 
    6628     6627     6621     6625     6633     6633     6628     6627 
    6631     6632     6632     6633     6635     6636     6633     6632 
    6635     6637     6636     6628     6625     6631     6633     6629 
    6631     6632     6629     6629     6631     6631     6633     6632 
    6628     6628     6628     6625     6625     6629     6631     6633 
    6635     6632     6632     6632     6629     6628     6629     6633 
    6635     6632     6629     6629     6631     6629     6629     6631 
    6632     6631     6629     6635     6635     6629     6628     6631 
    6632     6632     6629     6628     6632     6635     6635     6631 
    6624     6624     6625     6624     6625     6629     6635     6636 
    6635     6633     6633     6636     6633     6629     6629     6632 
    6633     6635     6631     6627     6627     6632     6636     6632 
    6625     6624     6629     6635     6635     6629     6627     6627 
    6627     6628     6632     6633     6631     6627     6625     6629 
    6632     6635     6636     6633     6632     6633     6628     6628 
    6635     6635     6628     6631     6632     6629     6631     6633 
    6635     6636     6632     6627     6628     6631     6628     6628 
    6627     6627     6629     6631     6631     6629     6627     6627 
    6632     6635     6633     6635     6636     6633     6633     6632 
    6629     6632     6632     6628     6627     6627     6628     6629 
    6628     6627     6628     6632     6633     6631     6629     6631 
    6632     6632     6632     6633     6633     6631     6631     6632 
    6635     6635     6629     6627     6629     6629     6629     6631 
    6631     6629     6629     6628     6629     6631     6631     6633 
    6633     6632     6631     6627     6628     6639     6639     6629 
    6625     6628     6629     6629     6631     6631     6627     6627 
    6631     6636     6640     6637     6629     6625     6627     6632 
    6631     6631     6632     6627     6628     6633     6629     6625 
    6632     6633     6628     6628     6632     6633     6636     6635 
    6628     6625     6628     6629     6628     6629     6633     6635 
    6629     6625     6627     6625     6631     6636     6629     6625 
    6631     6633     6633     6631     6628     6632     6637     6633 
    6627     6625     6628     6632     6633     6632     6628     6624 
    6625     6631     6632     6632     6632     6625     6620     6625 
    6635     6637     6637     6635     6629     6625     6625     6629 
    6631     6629     6632     6633     6628     6625     6631     6632 
    6628     6627     6629     6632     6635     6632     6629     6632 
    6635     6633     6629     6627     6629     6633     6635     6632 
    6631     6629     6627     6631     6629     6625     6625     6629 
    6633     6636     6632     6629     6631     6628     6628     6635 
    6639     6633     6632     6633     6632     6631     6627     6625 
    6628     6631     6635     6633     6625     6621     6628     6635 
    6633     6631     6631     6631     6631     6627     6627     6629 
    6629     6629     6629     6632     6639     6637     6628     6625 
    6629     6632     6633     6635     6632     6628     6629     6629 
    6627     6627     6631     6633     6629     6625     6628     6632 
    6635     6637     6633     6628     6624     6623     6627     6631 
    6631     6636     6633     6625     6627     6633     6631     6628 
    6629     6627     6625     6631     6636     6635     6632     6629 
    6631     6628     6625     6631     6635     6629     6628     6635 
    6636     6631     6629     6627     6625     6628     6631     6629 
    6628     6631     6636     6636     6633     6627     6623     6628 
    6635     6635     6632     6632     6629     6628     6633     6635 
    6631     6631     6629     6627     6631     6637     6637     6632 
    6620     6596     6561     6554     6594     6594     6505     6494 
    6706     7136     7369     6694     6000     6627     6967     6493 
    6615     5945     5722     7338     7061     6555     7325     6334 
    6212     6751     6277     7076     6866     6304     7156     6392 
    5910     6856     6770     6664     6509     6158     7105     7188 
    6019     6640     7357     6308     6193     7145     6810     5953 
    6353     7087     6735     6381     6786     6760     6428     6454 
    6586     6864     6898     6573     6550     6801     6659     6323 
    6650     6871     6372     6566     7129     6415     6016     6986 
    7029     6390     6516     6627     6732     6775     6261     6340 
    7106     6901     6220     6608     7102     6590     6189     6771 
    7010     6111     6070     7202     6983     6096     6781     7209 
    6257     6458     7252     6565     6192     6683     6613     6708 
    6669     6185     6887     7059     5857     6621     7565     6119 
    6124     7442     6667     6139     6925     6662     6235     6597 
    6822     6741     6428     6605     7150     6712     6115     6455 
    6793     6741     6798     6687     6385     6536     6723     6588 
    6766     6759     6293     6538     7084     6756     6284     6447 
    6723     6705     6589     6704     6841     6551     6367     6606 
    6826     6795     6338     6300     6902     6733     6529     7090 
    6799     6077     6446     6918     6732     6555     6558     6678 
    6690     6293     6323     7067     7111     6423     6432     6835 
    6532     6273     6786     6932     6531     6605     6714     6532 
    6606     6604     6450     6766     7017     6523     6262     6710 
    6779     6589     6627     6427     6691     7015     6296     6434 
    7172     6424     6169     6986     6781     6400     6762     6920 
    6620     6372     6539     6632     6534     6739     6623     6394 
    6898     6859     6172     6656     7254     6423     6188     7038 
    6689     6228     6951     6818     6226     6521     6608     6586 
    6924     6907     6566     6361     6512     6729     6651     6708 
    6767     6426     6339     6736     7011     6772     6372     6474 
    6629     6552     6868     6887     6268     6335     6903     6885 
    6562     6500     6781     6669     6177     6523     6871     6520 
    6702     6959     6712     6664     6598     6455     6521     6621 
    6808     6814     6573     6416     6385     6843     7042     6253 
    6259     6899     6457     6432     7173     6953     6457     6389 
    6405     6708     6866     6642     6551     6608     6704     6754 
    6498     6309     6664     6895     6675     6687     6716     6543 
    6681     6689     6349     6390     6636     6686     6851     6903 
    6473     6297     6859     6955     6222     6319     7106     6782 
    6192     6652     6787     6447     6767     6710     6420     6953 
    6756     6023     6778     7348     6334     6170     7041     6747 
    6122     6651     6991     6419     6489     6920     6635     6524 
    6421     6431     7242     7047     6164     6450     6552     6448 
    6907     6598     6419     6936     6593     6542     6963     6427 
    6444     6876     6551     6589     6528     6396     6939     6732 
    6490     7113     6633     5987     6961     6902     5567     6717 
    7975     5981     5647     7708     6886     5764     7268     7106 
    5556     6342     7345     6839     6669     6640     6416     6569 
    6386     6461     7034     6586     6400     7042     6385     6106 
    7283     7060     6295     6735     6538     6026     6804     7264 
    6600     6520     6667     6142     6482     7196     6570     6251 
    6837     6709     6304     6444     7022     7265     6469     6110 
    6747     6905     6515     6100     6259     7145     7338     7011 
    6845     5975     5528     6451     7250     7152     6439     6365 
    7138     6793     5759     5926     6631     7312     8213     7823 
    5810     4360     4766     7248     9684     8221     4997     4711 
    5950     7310     8375     6791     5194     5908     6305     7200 
    8471     7317     5706     5514     6170     7265     7538     7123 
    6326     5418     6313     7574     6687     5497     5769     6743 
    7851     7929     6361     6038     6868     6027     5952     7450 
    7454     6654     6097     5657     6947     8368     6466     4711 
    6520     7389     6143     6872     8191     6817     5248     6107 
    6651     6235     7549     7913     5732     5394     6994     7318 
    6480     6085     6793     7283     6521     5946     6390     7025 
    7576     7250     5985     6023     6484     5796     6496     7925 
    7192     6112     6378     6632     6515     6675     6613     6266 
    6713     7337     7015     6592     6523     6563     6736     6363 
    6056     6917     7055     5929     6319     7420     6627     6089 
    6731     6018     5589     7283     8036     6994     6762     6862 
    5871     6170     7738     6751     5125     6473     7454     6215 
    6424     7992     7372     5551     5624     6504     6566     6929 
    7269     6696     6509     7018     7040     6396     5602     5680 
    7095     7651     6619     6613     6939     5584     5247     7024 
    7781     7078     6745     6818     6642     6347     6435     6859 
    6805     6409     6704     7013     6636     6597     6592     6129 
    6107     6336     6886     7712     7121     5968     6372     6820 
    6169     6023     6585     7015     7234     7173     6983     6563 
    5791     5705     6718     7398     6937     6494     6824     6978 
    6571     6138     5748     6010     6858     6791     6729     7533 
    7115     6342     6727     6547     6467     6983     6339     6015 
    7223     7677     6359     5132     5752     7226     7514     6966 
    6535     5996     6223     7213     7034     6669     6964     5826 
    5381     7431     7719     6153     6160     6821     6921     6860 
    6741     6698     6465     6286     6817     7010     6332     6366 
    7011     7002     6789     6301     5715     6535     7485     6826 
    6166     6388     6724     6943     6574     5953     6338     7194 
    7080     6563     6620     6509     6247     6569     6855     6831 
    6702     6509     6848     7349     6804     5845     5933     6559 
    6696     6679     6829     6832     6623     6647     6791     6459 
    6307     6709     6872     6968     7072     6610     6137     6363 
    6851     6816     6292     6108     6563     7133     7349     6759 
    5914     6423     7311     6856     6208     6097     6469     6906 
    6430     6575     7268     6339     6006     6995     6585     6126 
    6891     7044     6859     6909     6378     6193     6745     6633 
    6291     6704     7033     6697     6565     7099     7107     6384 
    6389     6600     6157     6374     6971     6747     6565     6589 
    6440     6786     7015     6324     5900     6477     7098     7138 
    7002     6799     6227     6147     6903     6793     6137     6689 
    7057     6308     6500     7327     6921     6509     6696     6099 
    5638     6490     7241     6879     6550     6885     6833     6538 
    6712     6566     6218     6393     6698     7133     7172     6016 
    5533     6802     7655     7310     6686     6305     6353     6442 
    6882     7241     6363     5933     6516     6251     6215     6995 
    6725     6276     6841     7182     6949     6531     6076     6312 
    6986     7061     6840     6795     6690     6524     6489     6559 
    6288     6172     7088     7561     6709     6255     6535     6593 
    6380     6131     6373     6882     6686     6581     7109     7053 
    6713     6623     6266     6381     6882     6779     6741     6705 
    6145     6180     6675     6520     6624     7195     6585     5768 
    6713     7395     6504     6382     6930     6716     6612     6713 
    6855     7230     6675     5771     6139     6805     6912     6964 
    6920     6643     6226     6138     6646     6718     6102     6165 
    6998     7211     6744     6600     6768     6845     6751     6540 
    6569     6593     6230     6289     6998     7206     6624     6185 
    6339     6683     6876     6775     6516     6539     6623     6523 
    6669     6797     6756     6890     6683     6486     6858     6597 
    6089     6651     6963     6345     6180     6455     6521     6820 
    6960     6423     6463     7277     7169     6262     6265     7013 
    6990     6320     6239     6590     6669     6755     6984     6932 
    6474     6042     6184     6602     6590     6442     6793     7157 
    6839     6493     6593     6516     6516     7009     7075     6544 
    6467     6831     6831     6443     6199     6408     6608     6617 
    6856     6876     6647     6674     6520     6405     6675     6519 
    6239     6515     6556     6566     7175     7132     6288     6142 
    6583     6685     6582     6777     7045     6858     6593     6583 
    6459     6444     6725     6856     6783     6696     6666     6685 
    6654     6609     6320     6087     6744     7258     6758     6531 
    6504     6011     6192     7074     7245     6547     6114     6589 
    6956     6610     6562     6754     6415     6276     6829     7168 
    6809     6343     6374     6843     7129     6808     6323     6249 
    6426     6647     6952     6891     6380     6350     6878     6990 
    6631     6297     6087     6394     7134     7280     6916     6698 
    6376     6188     6404     6493     6666     6882     6489     6305 
    6781     6817     6612     6752     6582     6266     6493     6975 
    7142     6748     6405     6517     6443     6431     6679     6440 
    6442     7146     7187     6642     6592     6574     6327     6388 
