Origin Time       2025/02/01 08:16:00
Lat.              33.667
Long.             130.927
Depth. (km)       8
Mag.              3.1
Station Code      OIT002
Station Lat.      33.5691
Station Long.     131.2675
Station Height(m) 8
Record Time       2025/02/01 08:17:06
Sampling Freq(Hz) 100Hz
Duration Time(s)  60
Dir.              E-W
Scale Factor      7845(gal)/8223790
Max. Acc. (gal)   1.904
Last Correction   2025/02/01 08:17:06
Memo.             
[...]
    9171     9166     9155     9158     9163     9159     9159     9161 
    9157     9159     9158     9155     9162     9167     9165     9158 
    9151     9155     9166     9166     9158     9163     9169     9162 
    9157     9157     9158     9161     9163     9161     9157     9162 
    9170     9163     9158     9163     9167     9170     9165     9155 
    9157     9158     9161     9163     9158     9155     9161     9158 
    9157     9163     9163     9159     9162     9162     9159     9163 
    9165     9158     9151     9157     9166     9170     9170     9163 
    9154     9161     9169     9158     9155     9166     9165     9158 
    9157     9155     9155     9158     9161     9158     9161     9167 
    9165     9159     9158     9163     9174     9170     9153     9154 
    9166     9162     9158     9163     9159     9151     9159     9169 
    9161     9153     9161     9159     9151     9162     9171     9167 
    9162     9157     9158     9163     9165     9163     9161     9161 
    9165     9163     9159     9157     9161     9169     9163     9158 
    9161     9155     9153     9161     9163     9162     9161     9157 
    9158     9162     9165     9169     9166     9159     9161     9165 
    9166     9167     9163     9157     9155     9157     9159     9161 
    9161     9165     9166     9159     9155     9162     9163     9159 
    9163     9165     9159     9161     9161     9163     9165     9161 
    9161     9165     9162     9159     9161     9163     9162     9158 
    9159     9166     9173     9166     9159     9162     9165     9159 
    9158     9163     9163     9161     9158     9155     9159     9165 
    9158     9159     9158     9155     9171     9167     9151     9161 
    9158     9151     9165     9163     9158     9167     9162     9158 
    9162     9162     9165     9166     9158     9159     9162     9159 
    9157     9157     9157     9161     9167     9166     9159     9158 
    9163     9159     9154     9162     9173     9170     9162     9155 
    9158     9163     9167     9165     9158     9158     9162     9158 
    9155     9158     9163     9167     9167     9163     9155     9151 
    9158     9170     9167     9163     9165     9157     9153     9159 
    9163     9166     9163     9155     9155     9159     9162     9163 
    9159     9162     9166     9165     9165     9161     9154     9157 
    9158     9153     9157     9163     9163     9163     9165     9158 
    9154     9165     9174     9166     9157     9163     9166     9155 
    9153     9162     9161     9153     9158     9163     9159     9163 
    9170     9165     9158     9162     9165     9161     9154     9154 
    9161     9162     9157     9157     9155     9157     9162     9155 
    9158     9171     9166     9159     9163     9159     9157     9162 
    9161     9159     9161     9161     9163     9162     9158     9161 
    9163     9162     9165     9166     9163     9158     9157     9157 
    9153     9157     9169     9166     9151     9157     9167     9155 
    9153     9170     9169     9159     9163     9157     9157     9169 
    9163     9161     9169     9158     9159     9170     9162     9161 
    9159     9151     9155     9155     9157     9165     9162     9161 
    9158     9153     9158     9162     9158     9159     9163     9166 
    9162     9157     9158     9163     9165     9163     9159     9159 
    9163     9163     9163     9162     9157     9158     9165     9165 
    9157     9158     9166     9161     9154     9161     9162     9158 
    9166     9166     9154     9158     9167     9163     9163     9169 
    9162     9157     9153     9153     9158     9162     9169     9171 
    9161     9163     9170     9158     9153     9157     9158     9161 
    9162     9162     9162     9159     9158     9159     9166     9158 
    9153     9167     9162     9151     9167     9165     9151     9157 
    9157     9165     9177     9162     9151     9157     9159     9162 
    9162     9157     9159     9159     9157     9159     9162     9163 
    9167     9166     9161     9162     9159     9159     9167     9161 
    9153     9161     9162     9154     9155     9166     9166     9157 
    9154     9161     9163     9163     9161     9158     9162     9165 
    9161     9161     9163     9163     9163     9165     9161     9157 
    9161     9163     9161     9159     9159     9155     9153     9158 
    9162     9157     9157     9166     9163     9158     9163     9166 
    9161     9158     9162     9163     9162     9163     9162     9159 
    9162     9166     9161     9155     9155     9159     9161     9157 
    9155     9159     9163     9162     9161     9161     9159     9158 
    9162     9158     9161     9170     9163     9155     9161     9162 
    9161     9159     9158     9161     9163     9162     9163     9165 
    9163     9165     9167     9159     9153     9153     9158     9166 
    9161     9151     9161     9166     9157     9159     9169     9165 
    9159     9161     9162     9157     9159     9167     9162     9155 
    9159     9161     9161     9163     9163     9163     9166     9163 
    9161     9162     9161     9162     9159     9150     9154     9167 
    9167     9159     9162     9169     9167     9161     9162     9163 
    9157     9154     9158     9155     9151     9159     9167     9162 
    9161     9165     9167     9163     9158     9162     9167     9158 
    9155     9157     9154     9162     9166     9155     9158     9165 
    9165     9166     9163     9158     9161     9163     9161     9157 
    9155     9159     9162     9161     9162     9165     9166     9162 
    9155     9155     9161     9162     9158     9157     9159     9162 
    9166     9165     9159     9163     9170     9166     9162     9165 
    9162     9157     9162     9158     9150     9157     9162     9154 
    9155     9161     9159     9161     9167     9165     9158     9161 
    9165     9157     9153     9165     9167     9158     9161     9166 
    9159     9161     9162     9155     9161     9167     9162     9154 
    9153     9162     9170     9166     9157     9157     9163     9163 
    9158     9155     9157     9162     9165     9163     9161     9159 
    9162     9157     9157     9162     9163     9161     9154     9148 
    9155     9163     9166     9166     9161     9159     9170     9171 
    9161     9155     9153     9158     9165     9162     9158     9163 
    9165     9157     9158     9161     9158     9162     9163     9154 
    9154     9166     9169     9162     9155     9158     9162     9159 
    9158     9167     9167     9158     9159     9159     9157     9165 
    9170     9167     9162     9161     9162     9161     9158     9163 
    9163     9161     9158     9157     9159     9166     9167     9161 
    9157     9155     9158     9165     9165     9155     9155     9161 
    9155     9153     9159     9163     9163     9163     9158     9161 
    9169     9165     9157     9162     9162     9158     9163     9163 
    9153     9157     9169     9163     9155     9159     9165     9169 
    9162     9151     9158     9166     9158     9153     9157     9159 
    9161     9159     9159     9162     9162     9162     9163     9163 
    9161     9159     9162     9162     9157     9162     9169     9163 
    9157     9154     9158     9169     9166     9158     9162     9166 
    9162     9161     9159     9155     9157     9158     9155     9154 
    9161     9166     9165     9161     9162     9165     9165     9161 
    9153     9155     9169     9169     9161     9161     9158     9154 
    9165     9162     9153     9161     9169     9163     9163     9166 
    9161     9159     9161     9159     9159     9161     9162     9162 
    9165     9165     9159     9157     9157     9155     9162     9165 
    9163     9166     9161     9154     9162     9162     9157     9166 
    9173     9166     9158     9153     9158     9169     9167     9161 
    9159     9158     9159     9163     9162     9158     9159     9161 
    9159     9158     9157     9159     9161     9161     9162     9166 
    9166     9163     9161     9158     9155     9159     9162     9158 
    9162     9167     9163     9161     9159     9162     9163     9159 
    9157     9161     9162     9158     9157     9162     9162     9161 
    9163     9161     9155     9159     9163     9161     9158     9157 
    9159     9163     9165     9162     9159     9163     9166     9161 
    9159     9166     9163     9161     9163     9158     9158     9165 
    9159     9151     9155     9159     9162     9165     9166     9159 
    9155     9158     9162     9162     9162     9169     9173     9162 
    9153     9161     9167     9161     9157     9161     9158     9158 
    9163     9165     9154     9153     9165     9166     9157     9159 
    9162     9159     9159     9161     9162     9162     9159     9158 
    9159     9165     9165     9159     9158     9161     9162     9165 
    9162     9158     9157     9159     9158     9157     9163     9167 
    9162     9161     9162     9159     9162     9165     9155     9151 
    9162     9169     9165     9163     9163     9161     9162     9161 
    9161     9163     9161     9158     9158     9155     9157     9165 
    9166     9155     9153     9155     9153     9159     9157     9131 
    9142     9202     9278     9274     9088     9019     9254     9196 
    8992     9189     9094     9032     9390     9111     9080     9510 
    9177     8992     9050     9073     9202     9078     9251     9100 
    8930     9286     9178     9529     9485     8827     9289     9344 
    9065     9099     8908     9173     9059     8991     9417     9076 
    9005     9315     9243     9279     9261     9248     9124     8992 
    9107     9031     9165     9138     8796     9150     9435     9246 
    9259     9228     9127     9244     9472     9351     8911     8939 
    9120     8993     9200     9339     9100     9108     9076     8962 
    9204     9450     9202     8884     9065     9205     9178     9278 
    9208     9113     8996     9070     9506     9352     8985     9228 
    9265     9049     9282     9397     8972     8841     9077     9072 
    9147     9281     9159     9215     9217     9026     9348     9535 
    9008     9011     9421     9019     8792     9277     9027     8770 
    9490     9486     9000     9333     9321     9049     9317     9136 
    8908     9274     9084     8815     9197     9197     9049     9213 
    9221     9348     9441     9121     8977     9099     8922     8822 
    9360     9585     9186     9136     9204     9212     9319     9181 
    9150     9182     8985     8973     9057     9057     9173     9286 
    9294     9283     9166     9019     9023     9080     9215     9263 
    9155     9215     9167     9101     9432     9409     8954     8930 
    9090     9009     9058     9232     9153     9132     9393     9396 
    9165     9086     9009     9066     9379     9351     9000     9018 
    9207     9178     9148     9103     9084     9189     8978     8784 
    9297     9672     9278     9018     9263     9273     8964     9015 
    9169     9121     9247     9224     9148     9396     9211     8912 
    9162     9180     9080     9198     9139     9208     9185     8985 
    9248     9286     9045     9235     9148     8991     9298     9235 
    9057     9283     9165     8866     9180     9371     9062     9174 
    9312     9128     9270     9221     8999     9158     9100     9007 
    9281     9340     9159     9103     9127     8995     8941     9236 
    9246     9078     9360     9418     9105     9148     9269     9140 
    9111     9085     9022     9101     9171     9340     9352     9042 
    9082     9184     9065     9154     9062     8977     9215     9175 
    9167     9390     9269     9132     9223     9201     9085     8946 
    8996     9232     9223     9170     9258     9223     9154     9115 
    9177     9296     9107     9032     9189     9035     9144     9447 
    9116     8984     9289     9189     9204     9408     9043     8849 
    9138     9000     9022     9525     9288     8858     9262     9460 
    9066     9026     9289     9193     9059     9240     9166     9026 
    9236     9144     8934     9205     9294     9013     9201     9508 
    9105     8770     9142     9379     9225     9209     9082     8947 
    9244     9181     8899     9162     9301     9293     9381     9147 
    9007     9144     9146     9140     9298     9301     9143     9200 
    9153     8955     9047     9031     8996     9373     9417     9032 
    9112     9238     9005     9138     9255     9244     9409     9038 
    9117     9594     8726     8568     9687     9256     8712     9578 
    9423     8719     9364     9425     8695     9270     9483     8714 
    9047     9378     9082     9347     9190     8846     9219     9150 
    9131     9633     9285     8899     9300     9136     8781     9263 
    9223     8644     9240     9640     9005     9247     9398     8737 
    9108     9543     9053     9011     9279     9316     9366     9158 
    8785     8873     9254     9123     8872     9254     9443     9212 
    9244     9070     8831     9076     9173     9256     9398     9022 
    8965     9219     9016     9437    10455    10336     9053     7955 
    8079     9657    10886     9755     8094     8067     8560     9000 
    9112     8437     8576     9274     9250     9913    10073     8201 
    8154    10616    11153     9578     7962     7165     8892    10893 
    9706     8750     9456     8607     8148     9153     8958     9202 
   10297    10169     9591     8640     8318     9356     9070     8102 
    8459     9120     9435     9663     9972     9828     9130     8928 
    9494     9805     8781     7786     8437     9595    10219     9764 
    8680     8460     8568     8792     9343     9019     8764     9628 
    9991     9490     9263     9076     8664     8694     8807     9239 
   10528    10372     8599     8503     9292     8506     8299     9647 
    9755     9072     9512     9354     8124     8618    10330     9960 
    8808     9123     9026     8519     8922     9221     9606     9865 
    9286     9552     9900     8409     7614     8829     9263     8811 
    9402     9622     8874     9250     9668     8758     8608     9578 
    9796     9169     9070     9529     9458     9232     9140     8356 
    7835     8888    10158    10134     9559     9213     8910     8995 
    9196     8642     8536     9601     9795     8746     8484     9154 
    9564     9639     9329     8838     9177     9834     9617     8999 
    8519     8148     8272     8712     9030     9607     9922     9120 
    8992    10324    10386     9300     9261     9190     8689     8824 
    8888     8534     8469     9012     9659     9707     9463     9332 
    8858     7978     8179     9848    10520     9806     9522     9022 
    8240     8554     8884     8989    10042    10219     8965     8888 
    9441     9069     8910     8927     8768     9271     9613     9328 
    9267     9138     8838     8567     8513     9325     9671     8714 
    8675     9759     9799     9057     9329     9958     9587     9327 
    9451     8835     8367     8702     8772     8537     8922     9539 
    9201     8613     9012     9622     9734     9535     9225     9259 
    9363     8972     8471     8714     9563     9822     9683     9676 
    8946     8102     8434     9213     9474     9162     8851     9386 
   10071     9652     9130     9256     8916     8495     9055     9695 
    9248     8330     8722     9807     9320     8576     9151     9292 
    9039     9613     9653     8792     8869     9562     9269     8995 
    9374     9104     8730     9072     9189     8974     9032     9223 
    9348     9329     9027     8955     9440     9433     8746     8733 
    9528     9887     9529     9335     9383     9088     8640     8429 
    8478     8748     9188     9499     9510     9640     9830     9555 
    8973     8749     9273     9805     9363     8600     8695     9103 
    8924     9007     9408     8978     8722     9371     9605     9267 
    8791     8573     9274     9682     9197     9271     9331     8679 
    8819     9359     9115     9103     9522     9274     8668     8641 
    9117     9570     9720     9396     8830     8953     9697     9562 
    8789     8965     9451     9082     8780     9259     9556     9142 
    8920     9327     9423     9142     9263     9239     9040     9262 
    9126     8915     9194     8920     8698     9356     9317     8658 
    9101     9564     9066     9166     9452     8830     8857     9771 
    9977     9510     8972     8467     8353     8758     9285     9332 
    8961     9171     9747     9498     9005     9004     8827     8876 
    9776    10053     9184     8819     9086     9188     9344     9281 
    9105     9342     9073     8592     9104     9324     8707     8865 
    9340     8924     8664     9046     9259     9475     9614     9192 
    9051     9454     9400     9035     9208     9490     9304     9336 
    9590     9240     8937     9155     8951     8603     8945     9161 
    8964     9270     9498     8791     8311     9061    10022     9882 
    9290     9418     9234     8425     8775     9428     8945     8982 
    9491     9090     9049     9369     8796     8613     9166     9070 
    8723     8976     9678    10069     9463     8862     9244     9626 
    9452     9331     9167     8895     9101     9459     9482     9320 
    8796     8442     8891     9166     9043     9289     9169     8356 
    8357     9358     9946     9769     9240     8961     9382     9644 
    9285     9117     9196     8949     8565     8633     8927     9072 
    9440     9620     9140     9045     9393     9205     8988     9262 
    9298     8877     8784     9337     9772     9513     9050     9111 
    9441     9378     9204     9231     9216     9082     8733     8459 
    8746     9229     9397     9274     9061     8907     9028     9564 
    9761     9124     8811     9223     9429     9471     9377     8791 
    8648     9490     9882     9244     8849     8951     9066     9219 
    9066     8699     8672     8883     9115     9254     9225     9197 
    9383     9713     9601     8904     8571     8920     9031     9022 
    9526     9697     9296     9223     9390     9454     9215     8789 
    9138     9612     8949     8523     9024     9039     8810     9018 
    8958     8969     9686    10115     9725     9247     8845     8583 
    8919     9316     9159     8999     9042     9043     9244     9450 
    9180     8974     9221     9158     8839     9117     9454     9279 
    9327     9558     9323     8954     8904     9078     9209     9094 
    9019     9232     9256     9090     9234     9304     9136     9146 
    9055     8950     9201     9244     9225     9549     9310     8800 
    9074     9293     9150     9324     9104     8565     8946     9393 
    9113     9259     9397     8800     8823     9329     9240     9377 
    9644     9112     8835     9273     9243     8968     9228     9418 
    9207     9055     9108     9308     9425     9185     8885     8947 
    9151     9100     9100     9267     9035     8750     9031     9265 
    9198     9382     9420     9019     9108     9445     8997     8653 
