Origin Time       2025/02/01 08:16:00
Lat.              33.667
Long.             130.927
Depth. (km)       8
Mag.              3.1
Station Code      OIT002
Station Lat.      33.5691
Station Long.     131.2675
Station Height(m) 8
Record Time       2025/02/01 08:17:06
Sampling Freq(Hz) 100Hz
Duration Time(s)  60
Dir.              N-S
Scale Factor      7845(gal)/8223790
Max. Acc. (gal)   3.317
Last Correction   2025/02/01 08:17:06
Memo.             
[...]
    2251     2258     2269     2262     2259     2268     2262     2254 
    2265     2272     2257     2251     2265     2261     2245     2254 
    2272     2268     2257     2262     2258     2251     2257     2257 
    2258     2266     2265     2257     2257     2258     2261     2265 
    2266     2263     2257     2253     2255     2258     2262     2263 
    2259     2255     2258     2263     2263     2261     2255     2247 
    2257     2269     2263     2259     2261     2258     2259     2262 
    2262     2266     2268     2265     2255     2250     2258     2259 
    2250     2254     2261     2266     2270     2261     2250     2258 
    2265     2259     2263     2265     2253     2255     2272     2270 
    2257     2251     2250     2251     2254     2255     2258     2263 
    2266     2259     2257     2263     2265     2262     2259     2258 
    2261     2258     2259     2270     2269     2258     2257     2255 
    2251     2262     2269     2265     2262     2259     2255     2259 
    2261     2257     2262     2269     2263     2258     2259     2262 
    2262     2255     2257     2262     2258     2258     2263     2261 
    2255     2259     2261     2257     2259     2265     2261     2261 
    2259     2253     2253     2265     2269     2259     2259     2259 
    2247     2250     2261     2259     2259     2258     2258     2262 
    2262     2263     2263     2253     2254     2268     2262     2257 
    2259     2257     2265     2270     2250     2247     2261     2259 
    2258     2265     2261     2259     2261     2250     2254     2265 
    2263     2261     2261     2259     2262     2268     2265     2255 
    2254     2259     2257     2253     2262     2268     2257     2255 
    2265     2259     2253     2261     2263     2257     2255     2265 
    2268     2259     2258     2262     2258     2254     2254     2258 
    2255     2261     2276     2263     2249     2262     2266     2253 
    2263     2269     2257     2261     2266     2258     2261     2265 
    2259     2255     2257     2259     2259     2259     2259     2262 
    2259     2258     2263     2262     2254     2258     2268     2265 
    2255     2254     2263     2269     2262     2257     2259     2258 
    2253     2258     2262     2255     2255     2266     2266     2257 
    2258     2266     2261     2251     2255     2262     2262     2263 
    2263     2259     2258     2258     2258     2257     2255     2258 
    2261     2259     2257     2262     2268     2263     2262     2259 
    2250     2251     2263     2268     2262     2259     2261     2255 
    2251     2258     2266     2262     2255     2255     2258     2263 
    2265     2255     2243     2249     2263     2262     2258     2262 
    2263     2265     2266     2262     2254     2257     2265     2259 
    2255     2263     2259     2247     2253     2259     2262     2265 
    2269     2263     2251     2257     2265     2257     2257     2270 
    2268     2257     2250     2254     2265     2262     2255     2263 
    2268     2255     2261     2269     2253     2255     2274     2261 
    2249     2262     2265     2263     2272     2268     2258     2255 
    2262     2268     2251     2246     2258     2258     2257     2263 
    2259     2254     2261     2263     2257     2262     2263     2257 
    2261     2263     2255     2258     2258     2251     2259     2272 
    2269     2265     2266     2259     2251     2249     2253     2263 
    2258     2253     2268     2268     2253     2261     2269     2258 
    2255     2263     2265     2263     2269     2265     2250     2249 
    2261     2259     2247     2250     2263     2268     2263     2261 
    2262     2259     2258     2266     2266     2251     2255     2266 
    2258     2257     2268     2263     2254     2251     2259     2272 
    2262     2257     2268     2254     2242     2262     2268     2254 
    2255     2259     2254     2249     2259     2276     2269     2257 
    2259     2259     2255     2261     2269     2263     2257     2265 
    2258     2239     2249     2269     2269     2263     2259     2250 
    2258     2269     2259     2259     2272     2254     2239     2259 
    2273     2266     2257     2255     2262     2259     2259     2273 
    2269     2255     2255     2255     2259     2270     2268     2265 
    2266     2257     2247     2250     2261     2266     2261     2253 
    2251     2257     2261     2265     2272     2269     2255     2255 
    2263     2259     2258     2266     2266     2261     2263     2263 
    2257     2255     2261     2265     2258     2253     2263     2269 
    2262     2259     2259     2258     2254     2250     2254     2261 
    2261     2257     2262     2268     2261     2265     2263     2255 
    2263     2263     2251     2258     2265     2262     2258     2253 
    2257     2259     2254     2262     2268     2262     2258     2259 
    2259     2262     2261     2258     2263     2258     2247     2255 
    2261     2254     2262     2269     2259     2254     2255     2262 
    2266     2259     2261     2263     2254     2253     2259     2261 
    2262     2261     2261     2263     2258     2257     2262     2262 
    2266     2265     2257     2255     2262     2263     2257     2253 
    2255     2257     2259     2268     2268     2258     2254     2262 
    2262     2253     2262     2274     2259     2249     2262     2263 
    2254     2263     2272     2262     2259     2263     2258     2254 
    2259     2265     2265     2261     2254     2253     2259     2268 
    2265     2258     2255     2259     2263     2258     2259     2266 
    2266     2263     2258     2251     2258     2263     2266     2266 
    2257     2251     2257     2259     2259     2265     2262     2254 
    2257     2262     2261     2266     2262     2255     2262     2265 
    2258     2259     2262     2261     2263     2265     2257     2254 
    2257     2262     2270     2262     2253     2261     2261     2251 
    2263     2274     2261     2258     2263     2258     2254     2259 
    2262     2259     2255     2261     2266     2262     2262     2263 
    2255     2255     2263     2261     2259     2263     2259     2259 
    2262     2257     2259     2263     2258     2261     2259     2254 
    2259     2268     2270     2266     2261     2261     2250     2246 
    2265     2273     2259     2254     2259     2259     2261     2265 
    2265     2261     2259     2258     2255     2255     2263     2268 
    2263     2262     2261     2251     2251     2263     2266     2265 
    2269     2261     2250     2253     2259     2262     2261     2257 
    2258     2259     2258     2261     2258     2253     2259     2266 
    2259     2255     2258     2262     2268     2261     2249     2254 
    2265     2269     2273     2263     2251     2258     2263     2253 
    2254     2266     2261     2251     2253     2258     2255     2253 
    2261     2268     2262     2262     2265     2253     2255     2270 
    2265     2258     2257     2251     2258     2270     2263     2255 
    2253     2254     2266     2270     2258     2253     2262     2261 
    2250     2249     2261     2270     2265     2255     2255     2269 
    2272     2261     2265     2272     2262     2259     2259     2251 
    2261     2272     2255     2251     2261     2251     2250     2265 
    2258     2253     2263     2268     2262     2257     2258     2266 
    2262     2250     2257     2263     2257     2263     2272     2259 
    2254     2259     2258     2255     2261     2265     2263     2261 
    2262     2261     2259     2262     2261     2254     2253     2258 
    2265     2265     2257     2258     2263     2261     2255     2255 
    2263     2268     2263     2261     2258     2257     2268     2270 
    2255     2259     2266     2254     2253     2261     2263     2270 
    2261     2246     2257     2266     2258     2263     2270     2258 
    2257     2262     2262     2263     2266     2263     2259     2255 
    2251     2251     2257     2261     2263     2265     2257     2253 
    2268     2266     2254     2265     2265     2249     2255     2265 
    2265     2270     2268     2255     2254     2253     2253     2263 
    2268     2263     2262     2253     2246     2257     2266     2261 
    2257     2258     2257     2258     2263     2265     2265     2265 
    2259     2255     2257     2258     2266     2272     2265     2255 
    2250     2254     2262     2263     2262     2263     2263     2254 
    2253     2259     2261     2265     2265     2250     2249     2259 
    2262     2265     2265     2259     2259     2262     2259     2255 
    2257     2266     2269     2255     2243     2255     2270     2259 
    2255     2265     2266     2258     2251     2258     2269     2263 
    2259     2266     2259     2254     2268     2270     2253     2249 
    2262     2263     2262     2265     2263     2258     2257     2255 
    2255     2255     2257     2263     2265     2259     2261     2262 
    2259     2258     2261     2262     2257     2258     2262     2258 
    2261     2268     2266     2255     2249     2261     2270     2262 
    2258     2258     2253     2251     2263     2272     2262     2255 
    2259     2257     2254     2265     2272     2262     2257     2263 
    2263     2253     2253     2266     2269     2257     2255     2261 
    2254     2255     2268     2262     2253     2258     2265     2263 
    2259     2265     2272     2268     2258     2253     2257     2269 
    2268     2245     2232     2241     2238     2273     2331     2300 
    2320     2296     2083     2230     2374     2162     2355     2104 
    1903     2728     2451     2204     2520     1713     2239     2724 
    1966     2427     2052     1841     2681     2164     2293     2444 
    1954     2575     2362     2022     2610     2362     1925     1906 
    2258     2546     2154     2164     2462     2369     2166     1988 
    2355     2689     2258     2092     2311     2205     2046     2145 
    2428     2494     2218     2181     2227     2141     2295     2296 
    2133     2421     2517     1979     2103     2594     2250     2232 
    2344     1917     2211     2457     2193     2359     2228     2031 
    2416     2600     2396     2119     2031     2168     2161     2289 
    2543     2361     2174     2177     2027     2061     2351     2543 
    2324     2041     2408     2539     2019     2146     2346     2064 
    2363     2413     2054     2498     2540     1926     2106     2465 
    2273     2066     2060     2282     2488     2290     2164     2241 
    2155     2389     2695     2342     1887     1983     2420     2439 
    2120     2307     2424     1960     1941     2577     2783     2211 
    1900     2270     2262     1944     2324     2693     2188     1895 
    2320     2479     2330     2351     2281     2042     2084     2377 
    2323     2187     2340     2278     2162     2242     2263     2447 
    2467     2115     2096     2130     1915     2218     2695     2539 
    2286     2344     2296     2119     2074     2143     2226     2246 
    2286     2313     2192     2203     2331     2327     2400     2457 
    2251     2008     2088     2420     2435     2139     2074     2295 
    2340     2168     2413     2488     1872     1998     2524     2263 
    2218     2498     2435     2169     1917     2232     2531     2154 
    2114     2452     2589     2386     1846     1923     2448     2281 
    2033     2315     2546     2390     2218     2303     2211     2123 
    2242     2080     2319     2713     2197     1958     2339     2361 
    2250     2138     2072     2187     2339     2527     2431     2224 
    2165     1992     2193     2527     2363     2239     2197     2268 
    2386     2049     2002     2361     2389     2424     2323     2022 
    2222     2416     2301     2344     2180     2064     2320     2295 
    2222     2250     2172     2374     2388     2161     2311     2303 
    2115     2154     2239     2400     2300     2150     2446     2269 
    1948     2536     2617     1892     2047     2506     2319     2188 
    2285     2358     2226     1993     2145     2373     2280     2141 
    2246     2550     2544     2226     2093     2106     2147     2236 
    2305     2377     2330     2182     2235     2281     2088     2188 
    2515     2380     2126     2218     2335     2278     2246     2323 
    2212     2228     2535     2212     1896     2334     2282     2053 
    2434     2394     2056     2200     2457     2501     2220     1993 
    2222     2350     2207     2029     2255     2810     2323     1823 
    2590     2489     1769     2045     2258     2358     2401     2056 
    2335     2619     2273     2367     2339     1941     2180     2268 
    2154     2486     2192     1906     2458     2497     2212     2263 
    2214     2139     2222     2381     2266     2139     2332     2243 
    2250     2369     2107     2288     2390     2061     2400     2511 
    2002     2208     2492     1961     1946     2695     2577     2160 
    2388     1985     1717     2593     2706     2045     2019     2359 
    2454     2085     2100     2546     2262     1975     2343     2655 
    2359     1783     2228     2485     1262     1185     2346     2803 
    3117     2872     2104     1937     1718     1520     2031     3115 
    3877     3229     2590     2681     1756      784     1209     2516 
    4299     4500     2251     -170    -1217      488     3973     5456 
    4460     2184      -95     -148     1664     3643     4137     1915 
    -153     1371     4660     4707     1536      596     1424     1359 
    3040     4534     2997     1868     1255      707     2466     3627 
    2097      733     1250     3168     4174     3079     1219      206 
    1337     3269     3970     3303     1687     1344     2830     2830 
    1331     2011     3512     1917      612     2596     3493     2207 
    1736     1857     1710     2502     3550     3018     2311     1760 
     805     2149     4198     2866     1297     2343     2119      319 
    1755     3792     2091     1651     3568     2559     1027     2208 
    2512     1424     1922     2875     2810     3138     3312     1981 
     530      390     1903     4128     4145     2365     2199     2258 
     967     1333     3090     3140     1904     1714     2820     2766 
    1590     1857     2501     2430     2880     2911     1895     1390 
    1730     2151     2380     1881     1173     2155     3564     3495 
    2856     1437      827     2712     3387     2026     1541     1750 
    2182     2782     2898     2941     2948     2427     1551     1131 
    2100     2970     1896     1264     2729     3300     2081     1705 
    2057     1722     2072     3488     3673     2423     1813     1605 
     999     1837     3616     3312     1676      880     1563     3200 
    3423     2114     1549     1906     2662     3133     2335     1383 
    1699     2154     1752     1926     2899     2924     2174     2116 
    2714     2623     1478      972     2041     3122     2802     2335 
    3125     3138     1514     1213     2220     2312     2243     2793 
    3179     2836     2016     1813     2350     2600     2404     1813 
     795     1009     2884     3406     2137     1930     2469     2150 
    1625     1869     2875     3011     2070     2263     2891     2295 
    1845     2200     2388     2181     1902     2106     2741     2840 
    2212     1649     1706     2548     3314     2469     1422     2123 
    2571     1973     1846     2038     2274     2347     2170     2542 
    2995     2663     2068     1906     2455     2894     1918     1219 
    2467     3005     2003     1783     2147     2322     2290     1807 
    1768     2284     2430     2596     3063     3001     2216     1744 
    1786     1782     2308     2663     2012     2316     3199     2563 
    1841     1991     1908     1837     2203     2543     2604     2570 
    2466     2065     1713     1684     1752     1960     2219     2477 
    2934     3283     3011     2164     1405     1494     2381     2867 
    2327     2010     2430     2565     2290     2070     2026     2115 
    2045     2149     2443     2020     1763     2439     2650     2575 
    2606     2026     2084     2681     2180     1699     2168     2722 
    2702     2181     1887     1837     1956     2628     3137     2968 
    2411     1668     1553     2073     2258     2263     2403     2465 
    2485     2539     2338     1791     1568     1776     2107     2594 
    2731     2479     2417     2409     2084     1568     1857     2837 
    2759     2381     2860     2336     1366     2230     3175     2466 
    1903     2421     2484     1730     1471     1715     1788     1787 
    1898     2371     2863     2623     2624     3523     3302     1621 
    1194     2300     2659     2119     1887     1944     2311     2577 
    1802     1374     2400     3137     2639     2253     2798     2637 
    1418     1539     2378     2331     2907     3601     2664     1426 
    1394     2014     2029     1991     2749     2587     1717     2200 
    2748     2018     1281     1645     2667     2866     2355     2686 
    3234     2505     1522     1642     2110     2034     1841     2361 
    2971     2378     1779     2494     2972     2389     2120     2431 
    2215     1910     2462     2878     2444     1992     1935     1876 
    1668     1923     2579     2543     2108     2207     2259     1842 
    1792     2551     2964     2455     2416     2677     2107     1699 
    1822     2020     2581     2835     2585     2624     2573     2120 
    1877     1992     2042     2087     2501     2663     2122     2007 
    2633     2635     2019     2023     2174     1806     1838     2359 
    2443     2146     1988     1946     2050     2613     3038     2560 
    1976     2161     2620     2601     2238     2123     2165     2095 
    2200     2520     2714     2670     2332     1796     1683     2053 
    2049     1858     2270     2454     2016     2088     2249     1934 
    2313     3207     3176     2182     1541     1939     2334     2205 
    2269     2511     2733     2756     2220     1819     1903     1850 
    1971     2374     2263     2064     2508     2729     2369     2246 
    2014     1729     2477     3370     2911     1722     1456     2062 
    2290     2369     2520     2246     1988     2160     2559     2737 
    2455     2088     1980     2173     2196     1927     2178     2532 
    2131     1973     2451     2404     1921     2138     2812     2744 
    2031     1790     2489     3226     2623     1398     1460     2401 
    2605     1999     1818     2334     2286     1741     2061     2945 
    3022     2315     2101     2324     2174     2197     2419     2274 
    2081     2193     2695     2641     1510     1251     2326     2855 
    2574     2097     1844     2224     2477     2228     2296     2384 
    1999     2143     2813     2619     2014     2177     2467     2494 
    2749     2689     2000     1737     2047     1971     1802     2178 
    2417     2315     2408     2317     2012     2162     2296     2033 
    2008     2215     2555     2830     2301     1961     2646     2504 
    1544     1884     2781     2774     2538     2479     2223     1822 
