Origin Time       2025/01/26 08:11:00
Lat.              34.975
Long.             138.213
Depth. (km)       21
Mag.              3.4
Station Code      SZO026
Station Lat.      34.9812
Station Long.     137.8964
Station Height(m) 133
Record Time       2025/01/26 08:11:35
Sampling Freq(Hz) 100Hz
Duration Time(s)  60
Dir.              E-W
Scale Factor      7845(gal)/8223790
Max. Acc. (gal)   1.929
Last Correction   2025/01/26 08:11:34
Memo.             
[...]
    4787     4788     4788     4781     4780     4785     4788     4789 
    4787     4785     4787     4784     4784     4785     4785     4789 
    4787     4781     4784     4783     4781     4788     4788     4785 
    4788     4785     4783     4785     4785     4784     4788     4791 
    4788     4783     4783     4785     4783     4784     4791     4788 
    4780     4784     4789     4785     4783     4789     4792     4785 
    4784     4789     4788     4781     4781     4787     4785     4785 
    4788     4785     4784     4785     4785     4785     4785     4787 
    4789     4787     4783     4784     4784     4783     4784     4785 
    4785     4787     4784     4781     4785     4788     4785     4785 
    4788     4785     4781     4787     4787     4785     4787     4785 
    4785     4785     4785     4787     4785     4787     4792     4787 
    4783     4784     4783     4785     4789     4788     4787     4785 
    4785     4787     4785     4785     4787     4787     4788     4785 
    4783     4787     4788     4787     4788     4787     4785     4787 
    4787     4787     4784     4780     4787     4789     4784     4785 
    4788     4781     4785     4789     4784     4784     4789     4788 
    4783     4785     4791     4785     4781     4789     4792     4783 
    4784     4791     4787     4783     4787     4787     4780     4781 
    4791     4788     4779     4785     4789     4783     4785     4788 
    4784     4784     4785     4788     4789     4785     4784     4788 
    4785     4785     4788     4787     4788     4787     4784     4787 
    4785     4784     4788     4788     4785     4784     4788     4789 
    4784     4784     4787     4783     4784     4788     4787     4785 
    4787     4785     4783     4783     4787     4787     4785     4787 
    4788     4787     4787     4787     4784     4783     4788     4789 
    4784     4785     4789     4787     4784     4788     4791     4785 
    4783     4788     4787     4783     4787     4789     4785     4784 
    4785     4784     4784     4785     4787     4784     4784     4788 
    4787     4784     4785     4787     4787     4788     4788     4785 
    4784     4784     4784     4784     4787     4788     4787     4788 
    4787     4781     4783     4789     4787     4784     4788     4789 
    4784     4783     4785     4784     4784     4784     4785     4785 
    4781     4784     4788     4787     4788     4789     4787     4785 
    4788     4784     4783     4787     4787     4785     4785     4787 
    4785     4784     4784     4784     4784     4785     4785     4784 
    4784     4784     4785     4785     4787     4788     4788     4788 
    4788     4788     4787     4789     4788     4785     4789     4789 
    4785     4784     4787     4784     4785     4791     4788     4783 
    4783     4788     4788     4785     4785     4789     4785     4784 
    4789     4789     4781     4785     4791     4785     4783     4787 
    4789     4787     4784     4788     4787     4784     4787     4787 
    4785     4784     4784     4787     4787     4785     4787     4789 
    4787     4784     4787     4788     4787     4783     4783     4785 
    4784     4785     4789     4787     4783     4784     4785     4785 
    4785     4789     4789     4784     4785     4785     4784     4787 
    4789     4785     4785     4792     4788     4783     4783     4785 
    4787     4784     4788     4789     4781     4784     4788     4784 
    4785     4788     4787     4787     4788     4787     4787     4785 
    4785     4788     4788     4788     4788     4788     4788     4787 
    4785     4787     4787     4787     4789     4791     4784     4781 
    4787     4789     4785     4785     4788     4788     4784     4785 
    4788     4784     4783     4789     4791     4787     4787     4789 
    4787     4781     4783     4789     4787     4784     4789     4788 
    4784     4787     4791     4788     4784     4785     4787     4788 
    4787     4787     4785     4785     4784     4783     4787     4789 
    4785     4787     4788     4784     4784     4788     4787     4783 
    4784     4788     4787     4783     4788     4789     4784     4785 
    4787     4783     4785     4789     4788     4785     4788     4789 
    4785     4784     4789     4788     4784     4785     4789     4787 
    4783     4784     4787     4784     4784     4791     4791     4783 
    4787     4791     4784     4783     4789     4789     4784     4787 
    4787     4783     4784     4788     4788     4787     4787     4787 
    4783     4783     4784     4784     4785     4784     4784     4787 
    4785     4781     4784     4788     4787     4785     4787     4789 
    4784     4781     4788     4787     4783     4788     4789     4784 
    4781     4784     4788     4789     4789     4785     4781     4784 
    4789     4791     4787     4783     4787     4787     4783     4784 
    4785     4784     4787     4788     4784     4785     4789     4788 
    4785     4784     4783     4784     4787     4785     4784     4787 
    4789     4789     4784     4785     4789     4784     4780     4785 
    4787     4787     4787     4784     4787     4787     4784     4787 
    4785     4785     4785     4784     4788     4789     4784     4784 
    4789     4787     4783     4787     4791     4787     4784     4788 
    4785     4781     4787     4792     4787     4785     4789     4788 
    4784     4787     4788     4787     4784     4783     4787     4788 
    4785     4787     4789     4787     4785     4791     4789     4785 
    4784     4787     4788     4787     4785     4789     4788     4781 
    4781     4788     4788     4783     4787     4789     4781     4784 
    4789     4784     4781     4785     4789     4785     4783     4787 
    4787     4783     4784     4787     4787     4784     4784     4787 
    4787     4785     4788     4787     4784     4787     4788     4784 
    4785     4787     4783     4785     4789     4787     4785     4788 
    4788     4785     4784     4787     4788     4789     4789     4785 
    4783     4787     4785     4785     4789     4788     4789     4791 
    4785     4783     4785     4787     4787     4785     4787     4787 
    4783     4784     4788     4787     4785     4787     4785     4783 
    4783     4787     4788     4783     4781     4789     4788     4780 
    4784     4791     4785     4783     4788     4787     4783     4784 
    4787     4785     4787     4789     4787     4785     4787     4784 
    4785     4791     4788     4783     4788     4788     4784     4787 
    4789     4784     4781     4788     4792     4785     4781     4784 
    4787     4783     4785     4789     4787     4785     4787     4785 
    4785     4787     4788     4785     4787     4789     4785     4784 
    4789     4791     4787     4787     4787     4783     4787     4789 
    4785     4784     4788     4793     4788     4781     4784     4785 
    4785     4788     4791     4787     4783     4784     4787     4787 
    4785     4787     4788     4787     4787     4789     4787     4784 
    4784     4788     4785     4783     4788     4792     4788     4783 
    4785     4788     4787     4785     4788     4791     4784     4781 
    4788     4788     4783     4787     4791     4785     4783     4788 
    4787     4780     4785     4792     4787     4785     4791     4788 
    4785     4788     4788     4787     4787     4785     4785     4784 
    4785     4788     4787     4785     4785     4784     4785     4788 
    4788     4787     4788     4789     4784     4780     4785     4789 
    4785     4785     4788     4788     4785     4784     4787     4788 
    4785     4784     4785     4791     4789     4785     4788     4789 
    4784     4780     4787     4788     4785     4787     4787     4785 
    4787     4788     4791     4789     4783     4787     4789     4781 
    4783     4788     4785     4787     4788     4784     4783     4783 
    4783     4787     4787     4788     4787     4783     4785     4788 
    4784     4784     4785     4788     4788     4785     4784     4784 
    4788     4789     4787     4787     4789     4785     4784     4789 
    4789     4783     4785     4788     4787     4785     4785     4785 
    4785     4785     4787     4784     4784     4787     4785     4783 
    4787     4789     4784     4784     4791     4787     4783     4787 
    4788     4784     4785     4788     4785     4784     4788     4788 
    4785     4785     4785     4787     4787     4784     4784     4788 
    4789     4788     4787     4787     4785     4785     4785     4785 
    4785     4788     4791     4787     4780     4784     4791     4787 
    4787     4791     4788     4784     4787     4789     4784     4783 
    4789     4789     4783     4787     4791     4784     4783     4791 
    4789     4781     4785     4792     4787     4784     4788     4788 
    4785     4787     4788     4785     4784     4784     4784     4787 
    4788     4788     4787     4785     4787     4787     4787     4787 
    4787     4787     4784     4785     4788     4787     4785     4787 
    4785     4785     4788     4787     4784     4788     4789     4787 
    4788     4789     4787     4785     4787     4784     4784     4788 
    4788     4787     4787     4785     4784     4789     4789     4784 
    4784     4791     4788     4780     4784     4791     4787     4781 
    4787     4791     4788     4785     4784     4785     4785     4785 
    4788     4787     4783     4785     4789     4785     4784     4789 
    4789     4785     4785     4787     4785     4787     4788     4785 
    4789     4791     4784     4784     4788     4784     4783     4789 
    4792     4784     4785     4792     4785     4779     4787     4792 
    4789     4791     4792     4788     4781     4785     4789     4785 
    4784     4788     4789     4787     4787     4787     4785     4784 
    4785     4787     4784     4784     4785     4785     4788     4791 
    4787     4785     4785     4785     4785     4785     4785     4785 
    4787     4788     4784     4784     4788     4787     4788     4791 
    4787     4785     4789     4785     4785     4788     4785     4784 
    4787     4789     4787     4781     4785     4789     4785     4784 
    4788     4788     4781     4781     4789     4785     4779     4789 
    4792     4783     4784     4789     4785     4784     4787     4787 
    4784     4785     4788     4787     4783     4787     4789     4787 
    4785     4788     4787     4785     4787     4788     4787     4785 
    4785     4785     4785     4787     4787     4785     4784     4787 
    4787     4787     4788     4783     4783     4788     4787     4783 
    4785     4788     4785     4784     4788     4787     4784     4787 
    4789     4788     4784     4784     4785     4785     4784     4787 
    4789     4787     4787     4787     4784     4785     4785     4785 
    4787     4789     4785     4784     4787     4787     4783     4785 
    4789     4787     4784     4787     4787     4781     4783     4789 
    4788     4785     4785     4784     4783     4785     4788     4785 
    4789     4789     4783     4783     4787     4785     4784     4788 
    4788     4784     4788     4789     4785     4784     4787     4789 
    4787     4785     4788     4785     4781     4788     4791     4787 
    4785     4788     4788     4781     4785     4789     4785     4787 
    4789     4787     4784     4785     4785     4785     4785     4785 
    4788     4789     4787     4788     4787     4783     4784     4788 
    4788     4785     4784     4785     4788     4787     4785     4785 
    4784     4784     4784     4785     4785     4785     4789     4789 
    4785     4787     4789     4784     4784     4788     4787     4784 
    4788     4788     4785     4788     4789     4784     4783     4788 
    4791     4785     4783     4789     4787     4781     4785     4789 
    4787     4784     4787     4788     4783     4784     4792     4788 
    4784     4787     4787     4785     4787     4788     4789     4784 
    4781     4784     4787     4785     4783     4783     4785     4787 
    4784     4784     4787     4784     4783     4787     4787     4785 
    4787     4787     4783     4781     4785     4787     4783     4783 
    4788     4788     4784     4785     4787     4785     4785     4787 
    4785     4783     4784     4787     4787     4785     4787     4787 
    4787     4787     4783     4783     4788     4788     4784     4787 
    4789     4787     4785     4788     4784     4780     4787     4789 
    4785     4785     4788     4785     4787     4787     4784     4787 
    4789     4788     4785     4785     4788     4785     4784     4789 
    4791     4784     4784     4788     4785     4783     4787     4791 
    4785     4781     4789     4788     4780     4785     4791     4785 
    4785     4791     4788     4783     4784     4788     4787     4787 
    4789     4788     4784     4784     4787     4789     4789     4787 
    4787     4787     4785     4784     4788     4791     4787     4787 
    4789     4785     4779     4784     4789     4787     4788     4791 
    4787     4785     4791     4799     4806     4822     4850     4881 
    4914     4943     4957     4941     4866     4735     4599     4418 
    4255     4359     4657     4961     5256     5263     4869     4428 
    4133     4014     4131     4590     5194     5555     5842     6085 
    5911     5410     4822     4148     3311     2764     3217     4266 
    5211     5914     6120     5813     5254     4639     4217     4059 
    4268     4833     5163     4970     4729     4689     4800     5109 
    5329     5096     4602     4278     4329     4526     4652     4776 
    4874     4995     5100     4885     4576     4699     5069     5182 
    4934     4603     4534     4641     4627     4642     4870     5073 
    5081     4936     4677     4463     4490     4738     4961     4972 
    4853     4685     4549     4611     4741     4747     4754     4804 
    4833     4845     4892     4972     4943     4826     4727     4608 
    4568     4712     4874     4949     5035     5059     4927     4804 
    4693     4465     4299     4365     4592     4842     5004     5194 
    5382     5117     4537     4287     4356     4556     4926     5103 
    4905     4719     4725     4822     4882     4912     5019     5028 
    4858     4764     4679     4515     4561     4683     4587     4571 
    4758     4846     4909     5170     5386     5278     4928     4573 
    4338     4225     4299     4583     4882     4986     4915     4811 
    4738     4808     5067     5212     5016     4689     4468     4409 
    4554     4847     5036     4968     4765     4615     4635     4791 
    4897     4932     4928     4795     4656     4653     4684     4702 
    4785     4954     5051     4970     4845     4731     4587     4561 
    4741     4895     4827     4681     4668     4799     4946     4988 
    4822     4504     4349     4507     4800     5049     5139     5040 
    4885     4777     4668     4530     4533     4773     5066     5148 
    4995     4783     4633     4552     4544     4626     4791     4954 
    5047     5049     4877     4621     4534     4608     4715     4812 
    4791     4684     4769     5043     5193     5071     4757     4480 
    4425     4538     4720     4854     4837     4807     4876     4919 
    4865     4783     4734     4737     4768     4824     4831     4718 
    4672     4810     4955     5005     4970     4814     4608     4455 
    4360     4406     4675     5000     5154     5151     5096     5016 
    4950     4882     4708     4446     4264     4303     4564     4905 
    5138     5151     5039     4961     4876     4685     4448     4332 
    4428     4661     4945     5144     5089     4919     4862     4824 
    4692     4577     4577     4687     4876     5035     5013     4845 
    4758     4858     4920     4772     4575     4517     4611     4783 
    4904     4899     4842     4811     4774     4711     4681     4696 
    4689     4711     4845     4972     4999     4982     4909     4765 
    4646     4621     4714     4864     4880     4733     4629     4653 
    4707     4743     4776     4823     4918     5027     5013     4839 
    4646     4536     4542     4649     4746     4804     4868     4949 
    5023     5038     4990     4876     4679     4504     4436     4473 
    4654     4888     4959     4860     4770     4830     5031     5140 
    4922     4523     4259     4291     4626     5036     5231     5236 
    5174     4988     4704     4494     4430     4471     4583     4742 
    4896     4989     4999     4942     4810     4660     4603     4660 
    4789     4896     4854     4696     4649     4774     4868     4846 
    4808     4788     4799     4901     5004     4942     4745     4554 
    4448     4488     4664     4861     5036     5154     5116     4923 
    4646     4407     4394     4600     4842     5005     5031     4955 
    4912     4855     4734     4669     4657     4611     4635     4803 
    4966     4973     4841     4708     4687     4741     4777     4768 
    4739     4745     4810     4843     4776     4725     4789     4862 
    4843     4811     4808     4765     4696     4714     4826     4885 
    4823     4761     4734     4672     4681     4823     4907     4861 
    4804     4791     4787     4738     4680     4714     4774     4719 
    4623     4600     4571     4598     4815     5035     5092     5111 
    5124     5026     4822     4622     4486     4403     4386     4490 
    4700     4846     4885     4973     5151     5340     5441     5308 
    4988     4807     4939     5178     5220     4932     4334     3699 
    3469     3805     4405     4881     5185     5483     5661     5432 
    4897     4428     4143     3943     3813     3869     4259     5008 
    5730     5960     5755     5424     5119     4827     4463     4155 
    4195     4564     5030     5408     5421     4914     4229     3896 
    4113     4761     5512     5854     5483     4707     4156     4124 
    4368     4472     4371     4449     4915     5474     5749     5578 
    5124     4739     4550     4440     4295     4172     4270     4621 
    4993     5189     5155     4958     4747     4610     4502     4463 
    4592     4807     4943     4938     4826     4819     5012     5117 
    4970     4756     4577     4445     4422     4486     4679     5043 
    5343     5379     5148     4654     4168     4074     4336     4669 
    4880     4973     5154     5444     5553     5260     4699     4222 
    4083     4317     4696     4882     4874     4915     5061     5211 
    5197     4946     4612     4401     4372     4386     4295     4341 
    4804     5432     5732     5571     5132     4595     4125     3878 
    3897     4164     4631     5157     5524     5629     5520     5260 
    4915     4556     4251     4143     4279     4518     4766     4965 
    5084     5235     5329     5152     4826     4534     4295     4243 
    4452     4683     4803     4949     5111     5147     5074     4988 
    4793     4441     4234     4369     4671     4972     5179     5166 
    5004     4912     4876     4703     4353     4060     4187     4722 
    5243     5509     5568     5472     5182     4660     4045     3673 
