Origin Time       2025/01/26 08:11:00
Lat.              34.975
Long.             138.213
Depth. (km)       21
Mag.              3.4
Station Code      SZO026
Station Lat.      34.9812
Station Long.     137.8964
Station Height(m) 133
Record Time       2025/01/26 08:11:35
Sampling Freq(Hz) 100Hz
Duration Time(s)  60
Dir.              U-D
Scale Factor      7845(gal)/8223790
Max. Acc. (gal)   2.351
Last Correction   2025/01/26 08:11:34
Memo.             
[...]
    5894     5892     5894     5895     5891     5891     5896     5898 
    5895     5895     5894     5892     5892     5894     5894     5892 
    5892     5894     5892     5892     5892     5892     5895     5895 
    5892     5892     5894     5894     5894     5894     5892     5892 
    5892     5892     5895     5895     5892     5894     5895     5894 
    5895     5895     5894     5891     5891     5895     5898     5894 
    5892     5895     5895     5890     5891     5894     5895     5894 
    5894     5892     5894     5896     5894     5892     5895     5894 
    5895     5896     5894     5891     5892     5896     5895     5894 
    5896     5896     5892     5891     5894     5894     5892     5894 
    5892     5894     5896     5894     5892     5892     5892     5898 
    5898     5888     5890     5898     5896     5894     5895     5895 
    5894     5895     5896     5894     5891     5894     5895     5896 
    5892     5891     5895     5894     5892     5896     5894     5888 
    5894     5898     5894     5894     5895     5895     5896     5896 
    5898     5895     5892     5896     5899     5896     5892     5894 
    5895     5898     5896     5892     5892     5892     5895     5899 
    5896     5892     5894     5896     5896     5895     5896     5895 
    5892     5894     5894     5891     5894     5896     5894     5894 
    5896     5894     5890     5892     5896     5895     5894     5892 
    5892     5895     5898     5896     5894     5892     5894     5896 
    5896     5894     5894     5898     5896     5894     5892     5892 
    5892     5895     5896     5895     5892     5894     5895     5894 
    5891     5892     5895     5896     5895     5892     5896     5896 
    5895     5894     5892     5894     5896     5894     5891     5894 
    5895     5895     5895     5892     5891     5892     5895     5895 
    5892     5891     5896     5896     5894     5892     5894     5895 
    5895     5894     5892     5895     5898     5896     5895     5891 
    5894     5899     5898     5894     5894     5895     5896     5894 
    5892     5898     5899     5898     5895     5894     5892     5894 
    5896     5898     5894     5891     5895     5895     5894     5896 
    5896     5895     5894     5894     5894     5891     5892     5899 
    5898     5890     5894     5899     5896     5892     5894     5895 
    5896     5895     5895     5896     5895     5892     5894     5896 
    5896     5894     5895     5895     5895     5896     5895     5894 
    5896     5895     5894     5895     5896     5896     5895     5892 
    5895     5896     5894     5892     5895     5896     5896     5896 
    5895     5894     5894     5896     5896     5894     5896     5898 
    5892     5894     5898     5895     5892     5894     5896     5895 
    5894     5895     5898     5894     5894     5895     5892     5890 
    5892     5895     5892     5892     5895     5896     5894     5892 
    5895     5894     5892     5892     5895     5895     5894     5898 
    5898     5892     5894     5899     5898     5894     5895     5895 
    5894     5895     5894     5892     5892     5892     5894     5895 
    5894     5896     5899     5895     5892     5895     5896     5892 
    5892     5895     5895     5894     5894     5896     5896     5895 
    5894     5895     5896     5894     5892     5892     5894     5895 
    5896     5895     5892     5894     5895     5896     5894     5891 
    5894     5896     5896     5892     5891     5894     5896     5896 
    5894     5894     5894     5895     5896     5894     5892     5894 
    5894     5895     5896     5894     5894     5895     5895     5891 
    5892     5898     5898     5895     5895     5895     5894     5895 
    5896     5894     5894     5898     5898     5891     5887     5894 
    5895     5891     5894     5899     5896     5891     5892     5896 
    5895     5894     5894     5892     5891     5894     5896     5896 
    5896     5896     5898     5895     5891     5895     5896     5892 
    5892     5896     5895     5895     5896     5896     5895     5892 
    5891     5894     5894     5892     5894     5895     5895     5896 
    5896     5894     5894     5896     5896     5892     5894     5896 
    5894     5895     5895     5891     5892     5896     5898     5895 
    5891     5894     5896     5894     5894     5895     5892     5892 
    5896     5895     5891     5892     5898     5898     5894     5895 
    5895     5892     5895     5898     5892     5892     5896     5895 
    5894     5896     5896     5896     5896     5892     5894     5895 
    5895     5895     5894     5894     5896     5894     5892     5895 
    5894     5891     5894     5896     5894     5891     5894     5896 
    5895     5895     5898     5895     5894     5895     5895     5892 
    5892     5894     5898     5898     5894     5895     5896     5892 
    5894     5898     5894     5891     5895     5898     5896     5894 
    5894     5892     5891     5895     5896     5895     5894     5894 
    5896     5895     5891     5896     5898     5894     5895     5894 
    5890     5892     5895     5895     5895     5892     5894     5895 
    5892     5892     5896     5894     5891     5894     5896     5892 
    5890     5895     5895     5890     5892     5894     5891     5894 
    5899     5896     5894     5895     5894     5892     5895     5898 
    5896     5892     5895     5898     5894     5892     5895     5895 
    5892     5891     5894     5892     5890     5894     5899     5894 
    5891     5894     5896     5892     5890     5894     5896     5892 
    5894     5898     5895     5894     5895     5894     5892     5892 
    5896     5898     5892     5892     5895     5892     5892     5896 
    5896     5892     5892     5894     5894     5894     5896     5896 
    5894     5894     5894     5892     5894     5896     5894     5892 
    5894     5892     5891     5892     5892     5892     5894     5895 
    5896     5892     5888     5892     5895     5894     5892     5894 
    5896     5894     5892     5896     5894     5892     5895     5896 
    5895     5895     5894     5895     5895     5894     5892     5894 
    5896     5895     5896     5896     5894     5892     5895     5895 
    5892     5895     5896     5892     5890     5891     5895     5896 
    5895     5895     5896     5892     5890     5894     5896     5895 
    5894     5894     5892     5894     5898     5898     5895     5892 
    5891     5892     5896     5898     5894     5891     5891     5894 
    5898     5895     5891     5895     5896     5892     5894     5899 
    5896     5891     5891     5895     5896     5896     5896     5894 
    5890     5894     5896     5894     5892     5894     5895     5895 
    5892     5892     5894     5892     5895     5896     5892     5894 
    5896     5895     5894     5895     5895     5894     5892     5895 
    5895     5891     5895     5902     5896     5892     5896     5895 
    5891     5892     5896     5898     5891     5891     5896     5895 
    5892     5892     5894     5894     5895     5894     5892     5892 
    5896     5899     5895     5894     5895     5894     5894     5896 
    5895     5894     5891     5891     5896     5896     5894     5896 
    5896     5891     5892     5896     5896     5894     5892     5896 
    5895     5895     5896     5894     5891     5894     5894     5892 
    5892     5894     5894     5892     5892     5894     5894     5895 
    5895     5892     5892     5895     5891     5890     5895     5898 
    5895     5892     5891     5894     5896     5896     5894     5896 
    5898     5894     5890     5890     5892     5896     5898     5894 
    5892     5895     5894     5894     5896     5894     5890     5894 
    5896     5896     5898     5894     5890     5894     5896     5895 
    5892     5892     5896     5895     5894     5895     5896     5894 
    5894     5894     5892     5892     5894     5899     5896     5891 
    5894     5896     5892     5894     5896     5896     5894     5892 
    5895     5894     5891     5892     5894     5892     5895     5895 
    5892     5892     5895     5895     5894     5892     5895     5896 
    5894     5892     5894     5894     5894     5895     5895     5892 
    5891     5895     5895     5894     5896     5896     5894     5894 
    5896     5896     5894     5892     5895     5894     5891     5895 
    5896     5891     5891     5896     5896     5892     5896     5896 
    5894     5894     5894     5894     5895     5894     5895     5895 
    5891     5891     5896     5896     5892     5894     5898     5894 
    5891     5894     5892     5894     5898     5896     5891     5891 
    5894     5895     5896     5896     5896     5895     5892     5892 
    5894     5894     5894     5894     5895     5895     5892     5892 
    5894     5894     5895     5895     5892     5892     5892     5894 
    5894     5892     5895     5895     5891     5892     5895     5894 
    5892     5895     5896     5894     5892     5892     5895     5896 
    5892     5892     5895     5895     5891     5894     5896     5895 
    5895     5895     5892     5892     5896     5895     5892     5892 
    5894     5895     5894     5892     5894     5894     5895     5898 
    5894     5891     5895     5895     5895     5894     5891     5892 
    5895     5892     5891     5890     5892     5896     5896     5892 
    5891     5891     5894     5896     5898     5894     5891     5894 
    5898     5895     5891     5891     5894     5895     5892     5892 
    5894     5894     5892     5895     5895     5891     5892     5894 
    5891     5890     5894     5899     5895     5890     5894     5896 
    5894     5895     5895     5894     5892     5890     5894     5896 
    5890     5891     5898     5894     5890     5892     5895     5892 
    5894     5895     5894     5892     5895     5896     5892     5891 
    5892     5894     5894     5896     5895     5891     5894     5894 
    5891     5892     5896     5894     5891     5894     5896     5895 
    5895     5898     5895     5891     5894     5898     5894     5891 
    5894     5895     5894     5894     5894     5892     5894     5894 
    5892     5894     5895     5892     5894     5895     5894     5891 
    5891     5892     5894     5894     5895     5895     5894     5895 
    5899     5895     5891     5892     5896     5896     5894     5892 
    5891     5892     5896     5895     5892     5895     5894     5892 
    5895     5894     5892     5896     5895     5892     5895     5895 
    5892     5891     5891     5894     5895     5895     5896     5894 
    5894     5896     5896     5894     5894     5895     5895     5896 
    5896     5895     5892     5892     5896     5896     5894     5894 
    5892     5891     5895     5898     5895     5892     5892     5894 
    5892     5894     5896     5898     5895     5892     5892     5895 
    5896     5895     5894     5891     5892     5896     5894     5891 
    5894     5895     5894     5894     5895     5896     5894     5891 
    5894     5895     5894     5898     5896     5891     5892     5896 
    5892     5894     5900     5899     5894     5892     5895     5898 
    5895     5894     5896     5896     5891     5891     5898     5898 
    5891     5891     5894     5895     5896     5896     5894     5892 
    5894     5895     5895     5894     5895     5895     5892     5895 
    5898     5895     5894     5895     5895     5894     5892     5892 
    5892     5894     5895     5896     5895     5892     5896     5894 
    5892     5895     5895     5894     5896     5896     5895     5895 
    5892     5892     5894     5895     5892     5890     5894     5899 
    5898     5896     5892     5892     5896     5895     5895     5896 
    5895     5892     5895     5896     5895     5894     5894     5894 
    5894     5895     5896     5896     5894     5894     5896     5898 
    5896     5894     5894     5894     5892     5895     5898     5898 
    5895     5894     5894     5896     5894     5894     5896     5896 
    5894     5894     5895     5895     5892     5891     5895     5895 
    5894     5896     5892     5890     5894     5896     5894     5891 
    5894     5895     5891     5891     5896     5895     5892     5892 
    5894     5894     5894     5896     5896     5894     5892     5895 
    5895     5894     5895     5896     5894     5892     5894     5894 
    5894     5896     5898     5895     5891     5892     5894     5894 
    5895     5894     5891     5892     5894     5892     5891     5894 
    5895     5894     5892     5896     5896     5892     5891     5896 
    5894     5890     5896     5898     5892     5891     5895     5896 
    5894     5894     5895     5895     5892     5892     5898     5896 
    5891     5894     5895     5891     5894     5899     5894     5891 
    5894     5895     5895     5894     5891     5891     5890     5892 
    5896     5894     5892     5894     5895     5895     5896     5895 
    5894     5892     5895     5895     5895     5894     5892     5891 
    5894     5895     5895     5895     5892     5892     5895     5894 
    5892     5892     5894     5896     5895     5891     5891     5891 
    5884     5873     5854     5821     5775     5724     5684     5660 
    5628     5672     5946     6338     6573     6586     6296     5629 
    4988     4860     5398     6646     8062     8359     7006     5086 
    3888     3780     4675     6018     6656     6197     5551     5525 
    5899     6029     5915     6114     6601     6681     6023     5251 
    5131     5678     6527     7037     6563     5514     4711     4533 
    5323     6654     7191     6535     5535     5004     5294     6111 
    6539     6216     5857     5908     5790     5298     5285     5907 
    6259     6218     6259     6183     5844     5721     5935     6081 
    5985     5779     5638     5676     5763     5755     5863     6077 
    5938     5563     5632     6166     6512     6355     5979     5699 
    5493     5385     5745     6443     6554     5852     5289     5455 
    5976     6289     6196     5914     5780     5872     5935     5805 
    5755     5940     6038     5981     5944     5792     5599     5710 
    6038     6172     5904     5556     5626     5903     5944     5996 
    6161     6023     5692     5626     5817     6062     6212     6138 
    5929     5753     5616     5547     5732     6153     6332     6033 
    5830     5975     5826     5455     5660     6153     6212     6057 
    5922     5713     5665     5796     5838     5925     6110     6083 
    5813     5618     5738     6092     6335     6223     5879     5575 
    5489     5641     5859     5965     5976     5981     6026     6045 
    5913     5752     5786     5891     5919     6015     6150     5994 
    5555     5391     5811     6345     6412     6016     5528     5302 
    5562     6108     6386     6176     5826     5732     5906     6049 
    5962     5802     5745     5746     5779     5957     6212     6211 
    5921     5741     5796     5814     5760     5838     5983     5985 
    5865     5798     5840     5849     5756     5757     5960     6103 
    5999     5819     5757     5833     5980     6102     6076     5864 
    5702     5757     5876     5996     6092     5991     5807     5734 
    5694     5729     5946     6131     6066     5869     5786     5844 
    5860     5805     5884     6075     6092     5913     5807     5871 
    5907     5844     5840     5899     5886     5867     5948     6048 
    6062     5954     5809     5787     5830     5815     5848     5949 
    5914     5775     5819     6025     6068     5863     5664     5713 
    5930     6012     5892     5822     5872     5888     5888     5995 
    6106     6034     5844     5768     5841     5921     6007     6100 
    5984     5692     5638     5857     5972     5900     5817     5782 
    5827     5977     6103     6029     5784     5637     5740     5923 
    6034     6081     6016     5871     5811     5817     5795     5830 
    5902     5895     5930     6081     6123     5942     5752     5722 
    5805     5923     6004     5962     5886     5868     5853     5873 
    5911     5823     5782     5961     6056     5930     5867     5871 
    5800     5813     5914     5929     5946     6015     5975     5836 
    5730     5710     5818     6019     6100     5941     5776     5821 
    5899     5899     5980     6076     5960     5748     5695     5821 
    5988     6064     5980     5800     5695     5787     5965     6002 
    5908     5869     5902     5950     5985     5919     5791     5778 
    5861     5942     6068     6123     5884     5576     5598     5867 
    6072     6145     6068     5796     5570     5711     6053     6134 
    5944     5815     5806     5807     5888     6030     6062     5985 
    5865     5734     5759     5942     6019     5953     5892     5850 
    5865     5935     5883     5740     5772     5937     5969     5876 
    5859     5935     5931     5854     5913     6004     5906     5817 
    5911     5973     5923     5868     5806     5788     5879     5976 
    5976     5884     5741     5688     5822     6002     6077     6029 
    5856     5707     5780     5981     6062     5960     5859     5890 
    5923     5884     5930     6007     5895     5788     5913     5973 
    5861     5902     6003     5863     5699     5794     5989     6035 
    5899     5775     5814     5871     5853     5917     5983     5856 
    5745     5861     5958     5898     5877     5952     5973     5933 
    5918     5921     5857     5776     5849     6037     6087     5941 
    5749     5652     5741     5961     6087     6045     5983     5995 
    6039     6073     6000     5742     5493     5513     5778     6083 
    6238     6123     5822     5610     5695     5942     5975     5725 
    5607     5829     6062     6083     6043     5999     5845     5687 
    5755     6035     6262     6324     6340     6184     5699     5267 
    5302     5682     6112     6343     6133     5584     5271     5579 
    6176     6446     6168     5643     5354     5513     5910     6199 
    6208     5985     5706     5590     5746     6042     6247     6199 
    5852     5455     5452     5890     6268     6239     5964     5765 
    5815     6003     6014     5810     5705     5799     5921     6011 
    6085     6108     6030     5841     5709     5821     5999     6031 
    6007     5898     5664     5583     5779     5995     6103     6137 
    6043     5832     5641     5629     5825     6061     6149     6049 
    5825     5630     5636     5811     5998     6083     5983     5783 
    5788     6016     6127     6046     5919     5745     5609     5668 
    5842     5964     5979     5949     5961     5927     5767     5711 
    5881     6006     5908     5790     5865     6008     5995     5890 
    5873     5919     5938     5979     6087     6103     5904     5705 
    5709     5826     5953     6006     5891     5787     5875     5961 
    5981     6025     5867     5574     5663     5995     6012     5871 
    5937     6003     5837     5692     5802     5972     6003     5968 
    5933     5898     5860     5826     5903     6031     5972     5799 
