Origin Time       2025/01/26 08:11:00
Lat.              34.975
Long.             138.213
Depth. (km)       21
Mag.              3.4
Station Code      SZO026
Station Lat.      34.9812
Station Long.     137.8964
Station Height(m) 133
Record Time       2025/01/26 08:11:35
Sampling Freq(Hz) 100Hz
Duration Time(s)  60
Dir.              N-S
Scale Factor      7845(gal)/8223790
Max. Acc. (gal)   2.163
Last Correction   2025/01/26 08:11:34
Memo.             
[...]
   -1695    -1698    -1699    -1696    -1694    -1696    -1698    -1698 
   -1696    -1695    -1695    -1698    -1695    -1695    -1696    -1696 
   -1695    -1696    -1699    -1699    -1695    -1692    -1694    -1694 
   -1692    -1698    -1702    -1698    -1694    -1695    -1695    -1691 
   -1695    -1701    -1694    -1690    -1695    -1698    -1694    -1694 
   -1698    -1701    -1696    -1696    -1699    -1692    -1690    -1696 
   -1701    -1695    -1695    -1701    -1695    -1691    -1696    -1698 
   -1696    -1699    -1698    -1694    -1694    -1696    -1698    -1696 
   -1696    -1699    -1698    -1696    -1695    -1695    -1695    -1694 
   -1695    -1698    -1696    -1695    -1696    -1696    -1695    -1696 
   -1696    -1696    -1695    -1698    -1696    -1695    -1696    -1696 
   -1694    -1695    -1696    -1699    -1696    -1692    -1695    -1696 
   -1694    -1696    -1699    -1695    -1692    -1696    -1699    -1696 
   -1696    -1701    -1699    -1691    -1694    -1699    -1695    -1694 
   -1699    -1698    -1695    -1696    -1696    -1696    -1698    -1695 
   -1696    -1699    -1696    -1695    -1694    -1695    -1696    -1696 
   -1695    -1695    -1699    -1698    -1694    -1695    -1696    -1695 
   -1696    -1699    -1698    -1696    -1695    -1691    -1694    -1699 
   -1699    -1698    -1695    -1696    -1698    -1694    -1691    -1695 
   -1698    -1698    -1698    -1702    -1698    -1692    -1696    -1698 
   -1694    -1695    -1701    -1698    -1694    -1695    -1696    -1695 
   -1696    -1698    -1696    -1696    -1694    -1694    -1695    -1694 
   -1695    -1699    -1699    -1696    -1696    -1695    -1692    -1694 
   -1696    -1696    -1695    -1695    -1692    -1692    -1698    -1695 
   -1691    -1698    -1699    -1694    -1691    -1695    -1696    -1694 
   -1694    -1696    -1698    -1695    -1695    -1699    -1696    -1691 
   -1695    -1698    -1694    -1694    -1698    -1695    -1692    -1696 
   -1701    -1698    -1698    -1699    -1695    -1691    -1694    -1698 
   -1696    -1695    -1699    -1698    -1692    -1692    -1695    -1696 
   -1698    -1699    -1699    -1696    -1692    -1694    -1696    -1696 
   -1695    -1696    -1699    -1695    -1692    -1692    -1694    -1698 
   -1698    -1696    -1698    -1695    -1695    -1695    -1694    -1695 
   -1696    -1698    -1699    -1696    -1692    -1695    -1699    -1698 
   -1696    -1696    -1698    -1692    -1688    -1694    -1699    -1696 
   -1698    -1701    -1696    -1694    -1696    -1698    -1698    -1696 
   -1699    -1699    -1694    -1695    -1699    -1696    -1695    -1696 
   -1699    -1698    -1696    -1696    -1695    -1694    -1696    -1699 
   -1698    -1698    -1696    -1692    -1692    -1695    -1696    -1696 
   -1698    -1698    -1696    -1694    -1695    -1696    -1695    -1696 
   -1698    -1695    -1695    -1698    -1696    -1692    -1695    -1701 
   -1695    -1694    -1696    -1696    -1696    -1696    -1699    -1701 
   -1696    -1692    -1692    -1695    -1692    -1692    -1696    -1696 
   -1696    -1698    -1698    -1692    -1692    -1698    -1695    -1691 
   -1698    -1701    -1695    -1694    -1696    -1696    -1695    -1696 
   -1695    -1694    -1695    -1695    -1694    -1694    -1695    -1696 
   -1695    -1695    -1701    -1696    -1692    -1695    -1699    -1696 
   -1694    -1696    -1696    -1692    -1694    -1696    -1695    -1696 
   -1701    -1698    -1692    -1692    -1695    -1692    -1694    -1699 
   -1701    -1692    -1691    -1698    -1696    -1692    -1696    -1699 
   -1695    -1691    -1694    -1696    -1692    -1691    -1694    -1695 
   -1696    -1696    -1692    -1690    -1690    -1692    -1696    -1698 
   -1698    -1698    -1696    -1696    -1694    -1695    -1698    -1696 
   -1695    -1696    -1696    -1696    -1694    -1691    -1696    -1699 
   -1695    -1694    -1696    -1696    -1695    -1696    -1698    -1695 
   -1692    -1695    -1699    -1696    -1691    -1691    -1698    -1701 
   -1698    -1695    -1694    -1692    -1694    -1696    -1698    -1698 
   -1699    -1695    -1692    -1694    -1696    -1696    -1694    -1694 
   -1699    -1696    -1692    -1695    -1696    -1698    -1699    -1698 
   -1695    -1695    -1698    -1695    -1692    -1698    -1696    -1692 
   -1695    -1695    -1695    -1698    -1698    -1698    -1696    -1696 
   -1695    -1695    -1695    -1695    -1696    -1696    -1699    -1699 
   -1695    -1694    -1701    -1698    -1690    -1695    -1703    -1698 
   -1691    -1695    -1699    -1695    -1694    -1695    -1699    -1696 
   -1694    -1695    -1698    -1695    -1694    -1698    -1698    -1696 
   -1698    -1696    -1695    -1695    -1698    -1698    -1696    -1696 
   -1696    -1696    -1695    -1695    -1696    -1698    -1698    -1698 
   -1696    -1695    -1696    -1698    -1695    -1695    -1701    -1698 
   -1694    -1696    -1698    -1694    -1694    -1701    -1698    -1694 
   -1699    -1701    -1694    -1694    -1699    -1695    -1695    -1701 
   -1696    -1690    -1696    -1701    -1695    -1692    -1699    -1701 
   -1695    -1692    -1694    -1696    -1694    -1695    -1702    -1701 
   -1695    -1694    -1696    -1696    -1692    -1694    -1698    -1698 
   -1694    -1696    -1698    -1694    -1696    -1702    -1698    -1694 
   -1695    -1698    -1696    -1696    -1696    -1695    -1695    -1696 
   -1696    -1694    -1695    -1696    -1694    -1695    -1701    -1698 
   -1692    -1695    -1696    -1694    -1695    -1698    -1698    -1694 
   -1692    -1696    -1696    -1694    -1698    -1699    -1694    -1691 
   -1695    -1694    -1694    -1699    -1698    -1695    -1696    -1696 
   -1696    -1695    -1694    -1698    -1699    -1696    -1698    -1699 
   -1695    -1692    -1692    -1695    -1699    -1699    -1696    -1695 
   -1696    -1695    -1695    -1698    -1695    -1695    -1699    -1699 
   -1694    -1691    -1695    -1698    -1698    -1696    -1696    -1698 
   -1695    -1692    -1694    -1698    -1698    -1695    -1698    -1696 
   -1691    -1696    -1699    -1694    -1695    -1696    -1698    -1696 
   -1692    -1694    -1698    -1698    -1695    -1695    -1695    -1694 
   -1696    -1698    -1695    -1695    -1699    -1699    -1694    -1695 
   -1698    -1692    -1692    -1699    -1698    -1692    -1695    -1696 
   -1692    -1692    -1696    -1696    -1695    -1694    -1695    -1696 
   -1696    -1698    -1696    -1694    -1698    -1699    -1695    -1694 
   -1695    -1695    -1694    -1694    -1696    -1696    -1695    -1696 
   -1695    -1692    -1694    -1699    -1699    -1694    -1692    -1696 
   -1695    -1691    -1696    -1699    -1696    -1699    -1699    -1698 
   -1694    -1692    -1698    -1699    -1692    -1695    -1701    -1696 
   -1694    -1698    -1696    -1694    -1699    -1699    -1696    -1695 
   -1694    -1695    -1695    -1694    -1696    -1696    -1695    -1696 
   -1695    -1692    -1694    -1696    -1699    -1698    -1695    -1696 
   -1694    -1691    -1694    -1694    -1696    -1699    -1695    -1692 
   -1695    -1698    -1695    -1692    -1696    -1698    -1695    -1695 
   -1695    -1692    -1691    -1694    -1698    -1696    -1695    -1698 
   -1698    -1692    -1692    -1698    -1695    -1694    -1699    -1698 
   -1694    -1696    -1699    -1696    -1696    -1699    -1698    -1695 
   -1694    -1695    -1696    -1696    -1694    -1695    -1698    -1699 
   -1699    -1695    -1692    -1695    -1699    -1696    -1694    -1696 
   -1695    -1694    -1695    -1696    -1695    -1696    -1698    -1696 
   -1695    -1694    -1696    -1698    -1696    -1698    -1696    -1695 
   -1696    -1696    -1696    -1696    -1698    -1699    -1696    -1694 
   -1696    -1696    -1694    -1696    -1699    -1698    -1695    -1698 
   -1701    -1694    -1691    -1698    -1699    -1694    -1695    -1696 
   -1695    -1692    -1695    -1702    -1701    -1696    -1699    -1696 
   -1694    -1695    -1695    -1698    -1701    -1698    -1695    -1691 
   -1691    -1695    -1695    -1695    -1698    -1695    -1692    -1696 
   -1699    -1696    -1695    -1695    -1696    -1695    -1695    -1696 
   -1695    -1692    -1696    -1699    -1696    -1695    -1696    -1694 
   -1691    -1696    -1699    -1696    -1696    -1698    -1696    -1695 
   -1695    -1696    -1698    -1696    -1695    -1698    -1696    -1694 
   -1695    -1695    -1694    -1695    -1698    -1698    -1695    -1694 
   -1698    -1698    -1696    -1698    -1699    -1698    -1698    -1696 
   -1696    -1696    -1695    -1698    -1702    -1696    -1694    -1694 
   -1694    -1695    -1695    -1698    -1701    -1696    -1691    -1694 
   -1696    -1694    -1695    -1699    -1702    -1699    -1695    -1696 
   -1698    -1692    -1694    -1705    -1705    -1699    -1703    -1703 
   -1695    -1690    -1686    -1669    -1661    -1676    -1671    -1660 
   -1723    -1799    -1810    -1810    -1717    -1518    -1530    -1683 
   -1672    -1764    -1964    -1769    -1410    -1486    -1821    -1931 
   -1902    -1834    -1435    -1048    -1312    -1939    -2382    -2369 
   -1887    -1281     -965    -1246    -1891    -2334    -2416    -2115 
   -1337     -328       62     -842    -2214    -2830    -2808    -2511 
   -1926    -1570    -1741    -1876    -1831    -1817    -1471     -735 
    -360     -880    -1838    -2532    -2976    -3061    -2386    -1566 
   -1308    -1216     -993     -919    -1077    -1355    -1671    -1879 
   -1929    -2072    -2371    -2432    -2172    -1849    -1435    -1028 
    -966    -1138    -1235    -1401    -1871    -2388    -2531    -2293 
   -1935    -1529    -1135     -951    -1073    -1551    -2239    -2574 
   -2184    -1448    -1121    -1401    -1763    -1900    -2006    -1980 
   -1602    -1267    -1327    -1503    -1613    -1767    -1987    -2154 
   -2092    -1930    -1934    -1807    -1348    -1017     -966    -1067 
   -1490    -1938    -2000    -2066    -2332    -2362    -2093    -1811 
   -1534    -1212    -1067    -1256    -1478    -1555    -1834    -2258 
   -2224    -1850    -1655    -1533    -1413    -1464    -1551    -1742 
   -2139    -2178    -1633    -1150    -1159    -1458    -1734    -1884 
   -1952    -1966    -1896    -1717    -1532    -1520    -1651    -1748 
   -1761    -1707    -1611    -1579    -1698    -1872    -1865    -1694 
   -1632    -1682    -1644    -1610    -1746    -1879    -1861    -1815 
   -1678    -1390    -1287    -1509    -1777    -1938    -1998    -1898 
   -1675    -1479    -1371    -1395    -1615    -1887    -2047    -2093 
   -2008    -1840    -1625    -1354    -1217    -1308    -1499    -1829 
   -2216    -2303    -2011    -1606    -1302    -1185    -1233    -1417 
   -1757    -2112    -2191    -1968    -1688    -1466    -1310    -1291 
   -1476    -1794    -2035    -2101    -2034    -1898    -1769    -1634 
   -1501    -1489    -1490    -1410    -1494    -1750    -1931    -2003 
   -1925    -1678    -1497    -1495    -1609    -1788    -1894    -1829 
   -1738    -1722    -1688    -1576    -1493    -1571    -1744    -1885 
   -1998    -2003    -1841    -1606    -1301    -1051    -1096    -1328 
   -1657    -2130    -2425    -2336    -2110    -1867    -1567    -1302 
   -1146    -1181    -1498    -1911    -2107    -2058    -1906    -1678 
   -1489    -1529    -1692    -1732    -1651    -1588    -1593    -1625 
   -1624    -1620    -1683    -1772    -1876    -1992    -1956    -1733 
   -1487    -1337    -1402    -1644    -1783    -1737    -1696    -1757 
   -1881    -1969    -1942    -1852    -1730    -1543    -1378    -1331 
   -1420    -1674    -1944    -2030    -2015    -2002    -1845    -1475 
   -1131    -1090    -1359    -1736    -2023    -2065    -1899    -1765 
   -1686    -1571    -1564    -1696    -1826    -1953    -1968    -1715 
   -1429    -1378    -1437    -1518    -1714    -1917    -2039    -2126 
   -1987    -1584    -1269    -1185    -1279    -1556    -1869    -2038 
   -2062    -1983    -1796    -1532    -1382    -1487    -1637    -1694 
   -1799    -1929    -1942    -1825    -1576    -1305    -1229    -1405 
   -1719    -2020    -2134    -2018    -1804    -1595    -1459    -1441 
   -1499    -1630    -1849    -2038    -2116    -2052    -1763    -1366 
   -1158    -1212    -1412    -1705    -1998    -2107    -2030    -1904 
   -1741    -1516    -1402    -1522    -1674    -1680    -1655    -1698 
   -1742    -1771    -1773    -1668    -1561    -1651    -1819    -1853 
   -1800    -1719    -1555    -1377    -1327    -1471    -1806    -2141 
   -2218    -2056    -1834    -1603    -1379    -1296    -1432    -1680 
   -1876    -1968    -1954    -1796    -1599    -1501    -1429    -1408 
   -1552    -1736    -1852    -1949    -1915    -1664    -1453    -1499 
   -1696    -1853    -1895    -1833    -1740    -1667    -1630    -1629 
   -1636    -1663    -1729    -1757    -1728    -1715    -1701    -1663 
   -1675    -1695    -1645    -1645    -1707    -1660    -1595    -1657 
   -1713    -1730    -1767    -1714    -1661    -1779    -1880    -1842 
   -1827    -1800    -1674    -1576    -1498    -1347    -1256    -1269 
   -1255    -1263    -1343    -1421    -1556    -1799    -2070    -2366 
   -2610    -2616    -2408    -2169    -2010    -1948    -1881    -1709 
   -1522    -1391    -1202     -959     -857     -972    -1232    -1655 
   -2215    -2683    -2789    -2452    -1902    -1453    -1163     -981 
    -932     -962    -1078    -1397    -1796    -2018    -2037    -1949 
   -1872    -1984    -2278    -2488    -2388    -1902    -1171     -630 
    -477     -564     -972    -1840    -2952    -3852    -3963    -3009 
   -1439      -62      568      332     -602    -1864    -2862    -3172 
   -2918    -2416    -1857    -1410    -1135     -963     -967    -1219 
   -1536    -1701    -1655    -1578    -1771    -2258    -2677    -2686 
   -2297    -1729    -1163     -754     -567     -615    -1039    -1841 
   -2624    -3025    -2974    -2543    -1900    -1154     -384       33 
    -213     -920    -1794    -2577    -2933    -2953    -2899    -2563 
   -1885    -1317    -1028     -851     -774     -842    -1059    -1490 
   -2161    -2818    -3053    -2739    -2076    -1343     -810     -602 
    -657     -909    -1406    -2127    -2682    -2706    -2407    -2080 
   -1741    -1458    -1309    -1255    -1267    -1267    -1281    -1493 
   -1849    -2187    -2486    -2624    -2482    -2088    -1510     -957 
    -558     -345     -546    -1196    -1961    -2631    -3069    -3125 
   -2786    -2122    -1351     -764     -442     -414     -677    -1165 
   -1806    -2308    -2446    -2454    -2431    -2176    -1849    -1675 
   -1524    -1416    -1453    -1437    -1355    -1420    -1667    -2007 
   -2273    -2301    -2128    -1838    -1478    -1124     -950    -1158 
   -1532    -1645    -1564    -1543    -1651    -1953    -2216    -2097 
   -1840    -1798    -1877    -1926    -1817    -1459    -1104    -1028 
   -1192    -1537    -2030    -2459    -2627    -2412    -1827    -1274 
   -1077    -1040    -1061    -1242    -1482    -1803    -2258    -2515 
   -2353    -1930    -1502    -1313    -1399    -1521    -1522    -1540 
   -1691    -1837    -1917    -2014    -2052    -1942    -1757    -1493 
   -1148     -966    -1161    -1629    -2099    -2340    -2320    -2199 
   -1999    -1622    -1193     -950     -993    -1310    -1745    -2056 
   -2170    -2166    -2058    -1823    -1553    -1385    -1366    -1513 
   -1737    -1810    -1707    -1647    -1688    -1763    -1854    -1898 
   -1807    -1637    -1516    -1478    -1478    -1494    -1588    -1786 
   -1972    -2030    -1950    -1787    -1614    -1437    -1269    -1258 
   -1480    -1813    -2099    -2188    -2065    -1894    -1738    -1580 
   -1486    -1466    -1487    -1579    -1707    -1759    -1734    -1721 
   -1749    -1810    -1854    -1827    -1729    -1567    -1402    -1364 
   -1480    -1661    -1857    -2056    -2157    -2033    -1711    -1391 
   -1205    -1202    -1428    -1757    -1999    -2142    -2162    -1983 
   -1678    -1364    -1136    -1169    -1513    -1931    -2173    -2166 
   -1942    -1647    -1451    -1395    -1435    -1559    -1771    -1949 
   -1948    -1858    -1788    -1652    -1497    -1476    -1545    -1620 
   -1734    -1823    -1788    -1698    -1657    -1661    -1714    -1815 
   -1865    -1799    -1691    -1648    -1638    -1568    -1491    -1520 
   -1644    -1795    -1908    -1926    -1869    -1803    -1713    -1552 
   -1418    -1462    -1610    -1717    -1773    -1790    -1786    -1817 
   -1819    -1734    -1626    -1532    -1460    -1463    -1541    -1672 
   -1868    -2064    -2112    -2000    -1831    -1629    -1405    -1246 
   -1258    -1480    -1780    -2027    -2161    -2060    -1728    -1398 
   -1236    -1297    -1510    -1703    -1842    -1944    -1964    -1922 
   -1813    -1641    -1526    -1498    -1505    -1622    -1830    -1926 
   -1891    -1848    -1777    -1671    -1598    -1563    -1552    -1594 
   -1688    -1787    -1807    -1713    -1609    -1580    -1588    -1607 
   -1656    -1746    -1857    -1885    -1763    -1620    -1582    -1590 
   -1580    -1597    -1684    -1815    -1904    -1884    -1794    -1683 
   -1593    -1617    -1748    -1794    -1688    -1598    -1570    -1526 
   -1534    -1636    -1737    -1799    -1819    -1798    -1769    -1749 
   -1696    -1601    -1533    -1561    -1647    -1707    -1726    -1744 
   -1776    -1821    -1881    -1927    -1896    -1787    -1633    -1491 
   -1424    -1445    -1547    -1699    -1827    -1902    -1944    -1900 
   -1748    -1574    -1475    -1485    -1570    -1649    -1696    -1713 
   -1688    -1710    -1829    -1930    -1933    -1819    -1618    -1441 
   -1351    -1359    -1499    -1710    -1896    -2033    -2053    -1922 
   -1753    -1610    -1475    -1391    -1436    -1584    -1740    -1837 
   -1858    -1826    -1784    -1744    -1663    -1553    -1476    -1476 
   -1567    -1719    -1865    -1952    -1960    -1885    -1753    -1620 
   -1559    -1591    -1659    -1703    -1719    -1733    -1764    -1782 
   -1749    -1686    -1652    -1682    -1748    -1786    -1719    -1561 
   -1444    -1468    -1595    -1719    -1787    -1826    -1858    -1845 
   -1756    -1629    -1524    -1502    -1583    -1657    -1645    -1628 
   -1671    -1746    -1790    -1773    -1748    -1757    -1773    -1742 
   -1676    -1653    -1694    -1723    -1714    -1696    -1707    -1749 
   -1777    -1759    -1692    -1599    -1537    -1549    -1611    -1698 
   -1794    -1849    -1838    -1763    -1622    -1476    -1466    -1591 
   -1711    -1790    -1864    -1925    -1957    -1911    -1761    -1594 
   -1491    -1455    -1497    -1602    -1721    -1809    -1823    -1787 
   -1759    -1756    -1763    -1745    -1684    -1620    -1606    -1647 
   -1686    -1695    -1729    -1776    -1760    -1702    -1645    -1598 
   -1583    -1571    -1549    -1593    -1703    -1811    -1908    -1956 
   -1865    -1687    -1541    -1452    -1449    -1571    -1737    -1830 
   -1831    -1780    -1703    -1609    -1548    -1583    -1711    -1871 
   -1952    -1879    -1696    -1506    -1393    -1426    -1572    -1746 
   -1906    -1993    -1965    -1873    -1761    -1599    -1421    -1367 
   -1499    -1723    -1917    -1988    -1904    -1738    -1615    -1563 
   -1557    -1598    -1669    -1745    -1827    -1876    -1811    -1648 
   -1494    -1429    -1460    -1564    -1711    -1834    -1867    -1846 
