Origin Time       2025/01/26 08:11:00
Lat.              34.975
Long.             138.213
Depth. (km)       21
Mag.              3.4
Station Code      AIC013
Station Lat.      34.9529
Station Long.     137.6067
Station Height(m) 92
Record Time       2025/01/26 08:11:46
Sampling Freq(Hz) 100Hz
Duration Time(s)  60
Dir.              E-W
Scale Factor      7845(gal)/8223790
Max. Acc. (gal)   1.982
Last Correction   2025/01/26 08:11:45
Memo.             
[...]
  -12043   -12046   -12051   -12050   -12046   -12046   -12046   -12044 
  -12043   -12047   -12046   -12042   -12042   -12046   -12047   -12044 
  -12047   -12046   -12042   -12046   -12047   -12042   -12048   -12052 
  -12042   -12037   -12046   -12050   -12046   -12044   -12047   -12046 
  -12046   -12047   -12047   -12044   -12046   -12048   -12043   -12043 
  -12048   -12047   -12043   -12046   -12046   -12046   -12048   -12046 
  -12042   -12043   -12048   -12047   -12046   -12044   -12043   -12044 
  -12046   -12046   -12047   -12050   -12044   -12040   -12047   -12047 
  -12042   -12043   -12047   -12047   -12046   -12044   -12046   -12046 
  -12044   -12047   -12047   -12043   -12039   -12040   -12047   -12047 
  -12042   -12044   -12048   -12043   -12043   -12052   -12051   -12043 
  -12048   -12050   -12042   -12043   -12048   -12046   -12042   -12043 
  -12047   -12050   -12048   -12044   -12042   -12043   -12046   -12046 
  -12047   -12047   -12047   -12046   -12046   -12046   -12043   -12044 
  -12046   -12046   -12048   -12047   -12044   -12042   -12039   -12043 
  -12050   -12051   -12047   -12039   -12039   -12046   -12051   -12048 
  -12043   -12042   -12047   -12048   -12047   -12048   -12044   -12040 
  -12042   -12046   -12050   -12052   -12047   -12042   -12044   -12044 
  -12044   -12048   -12047   -12042   -12039   -12043   -12050   -12050 
  -12044   -12043   -12039   -12039   -12050   -12051   -12043   -12046 
  -12047   -12044   -12046   -12048   -12044   -12042   -12047   -12051 
  -12047   -12042   -12042   -12046   -12050   -12051   -12047   -12042 
  -12040   -12042   -12046   -12050   -12050   -12046   -12042   -12039 
  -12043   -12048   -12050   -12046   -12046   -12044   -12042   -12046 
  -12047   -12047   -12050   -12050   -12046   -12043   -12043   -12050 
  -12051   -12047   -12044   -12043   -12048   -12050   -12043   -12046 
  -12050   -12044   -12042   -12047   -12047   -12043   -12047   -12051 
  -12046   -12043   -12047   -12044   -12042   -12046   -12050   -12047 
  -12047   -12046   -12043   -12044   -12048   -12046   -12044   -12051 
  -12048   -12040   -12040   -12046   -12050   -12048   -12044   -12043 
  -12042   -12042   -12046   -12048   -12050   -12047   -12037   -12036 
  -12047   -12054   -12050   -12044   -12043   -12042   -12042   -12047 
  -12050   -12043   -12036   -12043   -12051   -12048   -12044   -12048 
  -12047   -12042   -12044   -12050   -12048   -12044   -12046   -12046 
  -12040   -12040   -12047   -12048   -12048   -12046   -12042   -12040 
  -12047   -12051   -12044   -12039   -12044   -12050   -12044   -12043 
  -12047   -12046   -12043   -12046   -12047   -12047   -12047   -12043 
  -12043   -12046   -12047   -12043   -12040   -12046   -12043   -12039 
  -12048   -12054   -12043   -12035   -12040   -12046   -12047   -12050 
  -12048   -12040   -12037   -12046   -12050   -12044   -12044   -12043 
  -12039   -12046   -12052   -12046   -12037   -12044   -12047   -12043 
  -12047   -12051   -12044   -12039   -12039   -12044   -12050   -12047 
  -12042   -12043   -12044   -12040   -12044   -12048   -12043   -12042 
  -12047   -12044   -12043   -12048   -12048   -12044   -12047   -12048 
  -12042   -12042   -12047   -12044   -12044   -12052   -12051   -12043 
  -12042   -12040   -12040   -12048   -12056   -12050   -12040   -12042 
  -12047   -12048   -12044   -12042   -12046   -12044   -12040   -12044 
  -12048   -12047   -12044   -12042   -12040   -12040   -12048   -12052 
  -12044   -12040   -12042   -12042   -12046   -12050   -12044   -12039 
  -12044   -12048   -12046   -12046   -12047   -12043   -12042   -12046 
  -12048   -12044   -12046   -12047   -12044   -12044   -12048   -12044 
  -12042   -12044   -12046   -12044   -12047   -12048   -12042   -12039 
  -12046   -12054   -12050   -12040   -12042   -12046   -12043   -12043 
  -12051   -12050   -12042   -12039   -12043   -12047   -12048   -12047 
  -12048   -12046   -12042   -12043   -12047   -12050   -12047   -12042 
  -12042   -12043   -12043   -12042   -12046   -12048   -12046   -12043 
  -12044   -12044   -12046   -12048   -12048   -12044   -12043   -12046 
  -12047   -12048   -12048   -12047   -12046   -12042   -12040   -12047 
  -12050   -12047   -12046   -12043   -12040   -12043   -12048   -12048 
  -12044   -12043   -12043   -12046   -12047   -12046   -12044   -12047 
  -12048   -12043   -12037   -12040   -12047   -12047   -12047   -12047 
  -12044   -12042   -12043   -12048   -12052   -12048   -12046   -12044 
  -12040   -12044   -12048   -12043   -12039   -12044   -12046   -12040 
  -12043   -12046   -12046   -12044   -12044   -12046   -12046   -12043 
  -12044   -12047   -12047   -12046   -12044   -12043   -12046   -12047 
  -12044   -12042   -12046   -12048   -12044   -12046   -12044   -12042 
  -12046   -12048   -12044   -12046   -12047   -12043   -12044   -12048 
  -12048   -12046   -12042   -12044   -12051   -12047   -12043   -12044 
  -12043   -12043   -12047   -12046   -12039   -12042   -12050   -12047 
  -12044   -12047   -12046   -12047   -12047   -12043   -12046   -12048 
  -12044   -12046   -12046   -12044   -12048   -12048   -12040   -12039 
  -12050   -12051   -12044   -12046   -12046   -12039   -12043   -12051 
  -12051   -12047   -12042   -12039   -12043   -12048   -12048   -12047 
  -12047   -12043   -12040   -12044   -12048   -12052   -12050   -12042 
  -12040   -12040   -12043   -12047   -12048   -12046   -12042   -12039 
  -12042   -12046   -12047   -12046   -12043   -12043   -12047   -12046 
  -12046   -12047   -12043   -12042   -12040   -12042   -12043   -12047 
  -12050   -12043   -12036   -12042   -12047   -12047   -12048   -12046 
  -12040   -12042   -12046   -12046   -12047   -12048   -12046   -12042 
  -12043   -12047   -12046   -12044   -12048   -12050   -12044   -12044 
  -12047   -12047   -12044   -12043   -12044   -12046   -12044   -12048 
  -12050   -12048   -12047   -12044   -12044   -12046   -12046   -12047 
  -12046   -12042   -12042   -12044   -12050   -12051   -12043   -12036 
  -12042   -12048   -12050   -12048   -12044   -12039   -12039   -12046 
  -12051   -12048   -12044   -12046   -12042   -12037   -12044   -12050 
  -12048   -12044   -12043   -12042   -12043   -12048   -12046   -12042 
  -12046   -12047   -12042   -12043   -12051   -12047   -12040   -12044 
  -12047   -12043   -12044   -12047   -12043   -12043   -12047   -12046 
  -12044   -12043   -12044   -12046   -12046   -12047   -12044   -12040 
  -12039   -12043   -12048   -12047   -12047   -12046   -12044   -12046 
  -12048   -12046   -12043   -12043   -12043   -12043   -12040   -12033 
  -12024   -12012   -12002   -11996   -11994   -12012   -12043   -12064 
  -12090   -12137   -12170   -12144   -12035   -11855   -11778   -11974 
  -12282   -12405   -12305   -12079   -11917   -12104   -12415   -12208 
  -11564   -11230   -11477   -12067   -12611   -12638   -12197   -11913 
  -11951   -11983   -11948   -11846   -11755   -12025   -12510   -12621 
  -12293   -11785   -11317   -11300   -11950   -12750   -12930   -12359 
  -11650   -11379   -11682   -12247   -12424   -12064   -11762   -11929 
  -12425   -12742   -12406   -11624   -11079   -11184   -11917   -12807 
  -13124   -12626   -11812   -11346   -11526   -12000   -12100   -11839 
  -11877   -12371   -12811   -12719   -12019   -11191   -10976   -11611 
  -12603   -13186   -12895   -11950   -11102   -11072   -11901   -12775 
  -12876   -12201   -11434   -11308   -11873   -12526   -12753   -12384 
  -11674   -11362   -11790   -12333   -12472   -12280   -11831   -11461 
  -11724   -12355   -12544   -12212   -11889   -11853   -12012   -12139 
  -12079   -11897   -11824   -12059   -12399   -12421   -12120   -11786 
  -11662   -11843   -12162   -12403   -12405   -12059   -11651   -11595 
  -11909   -12324   -12494   -12303   -12010   -11763   -11637   -11843 
  -12205   -12326   -12193   -11935   -11778   -11947   -12198   -12252 
  -12193   -12039   -11827   -11857   -12132   -12214   -12081   -12073 
  -12054   -11888   -11925   -12190   -12312   -12229   -11997   -11669 
  -11611   -11993   -12403   -12461   -12185   -11813   -11681   -11917 
  -12236   -12344   -12199   -11878   -11677   -11861   -12183   -12325 
  -12312   -12145   -11877   -11761   -11839   -11963   -12110   -12259 
  -12253   -12073   -11927   -11901   -11907   -11963   -12106   -12241 
  -12253   -12114   -11967   -11954   -11982   -12036   -12143   -12140 
  -12035   -11947   -11900   -12010   -12218   -12268   -12104   -11804 
  -11637   -11892   -12279   -12371   -12221   -12005   -11854   -11873 
  -11983   -12059   -12131   -12217   -12205   -12075   -11996   -11974 
  -11867   -11767   -11919   -12298   -12534   -12355   -11911   -11557 
  -11573   -11977   -12390   -12414   -12155   -11954   -11884   -11907 
  -12046   -12160   -12145   -12114   -12071   -11921   -11811   -11909 
  -12143   -12368   -12384   -12029   -11643   -11732   -12110   -12262 
  -12183   -12037   -11840   -11880   -12232   -12345   -12086   -11904 
  -11923   -11982   -12001   -11962   -11982   -12160   -12305   -12210 
  -11962   -11766   -11827   -12136   -12313   -12172   -11975   -11908 
  -11942   -12074   -12233   -12217   -11996   -11815   -11832   -11986 
  -12198   -12321   -12178   -11851   -11659   -11826   -12240   -12475 
  -12251   -11830   -11684   -11963   -12388   -12499   -12139   -11704 
  -11626   -11851   -12132   -12329   -12325   -12118   -11911   -11862 
  -11916   -11947   -12032   -12218   -12225   -12033   -11967   -12013 
  -12016   -12050   -12096   -12058   -12021   -12037   -11994   -11962 
  -12116   -12259   -12116   -11836   -11782   -11986   -12199   -12287 
  -12170   -11882   -11776   -12000   -12221   -12236   -12124   -11929 
  -11815   -11981   -12256   -12333   -12117   -11763   -11649   -11907 
  -12275   -12507   -12409   -11959   -11551   -11546   -11919   -12372 
  -12548   -12347   -11936   -11608   -11673   -12078   -12382   -12330 
  -12087   -11885   -11828   -11958   -12127   -12135   -12094   -12110 
  -12033   -11947   -12029   -12093   -12019   -11970   -11994   -12060 
  -12118   -12075   -12017   -12058   -12100   -12040   -11927   -11900 
  -12051   -12297   -12388   -12123   -11712   -11591   -11838   -12229 
  -12498   -12402   -11986   -11630   -11678   -12086   -12430   -12398 
  -12058   -11674   -11573   -11915   -12370   -12509   -12326   -12027 
  -11731   -11568   -11700   -12090   -12436   -12505   -12306   -11931 
  -11597   -11597   -11978   -12444   -12576   -12259   -11820   -11587 
  -11724   -12199   -12542   -12371   -11944   -11642   -11627   -11952 
  -12341   -12407   -12206   -11959   -11797   -11857   -12044   -12121 
  -12097   -12087   -12096   -12062   -11988   -11975   -11990   -11947 
  -11975   -12120   -12214   -12198   -12140   -12063   -11919   -11793 
  -11846   -12002   -12174   -12359   -12372   -12121   -11784   -11584 
  -11708   -12121   -12468   -12433   -12131   -11901   -11820   -11835 
  -11986   -12181   -12251   -12172   -12016   -11894   -11905   -12052 
  -12210   -12187   -12021   -11898   -11886   -12010   -12199   -12247 
  -12120   -11938   -11769   -11807   -12117   -12340   -12268   -12055 
  -11857   -11828   -11986   -12152   -12247   -12177   -11920   -11816 
  -11986   -12141   -12189   -12145   -11994   -11902   -11966   -12059 
  -12082   -12052   -12062   -12101   -12060   -11983   -11965   -11993 
  -12056   -12106   -12123   -12170   -12183   -12055   -11866   -11788 
  -11934   -12198   -12326   -12214   -11958   -11769   -11800   -11994 
  -12218   -12341   -12216   -11935   -11800   -11885   -12054   -12201 
  -12177   -11998   -11954   -12046   -12067   -12056   -12031   -11994 
  -12064   -12172   -12177   -12077   -11908   -11804   -11923   -12217 
  -12426   -12271   -11850   -11611   -11745   -12087   -12448   -12521 
  -12109   -11573   -11448   -11772   -12267   -12656   -12618   -12064 
  -11472   -11408   -11880   -12413   -12588   -12276   -11778   -11661 
  -12008   -12332   -12337   -12108   -11888   -11844   -11893   -11982 
  -12140   -12208   -12116   -12047   -12056   -12016   -11955   -11988 
  -12048   -12109   -12187   -12118   -11915   -11815   -11885   -12081 
  -12237   -12152   -11924   -11803   -11929   -12235   -12395   -12241 
  -11947   -11751   -11826   -12139   -12370   -12260   -11946   -11755 
  -11858   -12123   -12279   -12181   -11954   -11886   -11992   -12036 
  -12025   -12051   -12093   -12197   -12236   -12067   -11882   -11816 
  -11863   -12039   -12187   -12198   -12139   -12047   -11994   -12002 
  -12001   -12013   -12016   -11932   -11902   -12039   -12172   -12224 
  -12201   -12046   -11880   -11875   -11961   -12081   -12233   -12279 
  -12154   -11966   -11861   -11959   -12132   -12168   -12106   -12000 
  -11893   -11940   -12070   -12077   -12020   -12020   -12050   -12054 
  -12043   -12087   -12170   -12131   -11934   -11781   -11866   -12158 
  -12434   -12422   -12036   -11545   -11399   -11765   -12341   -12707 
  -12623   -12137   -11638   -11523   -11776   -12112   -12312   -12313 
  -12133   -11875   -11738   -11847   -12113   -12328   -12307   -12069 
  -11859   -11869   -12093   -12410   -12613   -12545   -12259   -11874 
  -11577   -11651   -12048   -12394   -12471   -12193   -11630   -11179 
  -11156   -11518   -12085   -12579   -12665   -12209   -11488   -11080 
  -11275   -11881   -12592   -13015   -12814   -12217   -11804   -11801 
  -12027   -12339   -12683   -12799   -12325   -11310   -10462   -10662 
  -12036   -13595   -14123   -13288   -11809   -10825   -11010   -11862 
  -12340   -12333   -12318   -12212   -11865   -11546   -11412   -11562 
  -12131   -12719   -12692   -12164   -11750   -11522   -11299   -11456 
  -12247   -12984   -12834   -11904   -11097   -11142   -11925   -12715 
  -12852   -12307   -11773   -11908   -12452   -12550   -12016   -11514 
  -11537   -11986   -12528   -12749   -12437   -11900   -11627   -11655 
  -11738   -11896   -12163   -12294   -12204   -12116   -12181   -12224 
  -11990   -11661   -11568   -11696   -11965   -12375   -12661   -12444 
  -11769   -11114   -10960   -11519   -12472   -13070   -12862   -12150 
  -11604   -11611   -12008   -12410   -12583   -12483   -12156   -11762 
  -11654   -12032   -12553   -12715   -12390   -11778   -11391   -11634 
  -12156   -12367   -12229   -11970   -11739   -11605   -11524   -11556 
  -11873   -12372   -12663   -12429   -11786   -11350   -11678   -12480 
  -12860   -12394   -11556   -11118   -11510   -12433   -13099   -13070 
  -12537   -11838   -11325   -11304   -11761   -12310   -12426   -12070 
  -11869   -12075   -12231   -12086   -11888   -11888   -12079   -12272 
  -12276   -11992   -11593   -11508   -11902   -12507   -12834   -12499 
  -11703   -11178   -11389   -12085   -12610   -12510   -11963   -11635 
  -11904   -12380   -12452   -12105   -11840   -11890   -12079   -12216 
  -12154   -11928   -11851   -11986   -12094   -12118   -12078   -11942 
  -11834   -11911   -12106   -12152   -11983   -11928   -12105   -12220 
  -12156   -11981   -11774   -11834   -12225   -12513   -12452   -12144 
  -11762   -11600   -11777   -12096   -12406   -12599   -12499   -12127 
  -11747   -11595   -11751   -12150   -12425   -12217   -11765   -11574 
  -11735   -12081   -12402   -12386   -11983   -11585   -11570   -11929 
  -12336   -12487   -12299   -11886   -11589   -11650   -11967   -12330 
  -12536   -12430   -12124   -11813   -11627   -11723   -12023   -12205 
  -12197   -12136   -12054   -11997   -12054   -12156   -12178   -12120 
  -12106   -12210   -12301   -12239   -12079   -11913   -11790   -11776 
  -11880   -12002   -12112   -12249   -12321   -12162   -11767   -11394 
  -11408   -11858   -12357   -12552   -12394   -12056   -11808   -11870 
  -12159   -12318   -12213   -12047   -11946   -11896   -11934   -12052 
  -12221   -12356   -12307   -12100   -11862   -11724   -11869   -12147 
  -12209   -12143   -12168   -12206   -12159   -11958   -11626   -11527 
  -11904   -12418   -12594   -12272   -11720   -11456   -11686   -12090 
  -12316   -12275   -12013   -11728   -11745   -12135   -12563   -12587 
  -12114   -11545   -11391   -11762   -12329   -12644   -12511   -12105 
  -11720   -11620   -11924   -12353   -12492   -12241   -11793   -11497 
  -11654   -12177   -12630   -12604   -12097   -11596   -11549   -11915 
  -12294   -12336   -12141   -12036   -12013   -11905   -11757   -11711 
  -11894   -12270   -12521   -12398   -11997   -11649   -11624   -11943 
  -12330   -12471   -12364   -12210   -12059   -11894   -11821   -11942 
  -12120   -12113   -12025   -12047   -12066   -12050   -12090   -12070 
  -11985   -11967   -11923   -11792   -11769   -11898   -12037   -12131 
  -12151   -12063   -11932   -11890   -12020   -12240   -12382   -12402 
  -12324   -12110   -11861   -11767   -11862   -12105   -12436   -12544 
  -12195   -11750   -11659   -11884   -12214   -12413   -12206   -11724 
  -11537   -11905   -12341   -12305   -11919   -11615   -11654   -12010 
  -12312   -12217   -11915   -11784   -11894   -12140   -12349   -12309 
  -12029   -11724   -11614   -11842   -12306   -12646   -12576   -12089 
  -11537   -11466   -12008   -12609   -12687   -12225   -11651   -11468 
  -11824   -12320   -12521   -12370   -11989   -11647   -11695   -12012 
  -12141   -12036   -11962   -12017   -12166   -12303   -12243   -11958 
  -11762   -11873   -12075   -12139   -12085   -11997   -11959   -12071 
  -12322   -12441   -12131   -11670   -11612   -11892   -12151   -12321 
  -12293   -11982   -11699   -11715   -11935   -12187   -12352   -12306 
  -12055   -11809   -11769   -11956   -12226   -12333   -12177   -11952 
  -11936   -12168   -12357   -12175   -11788   -11638   -11867   -12295 
  -12505   -12163   -11646   -11578   -11942   -12343   -12451   -12112 
  -11646   -11534   -11847   -12309   -12517   -12297   -11934   -11728 
  -11740   -11974   -12280   -12328   -12064   -11838   -11885   -12112 
  -12367   -12468   -12229   -11807   -11615   -11793   -12136   -12398 
  -12403   -12118   -11803   -11784   -12006   -12139   -12047   -11884 
  -11857   -12013   -12145   -12090   -12006   -12040   -12117   -12148 
  -12083   -11974   -11958   -11983   -11975   -12078   -12253   -12218 
  -12032   -11955   -11959   -11994   -12100   -12151   -12074   -12001 
  -12004   -12047   -12085   -12074   -12020   -11978   -11998   -12044 
  -12083   -12168   -12217   -12106   -11974   -11912   -11884   -11967 
  -12089   -12102   -12083   -12070   -12006   -11952   -11946   -11974 
  -12048   -12131   -12152   -12083   -11975   -11908   -11916   -12013 
  -12133   -12198   -12229   -12132   -11880   -11739   -11847   -12075 
  -12310   -12344   -12120   -11965   -12008   -12040   -12066   -12136 
  -12083   -11950   -11927   -11978   -12073   -12222   -12244   -12050 
  -11873   -11908   -12042   -12094   -12064   -12019   -11988   -12019 
  -12098   -12081   -11961   -11928   -12016   -12116   -12205   -12213 
  -12097   -11989   -11938   -11884   -11902   -12047   -12194   -12237 
  -12159   -12008   -11884   -11848   -11938   -12108   -12186   -12127 
  -12024   -11936   -11947   -12081   -12190   -12152   -11996   -11888 
  -11970   -12147   -12213   -12097   -11913   -11874   -12023   -12112 
  -12042   -12023   -12071   -12064   -12060   -12071   -12085   -12136 
  -12117   -11983   -11863   -11857   -12017   -12249   -12334   -12193 
