Origin Time       2025/01/26 08:11:00
Lat.              34.975
Long.             138.213
Depth. (km)       21
Mag.              3.4
Station Code      AIC013
Station Lat.      34.9529
Station Long.     137.6067
Station Height(m) 92
Record Time       2025/01/26 08:11:46
Sampling Freq(Hz) 100Hz
Duration Time(s)  60
Dir.              U-D
Scale Factor      7845(gal)/8223790
Max. Acc. (gal)   0.712
Last Correction   2025/01/26 08:11:45
Memo.             
   30450    30454    30456    30454    30456    30457    30451    30450 
   30457    30457    30451    30453    30456    30453    30454    30458 
   30454    30447    30451    30457    30451    30447    30456    30458 
   30453    30456    30456    30449    30453    30457    30453    30450 
   30454    30460    30457    30453    30454    30456    30453    30453 
   30456    30456    30453    30454    30454    30450    30450    30457 
   30454    30453    30460    30457    30449    30453    30460    30453 
   30451    30460    30456    30446    30451    30456    30451    30454 
   30460    30454    30449    30456    30457    30449    30451    30460 
   30456    30449    30454    30457    30450    30453    30460    30453 
   30446    30454    30457    30450    30451    30458    30454    30450 
   30456    30457    30453    30451    30454    30456    30456    30453 
   30450    30451    30456    30456    30453    30454    30456    30456 
   30451    30451    30454    30451    30451    30453    30453    30453 
   30454    30454    30453    30454    30457    30456    30453    30453 
   30454    30456    30456    30453    30453    30456    30454    30453 
   30454    30454    30451    30453    30457    30457    30453    30450 
   30453    30456    30454    30456    30458    30457    30451    30453 
   30454    30453    30453    30456    30457    30456    30453    30454 
   30458    30457    30451    30453    30457    30453    30453    30460 
   30456    30450    30454    30456    30451    30453    30456    30454 
   30451    30457    30457    30453    30457    30462    30457    30450 
   30454    30460    30456    30450    30456    30457    30451    30454 
   30458    30451    30451    30458    30453    30447    30456    30458 
   30449    30447    30456    30456    30453    30456    30458    30453 
   30451    30458    30454    30449    30454    30457    30451    30454 
   30460    30453    30450    30454    30456    30453    30451    30451 
   30453    30454    30456    30456    30453    30456    30454    30449 
   30450    30456    30454    30450    30454    30454    30451    30454 
   30457    30453    30454    30460    30456    30447    30454    30458 
   30449    30449    30458    30458    30450    30453    30458    30449 
   30446    30456    30454    30449    30457    30460    30450    30449 
   30458    30457    30449    30453    30458    30454    30453    30454 
   30453    30451    30457    30457    30450    30451    30457    30456 
   30453    30454    30456    30453    30454    30456    30453    30453 
   30454    30456    30454    30454    30453    30451    30454    30456 
   30453    30456    30458    30454    30450    30456    30457    30451 
   30451    30457    30454    30450    30456    30457    30449    30450 
   30457    30453    30449    30454    30457    30451    30451    30458 
   30454    30450    30460    30457    30446    30453    30464    30454 
   30449    30456    30458    30450    30450    30457    30453    30450 
   30457    30456    30451    30454    30458    30457    30456    30456 
   30456    30454    30454    30456    30454    30451    30451    30454 
   30453    30453    30456    30457    30456    30454    30456    30457 
   30456    30456    30457    30453    30450    30454    30454    30449 
   30450    30457    30454    30451    30454    30453    30451    30456 
   30457    30451    30451    30457    30454    30450    30454    30458 
   30453    30451    30457    30454    30450    30456    30456    30450 
   30453    30458    30457    30451    30453    30460    30456    30450 
   30457    30461    30451    30453    30461    30457    30450    30454 
   30457    30453    30454    30458    30453    30447    30456    30460 
   30451    30450    30457    30457    30454    30454    30456    30454 
   30453    30457    30454    30453    30458    30454    30447    30454 
   30461    30454    30451    30457    30457    30453    30457    30460 
   30453    30451    30460    30457    30451    30456    30457    30451 
   30453    30460    30454    30447    30456    30457    30447    30451 
   30461    30453    30449    30457    30454    30446    30454    30462 
   30453    30446    30456    30460    30450    30449    30458    30456 
   30450    30457    30457    30447    30451    30461    30454    30449 
   30458    30460    30451    30454    30461    30454    30449    30456 
   30456    30453    30456    30457    30453    30451    30458    30460 
   30451    30454    30458    30450    30449    30457    30457    30453 
   30457    30457    30450    30451    30460    30457    30450    30454 
   30456    30454    30453    30454    30456    30454    30453    30454 
   30454    30450    30450    30454    30456    30453    30453    30457 
   30458    30453    30451    30456    30453    30453    30456    30456 
   30451    30451    30457    30457    30454    30454    30454    30451 
   30453    30456    30454    30454    30457    30456    30454    30457 
   30457    30450    30451    30460    30458    30450    30453    30458 
   30451    30450    30458    30456    30449    30457    30458    30450 
   30450    30458    30456    30449    30454    30456    30449    30451 
   30458    30454    30449    30456    30458    30450    30451    30460 
   30456    30447    30454    30458    30451    30451    30458    30454 
   30450    30458    30456    30446    30454    30458    30450    30451 
   30458    30453    30450    30457    30458    30451    30450    30457 
   30454    30449    30456    30457    30450    30451    30457    30454 
   30450    30456    30457    30453    30454    30457    30451    30450 
   30456    30456    30453    30453    30453    30451    30451    30454 
   30456    30453    30453    30454    30456    30456    30454    30456 
   30454    30451    30450    30454    30457    30456    30453    30454 
   30454    30454    30454    30454    30456    30454    30454    30456 
   30454    30454    30454    30451    30453    30456    30456    30453 
   30454    30456    30456    30451    30456    30457    30450    30451 
   30458    30456    30450    30453    30454    30451    30454    30457 
   30449    30446    30456    30458    30451    30453    30460    30454 
   30450    30456    30456    30450    30451    30457    30454    30450 
   30453    30454    30450    30453    30457    30453    30450    30457 
   30457    30453    30457    30457    30450    30454    30460    30454 
   30451    30458    30458    30450    30453    30460    30453    30447 
   30457    30458    30451    30456    30457    30451    30453    30457 
   30457    30453    30454    30458    30453    30447    30454    30458 
   30453    30453    30454    30453    30456    30457    30451    30454 
   30456    30454    30456    30456    30454    30451    30450    30454 
   30457    30456    30454    30454    30451    30453    30456    30453 
   30451    30456    30456    30450    30450    30457    30457    30454 
   30456    30454    30453    30457    30454    30451    30457    30457 
   30451    30453    30457    30453    30454    30458    30454    30450 
   30453    30456    30453    30451    30457    30454    30450    30454 
   30457    30453    30449    30453    30450    30442    30438    30427 
   30412    30406    30400    30407    30445    30483    30496    30539 
   30604    30582    30464    30285    30117    30280    30740    30852 
   30689    30731    30555    30226    30447    30457    29708    29790 
   30985    31187    30294    30061    30219    30110    30534    31072 
   30794    30435    30379    30204    30202    30441    30483    30514 
   30681    30511    30248    30608    30913    30373    29932    30213 
   30514    30593    30609    30577    30717    30796    30416    30073 
   30111    30188    30307    30545    30632    30551    30495    30480 
   30399    30283    30379    30628    30649    30504    30468    30397 
   30300    30465    30636    30424    30230    30460    30650    30511 
   30483    30615    30496    30258    30292    30422    30370    30330 
   30469    30669    30616    30295    30356    30703    30472    30215 
   30634    30673    30154    30300    30678    30373    30252    30685 
   30703    30276    30175    30468    30649    30485    30345    30495 
   30612    30515    30420    30408    30368    30322    30447    30616 
   30487    30292    30418    30543    30404    30377    30558    30554 
   30380    30395    30505    30472    30435    30484    30493    30497 
   30534    30466    30338    30341    30387    30396    30499    30589 
   30470    30368    30491    30527    30368    30433    30596    30424 
   30314    30542    30581    30387    30383    30450    30414    30427 
   30451    30430    30473    30504    30477    30522    30499    30326 
   30311    30511    30627    30615    30528    30338    30298    30505 
   30532    30354    30424    30595    30449    30289    30375    30411 
   30445    30574    30456    30227    30380    30730    30746    30384 
   30181    30423    30627    30488    30346    30443    30588    30493 
   30321    30437    30574    30404    30322    30511    30555    30453 
   30462    30466    30415    30442    30441    30375    30454    30593 
   30522    30353    30350    30484    30514    30393    30384    30504 
   30470    30368    30449    30572    30539    30418    30348    30429 
   30586    30514    30294    30422    30663    30460    30235    30431 
   30599    30488    30369    30385    30477    30511    30437    30433 
   30559    30504    30294    30395    30604    30434    30311    30584 
   30640    30312    30299    30601    30564    30323    30376    30485 
   30375    30377    30597    30601    30365    30372    30569    30485 
   30330    30505    30589    30346    30353    30612    30527    30308 
   30450    30596    30391    30296    30497    30507    30372    30456 
   30497    30343    30354    30566    30605    30408    30348    30537 
   30572    30385    30404    30572    30477    30323    30461    30593 
   30457    30377    30510    30511    30310    30307    30523    30515 
   30362    30478    30612    30389    30237    30493    30642    30415 
   30338    30500    30501    30458    30508    30460    30442    30519 
   30427    30326    30476    30565    30434    30393    30511    30527 
   30412    30365    30403    30454    30535    30557    30443    30335 
   30372    30484    30500    30447    30478    30501    30439    30423 
   30457    30466    30442    30426    30449    30441    30424    30492 
   30515    30422    30408    30514    30512    30424    30453    30469 
   30362    30439    30620    30456    30289    30542    30627    30319 
   30283    30516    30483    30339    30435    30524    30411    30349 
   30474    30566    30514    30466    30500    30489    30416    30419 
   30468    30488    30539    30519    30357    30306    30449    30541 
   30458    30387    30493    30577    30408    30269    30446    30596 
   30477    30460    30547    30365    30233    30488    30636    30435 
   30321    30450    30534    30460    30410    30487    30527    30426 
   30406    30546    30520    30335    30407    30592    30484    30342 
   30466    30550    30407    30337    30466    30561    30505    30443 
   30454    30430    30354    30406    30538    30501    30403    30464 
   30508    30412    30376    30439    30462    30466    30484    30457 
   30445    30493    30487    30387    30375    30504    30519    30435 
   30508    30495    30307    30396    30603    30474    30345    30489 
   30532    30361    30352    30580    30619    30358    30276    30488 
   30534    30433    30520    30547    30383    30407    30487    30388 
   30497    30634    30341    30258    30615    30582    30289    30389 
   30549    30460    30402    30439    30469    30460    30454    30518 
   30474    30304    30383    30570    30470    30407    30568    30554 
   30391    30369    30419    30437    30460    30491    30457    30412 
   30493    30562    30461    30380    30438    30496    30505    30492 
   30407    30337    30431    30514    30430    30397    30466    30457 
   30423    30464    30465    30424    30501    30573    30446    30339 
   30407    30468    30492    30534    30537    30466    30337    30316 
   30489    30582    30499    30462    30453    30372    30381    30514 
   30553    30481    30470    30493    30406    30341    30439    30495 
   30404    30375    30442    30450    30439    30489    30485    30439 
   30507    30535    30416    30414    30500    30437    30383    30456 
   30476    30423    30439    30531    30539    30445    30468    30564 
   30443    30292    30450    30582    30360    30211    30433    30613 
   30510    30441    30524    30472    30350    30476    30603    30429 
   30285    30387    30495    30514    30489    30429    30383    30415 
   30514    30551    30478    30402    30368    30411    30546    30588 
   30454    30329    30354    30496    30588    30531    30420    30369 
   30410    30461    30418    30399    30466    30465    30451    30539 
   30558    30466    30454    30468    30361    30325    30485    30545 
   30422    30445    30565    30518    30406    30357    30357    30439 
   30501    30433    30395    30510    30578    30468    30380    30423 
   30454    30491    30547    30495    30439    30493    30449    30276 
   30292    30515    30608    30514    30470    30474    30357    30258 
   30379    30543    30549    30516    30515    30450    30377    30412 
   30472    30460    30454    30523    30545    30434    30362    30411 
   30420    30426    30515    30487    30360    30457    30624    30499 
   30354    30473    30546    30414    30345    30408    30433    30422 
   30470    30488    30456    30512    30534    30372    30292    30476 
   30600    30426    30237    30307    30443    30402    30291    30326 
   30422    30361    30318    30483    30578    30491    30485    30562 
   30589    30636    30680    30628    30600    30665    30694    30643 
   30589    30577    30530    30435    30453    30488    30330    30245 
   30451    30549    30304    30204    30586    30881    30531    30114 
   30360    30726    30385    29856    29983    30349    30291    30202 
   30476    30557    30206    30218    30769    30905    30480    30346 
   30526    30456    30322    30383    30373    30396    30635    30597 
   30292    30489    30924    30747    30366    30481    30601    30235 
   30046    30481    30732    30364    30231    30622    30638    30242 
   30368    30828    30767    30491    30557    30559    30267    30245 
   30662    30844    30488    30246    30441    30397    29999    30068 
   30543    30518    30184    30308    30504    30299    30244    30487 
   30458    30237    30306    30565    30672    30618    30514    30385 
   30366    30528    30634    30554    30537    30674    30759    30666 
   30481    30380    30441    30528    30528    30488    30446    30430 
   30491    30524    30406    30306    30385    30435    30321    30246 
   30322    30420    30442    30418    30396    30335    30223    30254 
   30520    30699    30558    30370    30424    30600    30620    30511 
   30514    30561    30451    30380    30523    30669    30639    30534 
   30503    30510    30385    30235    30302    30453    30447    30383 
   30411    30507    30565    30457    30287    30360    30541    30434 
   30221    30275    30411    30403    30462    30596    30568    30460 
   30431    30468    30532    30515    30424    30426    30456    30430 
   30468    30520    30434    30338    30447    30597    30518    30384 
   30472    30596    30512    30384    30407    30470    30485    30523 
   30558    30526    30439    30343    30361    30474    30456    30356 
   30391    30481    30474    30381    30299    30387    30562    30500 
   30329    30439    30584    30461    30443    30638    30601    30406 
   30441    30535    30458    30420    30535    30572    30434    30346 
   30414    30396    30271    30312    30404    30315    30291    30454 
   30520    30450    30443    30514    30565    30539    30474    30501 
   30566    30501    30412    30472    30557    30510    30419    30431 
   30512    30534    30474    30430    30470    30495    30443    30465 
   30555    30504    30362    30358    30451    30473    30431    30412 
   30377    30326    30407    30511    30393    30316    30514    30611 
   30441    30345    30465    30547    30449    30397    30512    30538 
   30422    30380    30430    30450    30437    30446    30445    30415 
   30434    30435    30387    30451    30543    30491    30447    30473 
   30465    30434    30408    30451    30537    30492    30416    30504 
   30568    30469    30441    30515    30469    30385    30476    30565 
   30450    30379    30499    30526    30410    30411    30500    30476 
   30400    30437    30508    30451    30349    30393    30505    30468 
   30343    30341    30460    30547    30499    30384    30395    30497 
   30483    30429    30473    30461    30387    30470    30596    30524 
   30403    30422    30462    30431    30474    30541    30414    30322 
   30488    30541    30341    30296    30489    30572    30434    30354 
   30499    30582    30445    30379    30458    30422    30325    30391 
   30496    30453    30414    30519    30569    30453    30399    30488 
   30504    30443    30488    30564    30512    30449    30492    30464 
   30345    30431    30584    30456    30338    30499    30554    30391 
   30383    30510    30487    30399    30441    30462    30343    30307 
   30424    30466    30435    30485    30503    30414    30397    30483 
   30485    30397    30377    30449    30493    30478    30472    30499 
   30515    30508    30495    30491    30507    30496    30430    30423 
   30491    30470    30397    30427    30476    30447    30454    30528 
   30543    30474    30403    30407    30464    30461    30388    30360 
   30411    30477    30460    30416    30499    30553    30424    30373 
   30485    30477    30375    30411    30458    30393    30437    30542 
   30454    30383    30532    30569    30380    30337    30493    30543 
   30485    30496    30492    30419    30420    30478    30462    30406 
   30375    30375    30420    30497    30534    30493    30441    30426 
   30389    30364    30439    30491    30427    30439    30534    30480 
   30377    30454    30541    30457    30391    30465    30527    30472 
   30420    30485    30522    30422    30406    30537    30526    30377 
   30416    30551    30461    30327    30446    30554    30420    30353 
   30492    30514    30369    30343    30446    30489    30472    30458 
   30458    30461    30466    30507    30564    30546    30469    30423 
   30439    30481    30478    30434    30430    30454    30406    30354 
   30438    30522    30461    30403    30431    30429    30410    30446 
   30470    30449    30411    30403    30443    30458    30445    30484 
   30489    30416    30437    30538    30510    30422    30474    30557 
   30470    30389    30503    30557    30423    30395    30507    30510 
   30429    30423    30461    30456    30434    30447    30460    30451 
   30458    30454    30414    30383    30422    30492    30462    30393 
   30442    30492    30447    30418    30418    30433    30493    30491 
   30415    30450    30510    30434    30430    30543    30514    30416 
   30450    30483    30400    30339    30427    30541    30485    30383 
