Origin Time       2025/01/26 08:11:00
Lat.              34.975
Long.             138.213
Depth. (km)       21
Mag.              3.4
Station Code      AIC013
Station Lat.      34.9529
Station Long.     137.6067
Station Height(m) 92
Record Time       2025/01/26 08:11:46
Sampling Freq(Hz) 100Hz
Duration Time(s)  60
Dir.              N-S
Scale Factor      7845(gal)/8223790
Max. Acc. (gal)   1.916
Last Correction   2025/01/26 08:11:45
Memo.             
[...]
    2477     2479     2477     2477     2482     2479     2473     2475 
    2478     2474     2478     2484     2478     2473     2474     2479 
    2481     2481     2478     2473     2474     2482     2484     2478 
    2473     2475     2481     2475     2473     2479     2484     2478 
    2471     2474     2481     2482     2478     2470     2471     2479 
    2481     2478     2477     2479     2478     2474     2479     2485 
    2482     2474     2473     2477     2482     2482     2475     2473 
    2479     2481     2478     2478     2478     2478     2477     2474 
    2475     2479     2481     2478     2475     2474     2475     2477 
    2478     2484     2486     2473     2466     2477     2482     2481 
    2481     2479     2477     2478     2477     2478     2482     2482 
    2477     2475     2479     2481     2479     2478     2475     2474 
    2479     2481     2477     2475     2478     2477     2474     2475 
    2479     2481     2478     2474     2477     2482     2479     2475 
    2475     2477     2477     2478     2478     2478     2477     2475 
    2475     2479     2482     2482     2479     2473     2474     2482 
    2485     2478     2473     2474     2477     2475     2477     2481 
    2481     2479     2475     2473     2481     2486     2478     2470 
    2470     2481     2489     2482     2471     2467     2474     2484 
    2485     2479     2474     2474     2474     2478     2482     2479 
    2477     2477     2475     2479     2482     2475     2475     2481 
    2479     2478     2478     2478     2479     2477     2477     2479 
    2479     2478     2477     2477     2477     2477     2481     2481 
    2477     2474     2478     2481     2479     2474     2471     2475 
    2484     2486     2475     2470     2478     2481     2478     2477 
    2478     2478     2474     2475     2477     2473     2474     2481 
    2485     2484     2474     2470     2478     2484     2484     2482 
    2473     2467     2475     2485     2485     2475     2471     2477 
    2478     2478     2479     2477     2475     2479     2479     2478 
    2475     2474     2484     2485     2477     2471     2475     2481 
    2482     2477     2473     2477     2481     2482     2481     2478 
    2474     2474     2482     2486     2481     2473     2473     2479 
    2484     2479     2477     2477     2478     2481     2478     2477 
    2482     2479     2473     2478     2484     2478     2477     2478 
    2478     2478     2481     2482     2479     2477     2477     2479 
    2481     2478     2478     2479     2475     2473     2478     2485 
    2488     2477     2465     2474     2493     2488     2469     2467 
    2481     2484     2478     2478     2478     2478     2479     2478 
    2475     2477     2482     2478     2475     2477     2477     2481 
    2485     2477     2467     2473     2486     2488     2471     2467 
    2478     2486     2481     2469     2470     2481     2484     2481 
    2475     2474     2477     2479     2481     2485     2481     2474 
    2478     2481     2470     2467     2479     2486     2481     2473 
    2474     2481     2479     2474     2477     2479     2478     2478 
    2477     2477     2479     2475     2477     2485     2481     2471 
    2477     2488     2484     2473     2470     2481     2485     2481 
    2474     2471     2481     2489     2477     2469     2475     2484 
    2484     2477     2474     2482     2485     2477     2474     2475 
    2478     2479     2478     2475     2475     2479     2484     2481 
    2473     2471     2478     2485     2485     2478     2473     2473 
    2474     2478     2485     2482     2474     2474     2475     2473 
    2479     2488     2481     2471     2471     2477     2481     2481 
    2478     2474     2474     2481     2481     2473     2477     2489 
    2485     2470     2465     2475     2486     2485     2475     2473 
    2477     2482     2481     2474     2477     2484     2482     2475 
    2477     2477     2475     2478     2484     2481     2475     2475 
    2478     2477     2479     2484     2481     2475     2474     2482 
    2484     2474     2469     2474     2484     2486     2477     2469 
    2474     2485     2485     2474     2470     2478     2486     2482 
    2474     2474     2478     2477     2474     2477     2482     2481 
    2475     2473     2475     2478     2481     2481     2477     2477 
    2475     2473     2479     2486     2477     2467     2474     2484 
    2481     2475     2478     2482     2478     2475     2477     2478 
    2479     2484     2478     2473     2479     2479     2473     2475 
    2484     2481     2475     2475     2477     2475     2477     2481 
    2482     2477     2473     2471     2475     2484     2481     2473 
    2475     2482     2479     2474     2475     2477     2479     2482 
    2479     2473     2471     2477     2479     2478     2478     2479 
    2477     2474     2477     2477     2478     2484     2484     2474 
    2470     2478     2481     2477     2478     2485     2479     2470 
    2471     2477     2479     2481     2479     2475     2475     2475 
    2474     2474     2481     2484     2478     2474     2473     2477 
    2482     2481     2475     2475     2478     2475     2474     2478 
    2482     2484     2478     2470     2473     2478     2481     2484 
    2481     2473     2471     2477     2484     2485     2478     2473 
    2473     2477     2479     2479     2482     2482     2475     2473 
    2481     2481     2475     2477     2481     2482     2478     2470 
    2471     2478     2485     2485     2474     2470     2475     2478 
    2484     2484     2477     2473     2474     2478     2481     2477 
    2473     2477     2484     2481     2474     2473     2478     2484 
    2481     2473     2471     2477     2478     2475     2478     2481 
    2481     2477     2470     2474     2484     2486     2478     2473 
    2473     2478     2479     2479     2484     2479     2473     2473 
    2477     2482     2485     2475     2473     2481     2482     2473 
    2467     2477     2488     2486     2477     2469     2470     2482 
    2486     2479     2473     2474     2475     2479     2481     2478 
    2477     2477     2474     2477     2479     2479     2479     2478 
    2473     2470     2477     2484     2484     2475     2466     2471 
    2484     2485     2475     2471     2477     2484     2479     2471 
    2474     2479     2481     2478     2473     2477     2485     2484 
    2474     2470     2478     2486     2482     2477     2475     2475 
    2477     2482     2482     2475     2471     2477     2484     2482 
    2474     2469     2471     2475     2475     2473     2469     2474 
    2489     2498     2502     2501     2482     2461     2435     2407 
    2447     2555     2596     2582     2574     2442     2278     2335 
    2436     2428     2579     2790     2654     2342     2195     2151 
    2258     2612     2913     2947     2783     2396     1908     1726 
    2023     2658     3288     3304     2631     1987     1771     2023 
    2682     3106     2832     2316     2095     2141     2369     2818 
    3091     2866     2416     2039     1998     2334     2681     2843 
    2751     2398     2114     2146     2416     2691     2755     2596 
    2328     2178     2324     2516     2528     2458     2424     2610 
    2955     2934     2377     1844     1904     2469     2964     2943 
    2504     2170     2266     2596     2779     2660     2374     2195 
    2212     2293     2409     2573     2663     2631     2498     2335 
    2365     2633     2781     2579     2277     2184     2339     2644 
    2862     2736     2405     2218     2289     2504     2605     2484 
    2328     2309     2462     2685     2712     2447     2160     2103 
    2339     2735     2930     2758     2401     2154     2234     2497 
    2635     2643     2593     2533     2517     2434     2299     2295 
    2396     2570     2763     2678     2363     2224     2300     2423 
    2578     2683     2613     2465     2347     2243     2280     2497 
    2628     2616     2600     2498     2326     2324     2519     2717 
    2778     2608     2296     2115     2173     2454     2847     2929 
    2527     2127     2074     2257     2585     2836     2690     2324 
    2147     2284     2631     2882     2731     2366     2192     2304 
    2581     2758     2605     2317     2257     2454     2659     2656 
    2474     2311     2277     2394     2604     2678     2539     2408 
    2370     2359     2444     2547     2528     2517     2509     2388 
    2334     2500     2683     2656     2478     2331     2280     2353 
    2571     2806     2775     2357     1942     2045     2585     3026 
    3002     2556     2056     1919     2215     2646     2909     2845 
    2502     2168     2137     2431     2775     2832     2519     2137 
    2066     2369     2795     2988     2678     2111     1937     2312 
    2772     2933     2712     2289     2065     2223     2570     2828 
    2764     2417     2169     2249     2524     2752     2728     2486 
    2245     2155     2319     2650     2855     2758     2413     2130 
    2154     2374     2683     2921     2725     2258     2095     2280 
    2474     2598     2662     2616     2521     2421     2324     2330 
    2471     2636     2682     2544     2351     2305     2408     2570 
    2679     2596     2384     2268     2335     2516     2655     2625 
    2436     2245     2236     2416     2658     2812     2686     2351 
    2139     2216     2515     2821     2843     2544     2211     2126 
    2377     2743     2826     2521     2141     2052     2343     2732 
    2862     2677     2374     2172     2239     2571     2835     2714 
    2378     2195     2280     2527     2697     2674     2574     2424 
    2261     2265     2425     2582     2644     2548     2389     2309 
    2299     2416     2666     2799     2610     2258     2149     2401 
    2693     2767     2585     2286     2192     2413     2698     2772 
    2578     2261     2137     2392     2743     2786     2528     2235 
    2119     2317     2675     2781     2569     2328     2273     2467 
    2704     2658     2393     2232     2347     2650     2816     2610 
    2247     2134     2342     2624     2762     2654     2361     2158 
    2238     2517     2775     2758     2478     2250     2263     2477 
    2687     2664     2430     2234     2273     2532     2768     2716 
    2434     2228     2230     2394     2637     2770     2675     2446 
    2224     2172     2417     2762     2805     2548     2292     2212 
    2366     2637     2728     2550     2340     2293     2392     2527 
    2578     2540     2502     2463     2401     2358     2358     2451 
    2623     2693     2593     2440     2290     2247     2439     2689 
    2724     2570     2405     2335     2376     2467     2512     2471 
    2419     2469     2585     2617     2531     2412     2336     2357 
    2481     2648     2689     2465     2224     2259     2458     2670 
    2767     2556     2235     2208     2424     2594     2643     2535 
    2354     2388     2605     2685     2569     2374     2263     2423 
    2668     2655     2448     2274     2254     2446     2631     2586 
    2465     2389     2312     2340     2542     2686     2612     2477 
    2412     2384     2421     2554     2678     2673     2490     2261 
    2201     2373     2650     2791     2637     2339     2166     2247 
    2519     2729     2722     2532     2280     2196     2389     2636 
    2708     2602     2420     2293     2315     2452     2608     2656 
    2551     2389     2286     2313     2458     2604     2662     2598 
    2442     2312     2349     2546     2691     2601     2386     2276 
    2338     2497     2605     2559     2428     2376     2451     2575 
    2651     2565     2308     2188     2363     2609     2741     2686 
    2465     2281     2262     2411     2647     2737     2569     2327 
    2226     2323     2519     2651     2678     2609     2447     2300 
    2286     2417     2601     2654     2542     2417     2323     2293 
    2423     2604     2632     2546     2455     2369     2382     2521 
    2578     2521     2469     2413     2405     2490     2570     2565 
    2446     2319     2373     2552     2641     2601     2479     2340 
    2331     2477     2628     2623     2420     2223     2311     2646 
    2835     2643     2284     2083     2209     2596     2860     2705 
    2311     2112     2309     2682     2839     2639     2304     2174 
    2332     2567     2702     2682     2494     2278     2245     2415 
    2609     2662     2601     2502     2377     2288     2332     2547 
    2743     2664     2413     2239     2239     2451     2733     2794 
    2560     2238     2114     2320     2646     2785     2663     2403 
    2215     2257     2435     2598     2674     2589     2420     2349 
    2393     2486     2573     2565     2500     2475     2455     2458 
    2527     2560     2527     2459     2359     2350     2490     2620 
    2644     2590     2457     2319     2301     2419     2612     2705 
    2539     2222     1995     2004     2289     2681     2787     2466 
    2091     2068     2425     2852     2979     2725     2370     2274 
    2573     3072     3407     3307     2851     2459     2466     2673 
    2551     1948     1358     1366     2081     3087     3613     3176 
    2126     1119      668     1183     2524     3909     4486     3746 
    2122      908      938     1942     3211     4024     3727     2500 
    1533     1576     2134     2555     2713     2544     2120     1919 
    2223     2749     3078     2887     2295     2003     2354     2882 
    3169     3180     3003     2737     2385     2092     2134     2401 
    2689     3117     3429     2917     1644      777     1229     2540 
    3524     3462     2513     1443     1134     1971     3226     3604 
    2895     1942     1393     1603     2486     3180     2984     2255 
    1900     2343     3117     3423     2965     2196     1887     2411 
    3326     3696     3036     1949     1507     1968     2655     2964 
    2829     2417     1999     1983     2502     2998     2868     2292 
    1861     1912     2311     2674     2799     2632     2218     1948 
    2245     2920     3235     2789     2062     1734     1931     2432 
    2903     3073     2948     2619     2296     2288     2512     2616 
    2513     2386     2465     2714     2797     2569     2235     2030 
    2104     2388     2552     2409     2168     2182     2539     2907 
    2893     2478     2076     2042     2393     2916     3177     2822 
    2088     1690     2081     2878     3279     2938     2197     1728 
    1919     2525     3015     3061     2675     2143     1923     2301 
    2903     3072     2717     2253     2023     2139     2504     2775 
    2695     2444     2366     2596     2884     2764     2232     1858 
    2014     2544     3006     3071     2727     2124     1665     1814 
    2388     2798     2762     2359     2023     2222     2824     3223 
    2974     2276     1877     2220     2866     3083     2673     2072 
    1921     2404     3011     3107     2648     2178     2120     2365 
    2598     2624     2482     2417     2563     2727     2582     2196 
    2034     2274     2598     2718     2581     2312     2168     2209 
    2300     2434     2613     2701     2662     2496     2238     2124 
    2322     2655     2860     2775     2455     2276     2466     2737 
    2731     2448     2176     2214     2559     2893     2893     2471 
    1934     1830     2311     2901     3110     2876     2467     2173 
    2114     2272     2570     2814     2760     2419     2128     2181 
    2543     2895     2870     2444     2029     1988     2305     2671 
    2779     2600     2336     2191     2259     2488     2670     2677 
    2535     2289     2118     2285     2641     2774     2631     2413 
    2293     2384     2631     2783     2655     2366     2232     2421 
    2751     2941     2845     2497     2185     2187     2376     2562 
    2677     2547     2249     2185     2411     2596     2581     2479 
    2398     2334     2272     2270     2363     2494     2631     2745 
    2714     2469     2161     2107     2438     2826     2891     2639 
    2255     2011     2188     2643     2928     2822     2455     2150 
    2161     2447     2725     2745     2559     2392     2305     2281 
    2432     2732     2901     2721     2277     1999     2200     2627 
    2852     2718     2362     2134     2255     2593     2793     2619 
    2307     2241     2436     2659     2683     2454     2218     2218 
    2439     2709     2783     2546     2226     2155     2396     2694 
    2731     2484     2281     2380     2632     2663     2384     2133 
    2249     2662     2916     2704     2268     2049     2280     2787 
    2990     2617     2147     2064     2258     2459     2597     2629 
    2547     2516     2542     2439     2332     2479     2725     2763 
    2581     2340     2241     2416     2702     2751     2500     2246 
    2246     2425     2546     2527     2409     2320     2450     2695 
    2712     2448     2193     2193     2498     2836     2785     2362 
    2062     2204     2590     2859     2817     2492     2178     2182 
    2398     2546     2556     2500     2471     2508     2542     2543 
    2517     2427     2359     2408     2481     2517     2529     2504 
    2481     2513     2581     2581     2438     2297     2304     2376 
    2498     2695     2744     2533     2312     2289     2434     2587 
    2579     2436     2374     2462     2551     2558     2555     2532 
    2428     2353     2404     2457     2442     2481     2617     2682 
    2481     2143     2095     2432     2802     2893     2628     2212 
    2056     2319     2694     2770     2505     2219     2212     2489 
    2748     2725     2531     2388     2339     2384     2492     2555 
    2562     2587     2597     2488     2334     2308     2424     2589 
    2705     2652     2416     2173     2166     2421     2685     2694 
    2482     2340     2392     2466     2488     2509     2528     2536 
    2497     2394     2362     2501     2658     2656     2524     2347 
    2243     2353     2601     2749     2671     2435     2245     2258 
    2413     2538     2555     2540     2547     2492     2380     2354 
    2408     2462     2525     2592     2596     2506     2397     2408 
    2505     2502     2423     2425     2490     2533     2529     2443 
    2349     2403     2610     2751     2620     2317     2143     2276 
    2620     2870     2816     2540     2250     2158     2336     2601 
    2741     2701     2489     2239     2177     2320     2520     2662 
    2639     2451     2261     2211     2363     2617     2720     2589 
    2393     2324     2390     2466     2520     2583     2570     2469 
    2417     2452     2482     2481     2506     2570     2570     2481 
    2421     2440     2516     2610     2627     2515     2362     2313 
    2404     2516     2552     2502     2415     2378     2408     2444 
    2448     2443     2463     2521     2587     2589     2481     2397 
    2462     2543     2542     2498     2425     2401     2470     2494 
