Origin Time       2025/02/01 08:16:00
Lat.              33.667
Long.             130.927
Depth. (km)       8
Mag.              3.1
Station Code      FKO008
Station Lat.      33.5712
Station Long.     130.8546
Station Height(m) 70
Record Time       2025/02/01 08:17:00
Sampling Freq(Hz) 100Hz
Duration Time(s)  60
Dir.              E-W
Scale Factor      7845(gal)/8223790
Max. Acc. (gal)   6.379
Last Correction   2025/02/01 08:17:01
Memo.             
[...]
     356      357      372      378      372      364      363      368 
     365      363      364      368      372      369      367      369 
     369      369      367      361      364      369      369      367 
     369      369      365      365      369      367      367      365 
     364      369      368      367      371      367      368      368 
     367      368      367      373      375      361      357      367 
     376      371      359      367      379      369      359      365 
     371      364      368      369      363      365      368      364 
     367      368      364      368      373      368      364      365 
     363      360      368      375      373      371      365      361 
     363      367      367      365      371      369      364      371 
     375      373      361      351      361      378      375      364 
     368      376      369      364      368      368      367      363 
     365      372      368      365      369      365      365      367 
     361      367      375      368      365      372      371      363 
     364      368      367      368      365      363      369      371 
     371      369      365      369      369      364      369      375 
     369      365      367      371      373      368      363      360 
     368      378      363      361      382      369      359      373 
     372      364      369      372      369      361      361      372 
     369      359      364      375      371      367      369      365 
     364      365      359      363      373      367      368      376 
     372      365      363      360      365      372      372      369 
     371      369      369      372      363      357      375      378 
     356      355      383      378      351      359      376      372 
     365      369      373      364      357      365      369      369 
     369      364      367      369      365      371      372      365 
     363      365      367      367      368      368      369      371 
     369      365      365      367      364      367      368      368 
     369      367      368      371      365      369      367      355 
     361      376      380      371      357      365      375      365 
     364      371      364      360      369      375      371      367 
     371      371      364      367      373      369      369      373 
     365      359      368      368      364      369      371      368 
     368      369      371      369      368      364      365      372 
     367      364      376      379      363      352      364      382 
     373      359      364      373      368      364      372      373 
     365      365      367      364      369      373      369      364 
     367      367      365      371      371      365      367      368 
     364      364      367      367      367      367      368      368 
     369      368      367      367      365      368      372      368 
     364      361      364      376      376      359      353      372 
     386      367      345      364      390      372      359      376 
     373      360      364      367      364      369      372      369 
     365      363      367      367      363      368      373      368 
     367      371      371      373      372      365      365      372 
     369      364      361      364      368      372      371      360 
     352      357      382      388      357      352      378      373 
     363      376      378      364      360      364      364      365 
     369      371      368      368      364      361      368      376 
     376      372      367      364      365      365      371      375 
     365      363      364      364      368      371      368      367 
     367      367      369      368      371      372      371      372 
     369      359      356      368      387      383      355      352 
     372      369      363      368      364      361      371      375 
     372      369      365      360      364      372      375      373 
     371      371      367      355      357      375      379      375 
     369      364      368      372      365      363      364      367 
     367      367      375      383      371      351      355      384 
     383      356      363      379      368      367      376      372 
     365      359      359      368      369      373      378      372 
     367      367      364      361      365      373      375      369 
     364      367      369      368      371      373      367      364 
     372      367      361      372      373      364      364      365 
     369      371      368      371      373      367      365      367 
     368      376      372      359      357      361      371      380 
     382      375      363      356      361      369      373      372 
     369      371      365      363      371      369      361      365 
     371      368      369      372      376      372      363      361 
     363      359      364      378      376      373      376      372 
     361      363      369      367      371      376      365      364 
     378      373      357      353      367      372      363      364 
     376      380      372      365      367      364      363      372 
     378      365      359      368      375      372      367      361 
     364      368      367      375      386      375      363      365 
     367      360      361      367      367      364      369      379 
     373      359      360      365      368      375      372      365 
     364      361      364      373      372      363      365      372 
     372      365      361      364      364      364      373      376 
     371      368      361      360      375      380      371      368 
     368      356      355      368      376      375      380      372 
     356      356      369      369      368      376      376      367 
     361      360      364      372      373      367      369      375 
     367      363      369      373      372      364      360      369 
     378      368      364      369      368      361      361      371 
     380      371      356      360      373      378      375      373 
     367      359      359      359      365      376      378      378 
     371      360      360      363      363      363      367      376 
     380      379      367      361      365      364      363      371 
     371      368      372      369      365      372      372      367 
     368      367      365      369      371      367      368      371 
     369      367      367      364      367      372      369      364 
     361      368      376      373      371      372      359      353 
     367      378      378      369      361      364      368      369 
     372      371      364      363      367      368      369      369 
     364      359      360      369      373      372      369      369 
     368      365      371      376      373      365      357      357 
     369      372      365      368      371      364      360      364 
     373      382      372      364      369      373      372      360 
     356      368      373      368      367      365      365      365 
     361      365      373      378      378      372      364      360 
     363      369      371      368      365      361      363      368 
     373      372      369      369      367      368      369      368 
     369      363      353      364      382      376      363      364 
     369      363      361      369      367      367      373      367 
     365      373      369      364      368      367      364      369 
     372      368      367      367      365      367      371      368 
     363      365      372      371      367      368      372      369 
     368      368      365      363      363      367      367      359 
     360      373      375      368      367      371      375      368 
     363      372      372      364      364      364      367      369 
     361      360      365      369      372      369      368      368 
     367      371      372      368      365      368      375      375 
     367      361      361      363      365      367      368      369 
     371      372      375      372      369      369      363      352 
     361      371      369      371      364      361      379      378 
     361      360      363      371      373      368      373      373 
     365      363      361      361      368      369      369      369 
     372      369      365      368      368      364      363      364 
     368      371      367      372      373      367      365      367 
     363      364      368      367      368      369      369      369 
     368      367      365      364      369      372      364      363 
     371      367      364      375      375      364      361      360 
     364      371      369      373      379      369      361      357 
     360      372      372      367      371      371      368      369 
     361      361      371      371      369      369      371      367 
     365      365      359      361      371      372      371      371 
     371      372      368      364      359      360      373      373 
     361      364      369      375      376      371      369      364 
     359      365      365      363      372      373      365      360 
     357      367      378      375      369      365      364      361 
     361      371      373      368      367      369      372      363 
     359      371      373      371      363      349      359      380 
     379      371      364      353      360      378      380      371 
     368      361      353      361      375      378      376      369 
     360      363      372      373      373      368      364      364 
     363      368      375      365      361      369      375      372 
     365      364      368      371      368      365      371      373 
     365      359      364      373      375      364      361      371 
     373      365      367      372      369      363      357      363 
     382      379      360      360      368      365      365      371 
     372      371      373      372      367      368      371      364 
     363      369      365      367      376      372      365      364 
     363      364      368      376      375      367      365      364 
     365      369      371      364      364      372      378      382 
     372      352      359      378      375      367      364      365 
     373      371      359      371      383      367      353      357 
     361      369      376      376      380      382      364      352 
     361      363      357      367      380      379      373      365 
     361      368      367      359      357      365      379      380 
     373      367      356      353      361      364      369      378 
     378      371      360      356      364      371      369      361 
     363      376      384      373      360      365      371      360 
     356      361      367      378      382      371      364      367 
     371      368      364      361      360      369      375      372 
     375      371      364      367      363      361      369      369 
     371      373      367      364      368      369      361      346 
     329      305      276      280      373      514      534      495 
     535      415      209      333      503      283      -71     -101 
     133      290      575     1173     1556     1080     -122     -881 
    -650      -47      533      781      615      507      467      450 
     831     1016      378      -90      124      217      116      240 
     429      542      598      437      203      195      322      464 
     541      394      106      -17      179      491      650      657 
     514      321      382      581      564      321       20     -109 
       0      190      565     1039     1001      499      211      199 
     241      278      121     -137     -105      214      585      949 
    1012      545      110       55       90      278      564      558 
     402      376      423      444      341      255      387      530 
     453      268      201      334      498      423      132      112 
     473      596      452      527      666      483       25     -133 
     286      576      475      495      419      140      228      464 
     436      432      418      163      -10      120      533     1019 
     854      144        9      329      360      418      569      379 
     226      256       67      244      741      568      413      584 
     184       48      479      318      118      305      407      799 
     723      -67       76      600      507      692      529     -268 
      75     1057      858        4     -355       -8      515      788 
     849      480      252      432      -63     -330      621      997 
     442      203       13     -162       45      399     1062     1634 
    1359      280     -854     -629      418      388      117      599 
     855     1140     2262     3348     2698     -360    -3667    -4459 
   -2818      170     3545     5363     4337     1381    -1324    -3013 
   -4777    -6084    -4880    -1534     1541     3186     4172     5186 
    5231     3562     1455       63     -765    -1479    -2276    -2285 
   -1105     -108      627     1698     2019     1690     1787     1981 
    2072     2043     1831     1822      907    -1899    -4797    -6319 
   -6224    -3726      629     4482     6065     5186     3061     1192 
    -108    -1165    -1605     -996      232     1248     1499     1124 
     656      422      363       85     -387     -379      275     1051 
    1638     1620      838      247      199       90      -79     -468 
   -1291    -1821    -1696    -1008      422     1944     2716     2754 
    1989      754      -66     -440     -581     -205      495      876 
     750      484      418      488      506      579      571      171 
     -12      427      784      861      805      375     -122     -464 
    -845     -862     -368       51      278      518      714      859 
     927      649       91     -211      -24      380      712      920 
    1065     1036      727      379      202      117       76      167 
     421      648      681      672      730      677      513      392 
     229       32      -78      -66       98      164       59      114 
     353      581      661      513      361      444      643      774 
     726      398     -205     -804     -908     -411      174      544 
    1003     1493     1381      851      661      669      481      284 
     307      519      687      564      306      216      125     -125 
    -238      -24      353      629      572      249      -10     -149 
    -284     -255       63      522      869      909      811      831 
     866      791      588      272       70      174      359      403 
     423      459      496      665      841      799      676      573 
     317       25       60      248       43     -426     -552     -317 
     -59      230      527      660      649      540      338      211 
     229      176      120      391      762      862      946     1169 
    1189      866      538      425      283       98      152      135 
    -157     -108      248      147     -174      -71      248      436 
     562      635      567      514      486      306      125      132 
     311      567      729      702      467      222      360      716 
     773      627      548      441      294      184       98       81 
     103       72       12       -9       90      356      521      365 
     256      380      345      199      364      612      575      486 
     599      718      571      345      438      606      473      379 
     517      486      278      279      352      187        2       58 
     267      499      658      607      392      297      410      444 
     222       72      217      309      245      360      583      656 
     631      568      432      245      102      167      379      449 
     332      224      224      344      557      633      338      -45 
     -40      218      306      225      238      467      714      724 
     581      449      365      430      558      454      201      180 
     437      575      422      353      442      353      248      363 
     402      364      446      383      214      306      442      348 
     206      175      311      487      364      228      523      718 
     422       93      -64        2      330      475      355      410 
     576      540      459      483      406      279      398      591 
     488      272      336      514      426      226      249      363 
     360      398      488      396      253      280      255       85 
     106      364      529      492      398      363      382      459 
     619      691      595      535      552      382       35     -118 
      59      342      495      432      309      329      388      380 
     441      542      525      395      203       68      162      348 
     415      413      372      341      423      507      433      225 
      41      148      453      463      226      272      525      631 
     657      643      573      558      426       99      -37       79 
     232      413      517      480      517      610      515      302 
     257      425      495      249        8      130      352      386 
     423      506      461      407      433      341      145      140 
     338      452      396      364      494      675      591      236 
      45      155      290      380      499      533      473      469 
     411      241      214      348      337      179      210      454 
     585      581      646      630      403      209      175      203 
     201      203      353      611      737      625      365      167 
     168      170      113      259      476      487      423      353 
     221      180      276      396      511      585      525      311 
     112       97      271      495      514      361      328      387 
     413      446      484      568      641      506      298      319 
     527      579      318       58       72      236      359      376 
     344      351      394      459      499      367      141      135 
     328      453      491      525      500      383      241      172 
     209      349      522      525      325      175      187      294 
     450      535      506      449      349      259      357      507 
     390      182      260      418      426      499      602      580 
     518      405      268      238      220      139      182      375 
     500      484      383      315      465      704      643      337 
     190      184       75        6      159      322      365      441 
     561      584      480      328      234      270      394      473 
     432      365      425      567      552      346      220      197 
     120      147      382      587      649      592      402      271 
     353      390      236      143      232      338      387      442 
     498      515      477      378      326      360      298      174 
     206      324      379      409      410      345      263      238 
