Origin Time       2025/02/01 08:16:00
Lat.              33.667
Long.             130.927
Depth. (km)       8
Mag.              3.1
Station Code      FKO008
Station Lat.      33.5712
Station Long.     130.8546
Station Height(m) 70
Record Time       2025/02/01 08:17:00
Sampling Freq(Hz) 100Hz
Duration Time(s)  60
Dir.              U-D
Scale Factor      7845(gal)/8223790
Max. Acc. (gal)   2.977
Last Correction   2025/02/01 08:17:01
Memo.             
[...]
   -9825    -9829    -9823    -9814    -9814    -9825    -9833    -9828 
   -9815    -9814    -9818    -9822    -9833    -9832    -9818    -9815 
   -9818    -9819    -9826    -9832    -9825    -9819    -9819    -9822 
   -9823    -9823    -9825    -9825    -9822    -9822    -9822    -9822 
   -9821    -9821    -9823    -9826    -9825    -9819    -9819    -9821 
   -9825    -9825    -9825    -9822    -9817    -9821    -9833    -9829 
   -9815    -9815    -9826    -9826    -9823    -9826    -9826    -9821 
   -9817    -9821    -9828    -9829    -9825    -9818    -9819    -9826 
   -9823    -9819    -9822    -9823    -9823    -9822    -9821    -9819 
   -9822    -9825    -9823    -9822    -9825    -9825    -9821    -9823 
   -9825    -9821    -9821    -9823    -9826    -9826    -9823    -9821 
   -9823    -9823    -9821    -9823    -9826    -9821    -9815    -9822 
   -9833    -9825    -9810    -9815    -9830    -9833    -9825    -9821 
   -9819    -9817    -9818    -9828    -9832    -9821    -9813    -9818 
   -9825    -9825    -9823    -9822    -9819    -9818    -9821    -9826 
   -9825    -9819    -9821    -9825    -9822    -9822    -9826    -9825 
   -9819    -9819    -9823    -9826    -9823    -9822    -9823    -9822 
   -9818    -9822    -9823    -9821    -9823    -9826    -9823    -9817 
   -9815    -9819    -9823    -9823    -9823    -9822    -9818    -9819 
   -9825    -9825    -9825    -9826    -9821    -9815    -9818    -9822 
   -9826    -9826    -9825    -9822    -9818    -9818    -9823    -9823 
   -9822    -9825    -9822    -9821    -9825    -9823    -9821    -9822 
   -9821    -9821    -9825    -9823    -9821    -9826    -9828    -9822 
   -9819    -9817    -9821    -9828    -9823    -9818    -9822    -9823 
   -9823    -9826    -9825    -9821    -9821    -9823    -9823    -9822 
   -9821    -9818    -9819    -9825    -9825    -9821    -9821    -9822 
   -9821    -9822    -9826    -9826    -9821    -9821    -9823    -9822 
   -9822    -9823    -9821    -9822    -9828    -9823    -9818    -9821 
   -9823    -9821    -9822    -9825    -9825    -9826    -9825    -9822 
   -9822    -9821    -9818    -9822    -9825    -9825    -9828    -9825 
   -9819    -9818    -9821    -9825    -9823    -9825    -9828    -9822 
   -9815    -9817    -9823    -9825    -9826    -9825    -9819    -9818 
   -9821    -9823    -9828    -9828    -9823    -9821    -9818    -9817 
   -9822    -9826    -9825    -9822    -9822    -9821    -9818    -9821 
   -9826    -9826    -9822    -9821    -9822    -9823    -9823    -9822 
   -9822    -9819    -9819    -9819    -9819    -9823    -9825    -9819 
   -9817    -9823    -9829    -9822    -9811    -9817    -9828    -9829 
   -9821    -9814    -9817    -9819    -9823    -9830    -9829    -9818 
   -9819    -9822    -9821    -9823    -9828    -9825    -9822    -9819 
   -9819    -9826    -9825    -9821    -9825    -9826    -9822    -9821 
   -9821    -9823    -9823    -9821    -9822    -9823    -9821    -9822 
   -9823    -9822    -9822    -9822    -9821    -9821    -9825    -9830 
   -9825    -9814    -9817    -9825    -9822    -9821    -9829    -9828 
   -9817    -9815    -9823    -9828    -9826    -9826    -9825    -9819 
   -9817    -9819    -9825    -9823    -9821    -9819    -9821    -9822 
   -9822    -9822    -9822    -9821    -9819    -9819    -9823    -9825 
   -9822    -9825    -9825    -9821    -9822    -9825    -9823    -9821 
   -9821    -9818    -9821    -9826    -9825    -9819    -9818    -9825 
   -9833    -9822    -9806    -9815    -9833    -9833    -9825    -9819 
   -9815    -9813    -9818    -9833    -9833    -9815    -9813    -9821 
   -9819    -9822    -9829    -9825    -9819    -9821    -9822    -9825 
   -9826    -9826    -9825    -9821    -9821    -9822    -9822    -9823 
   -9823    -9821    -9821    -9823    -9819    -9819    -9825    -9825 
   -9819    -9819    -9833    -9834    -9814    -9809    -9825    -9830 
   -9826    -9828    -9823    -9813    -9813    -9822    -9830    -9828 
   -9821    -9818    -9819    -9822    -9822    -9822    -9828    -9826 
   -9819    -9819    -9823    -9825    -9823    -9822    -9822    -9821 
   -9819    -9821    -9822    -9822    -9821    -9821    -9818    -9819 
   -9823    -9823    -9821    -9821    -9822    -9822    -9822    -9823 
   -9823    -9822    -9822    -9823    -9828    -9823    -9813    -9811 
   -9825    -9834    -9828    -9818    -9815    -9813    -9815    -9830 
   -9834    -9823    -9819    -9821    -9817    -9817    -9828    -9830 
   -9825    -9821    -9818    -9819    -9822    -9826    -9828    -9822 
   -9815    -9818    -9822    -9823    -9822    -9821    -9822    -9822 
   -9818    -9819    -9828    -9828    -9822    -9821    -9822    -9823 
   -9821    -9815    -9822    -9828    -9823    -9825    -9825    -9815 
   -9814    -9822    -9828    -9829    -9825    -9819    -9822    -9823 
   -9818    -9818    -9828    -9830    -9821    -9819    -9825    -9823 
   -9822    -9822    -9821    -9821    -9822    -9823    -9823    -9822 
   -9819    -9821    -9822    -9819    -9819    -9822    -9823    -9822 
   -9821    -9821    -9823    -9825    -9819    -9817    -9819    -9821 
   -9825    -9832    -9825    -9814    -9815    -9822    -9825    -9828 
   -9829    -9822    -9815    -9817    -9823    -9826    -9822    -9821 
   -9822    -9821    -9821    -9823    -9821    -9819    -9823    -9823 
   -9815    -9815    -9823    -9828    -9823    -9823    -9825    -9821 
   -9818    -9817    -9815    -9822    -9828    -9826    -9823    -9825 
   -9823    -9819    -9818    -9818    -9819    -9822    -9825    -9830 
   -9829    -9821    -9810    -9810    -9823    -9830    -9828    -9828 
   -9819    -9810    -9814    -9826    -9830    -9829    -9825    -9819 
   -9818    -9814    -9818    -9829    -9829    -9819    -9819    -9821 
   -9818    -9821    -9823    -9823    -9823    -9822    -9822    -9823 
   -9821    -9821    -9822    -9822    -9821    -9823    -9826    -9825 
   -9822    -9819    -9822    -9823    -9822    -9821    -9821    -9821 
   -9819    -9821    -9822    -9821    -9818    -9817    -9821    -9828 
   -9828    -9822    -9818    -9818    -9813    -9814    -9830    -9837 
   -9821    -9810    -9814    -9822    -9828    -9828    -9828    -9822 
   -9814    -9814    -9825    -9829    -9823    -9821    -9822    -9821 
   -9817    -9823    -9832    -9826    -9817    -9818    -9821    -9822 
   -9821    -9822    -9826    -9823    -9819    -9821    -9822    -9823 
   -9823    -9822    -9823    -9822    -9819    -9819    -9825    -9829 
   -9828    -9819    -9818    -9813    -9809    -9822    -9836    -9829 
   -9819    -9821    -9821    -9817    -9815    -9822    -9829    -9828 
   -9821    -9818    -9819    -9821    -9822    -9822    -9819    -9819 
   -9823    -9822    -9822    -9825    -9823    -9819    -9819    -9822 
   -9823    -9825    -9825    -9825    -9821    -9817    -9818    -9821 
   -9821    -9822    -9825    -9823    -9817    -9814    -9818    -9819 
   -9822    -9828    -9826    -9822    -9821    -9819    -9819    -9825 
   -9823    -9819    -9819    -9825    -9830    -9819    -9806    -9818 
   -9826    -9822    -9830    -9830    -9814    -9815    -9818    -9818 
   -9832    -9832    -9817    -9817    -9819    -9817    -9823    -9829 
   -9819    -9814    -9814    -9818    -9825    -9828    -9828    -9825 
   -9821    -9814    -9817    -9826    -9826    -9823    -9823    -9819 
   -9814    -9819    -9826    -9822    -9819    -9819    -9819    -9818 
   -9825    -9826    -9818    -9818    -9821    -9815    -9819    -9828 
   -9826    -9821    -9817    -9817    -9823    -9828    -9825    -9822 
   -9821    -9821    -9821    -9821    -9822    -9823    -9822    -9819 
   -9822    -9825    -9822    -9821    -9822    -9822    -9823    -9823 
   -9817    -9818    -9826    -9826    -9819    -9817    -9821    -9825 
   -9825    -9821    -9822    -9825    -9821    -9818    -9819    -9819 
   -9818    -9819    -9823    -9822    -9825    -9823    -9809    -9807 
   -9825    -9832    -9828    -9825    -9817    -9815    -9822    -9822 
   -9823    -9828    -9821    -9813    -9817    -9822    -9822    -9823 
   -9825    -9821    -9818    -9818    -9819    -9822    -9828    -9828 
   -9825    -9819    -9817    -9818    -9821    -9822    -9822    -9819 
   -9822    -9825    -9822    -9821    -9821    -9821    -9822    -9821 
   -9822    -9823    -9822    -9821    -9825    -9823    -9818    -9817 
   -9819    -9821    -9819    -9821    -9823    -9822    -9819    -9821 
   -9826    -9823    -9817    -9815    -9821    -9826    -9826    -9822 
   -9819    -9819    -9821    -9822    -9823    -9822    -9819    -9822 
   -9823    -9822    -9822    -9822    -9819    -9819    -9819    -9819 
   -9821    -9823    -9823    -9825    -9823    -9823    -9825    -9823 
   -9819    -9819    -9821    -9821    -9821    -9825    -9826    -9822 
   -9815    -9817    -9821    -9826    -9833    -9830    -9818    -9814 
   -9817    -9821    -9823    -9825    -9825    -9819    -9817    -9819 
   -9821    -9821    -9822    -9822    -9819    -9822    -9825    -9822 
   -9819    -9825    -9825    -9819    -9818    -9821    -9822    -9822 
   -9823    -9823    -9819    -9817    -9821    -9823    -9822    -9823 
   -9826    -9822    -9821    -9821    -9817    -9815    -9821    -9822 
   -9822    -9829    -9828    -9819    -9818    -9818    -9818    -9822 
   -9823    -9823    -9825    -9826    -9823    -9819    -9818    -9822 
   -9825    -9825    -9822    -9821    -9821    -9823    -9826    -9822 
   -9819    -9819    -9821    -9825    -9826    -9821    -9821    -9822 
   -9818    -9818    -9822    -9825    -9825    -9825    -9825    -9823 
   -9821    -9821    -9821    -9819    -9822    -9825    -9829    -9830 
   -9819    -9807    -9817    -9829    -9829    -9830    -9822    -9811 
   -9818    -9826    -9823    -9823    -9823    -9821    -9819    -9822 
   -9823    -9825    -9825    -9822    -9822    -9822    -9821    -9821 
   -9821    -9822    -9825    -9823    -9822    -9825    -9822    -9815 
   -9817    -9819    -9821    -9826    -9826    -9818    -9818    -9825 
   -9828    -9821    -9815    -9817    -9823    -9830    -9829    -9821 
   -9821    -9823    -9819    -9819    -9826    -9825    -9821    -9821 
   -9821    -9822    -9823    -9821    -9818    -9821    -9825    -9823 
   -9821    -9822    -9825    -9821    -9823    -9826    -9821    -9817 
   -9821    -9825    -9822    -9819    -9821    -9823    -9818    -9813 
   -9821    -9828    -9829    -9826    -9819    -9817    -9818    -9818 
   -9822    -9826    -9825    -9823    -9822    -9818    -9814    -9818 
   -9826    -9828    -9822    -9821    -9821    -9818    -9821    -9822 
   -9823    -9826    -9825    -9821    -9818    -9819    -9825    -9825 
   -9822    -9822    -9821    -9819    -9822    -9825    -9823    -9819 
   -9818    -9817    -9817    -9825    -9829    -9828    -9825    -9819 
   -9817    -9822    -9823    -9822    -9825    -9825    -9821    -9822 
   -9819    -9817    -9823    -9829    -9826    -9821    -9818    -9821 
   -9819    -9825    -9832    -9822    -9813    -9819    -9825    -9825 
   -9825    -9823    -9823    -9825    -9819    -9819    -9823    -9822 
   -9818    -9819    -9822    -9822    -9822    -9826    -9826    -9822 
   -9817    -9819    -9823    -9823    -9822    -9823    -9826    -9823 
   -9823    -9822    -9817    -9819    -9823    -9822    -9822    -9821 
   -9822    -9825    -9822    -9819    -9821    -9825    -9825    -9818 
   -9817    -9823    -9828    -9825    -9823    -9822    -9819    -9817 
   -9823    -9828    -9823    -9822    -9821    -9819    -9825    -9826 
   -9822    -9819    -9822    -9823    -9821    -9821    -9823    -9823 
   -9823    -9823    -9822    -9823    -9823    -9821    -9818    -9821 
   -9822    -9821    -9821    -9822    -9814    -9759    -9574    -9290 
   -9269    -9853   -10700   -11099   -10852   -10308    -9559    -8433 
   -7843    -8851   -10763   -12069   -11327    -8748    -7461    -9081 
  -10832   -10952   -10605    -9541    -8203    -8915   -10600   -10970 
  -10579    -9810    -8725    -8861   -10095   -10538   -10311   -10137 
   -9678    -9432    -9792    -9890    -9626    -9688    -9718    -9555 
   -9880   -10201    -9968    -9953   -10049    -9613    -9324    -9580 
   -9806    -9933   -10115   -10152    -9975    -9636    -9455    -9717 
   -9948    -9872    -9936   -10038    -9742    -9512    -9803   -10156 
  -10218    -9963    -9313    -8856    -9324   -10309   -10847   -10390 
   -9396    -9054    -9526   -10119   -10521   -10269    -9402    -9078 
   -9738   -10322   -10120    -9772    -9720    -9729    -9747    -9666 
   -9467    -9724   -10335   -10242    -9698    -9686    -9742    -9603 
   -9779    -9906    -9815    -9938    -9958    -9749    -9818    -9956 
   -9946   -10002    -9790    -9508    -9710    -9694    -9351    -9822 
  -10646   -10469    -9481    -8731    -9215   -10534   -10936   -10228 
   -9244    -8631    -9400   -10848   -10991   -10027    -9479    -9408 
   -9261    -9533   -10153    -9926    -9375    -9706    -9805    -9614 
  -10492   -10662    -9340    -8947    -9474   -10076   -10775   -10192 
   -8961    -9126   -10234   -11144   -10490    -8707    -8780   -10053 
  -10396   -10643   -10200    -8575    -8137    -9030   -10162   -11963 
  -12499   -10114    -7307    -6706    -8544   -11026   -12395   -11929 
  -10150    -9065    -8498    -7819    -8985   -11564   -11963    -9903 
   -8935    -9763   -10322   -10409   -10386    -9408    -7908    -7801 
   -8950   -10824   -12943   -12391    -9329    -7511    -7865    -9566 
  -11253   -10990    -9603    -8949    -8973    -9736   -10503   -10115 
   -9610    -9379    -9235    -9786   -10226   -10328   -10494    -9709 
   -8627    -8966    -9952   -10335   -10370   -10289   -10152   -10312 
  -10547   -10141    -9171    -9050    -9899    -9651    -8764    -9012 
   -9262    -9389   -10497   -11430   -11516   -10810    -9159    -8611 
  -10022   -10825   -10162    -9231    -8888    -9721   -10705   -10353 
   -9015    -7982    -8252    -9624   -10530    -9987    -8957    -8754 
   -9830   -11653   -12398   -11267    -9902    -9607    -9888   -10033 
   -9913    -9464    -8858    -8749    -9425   -10176   -10269    -9697 
   -8964    -9208   -10600   -11249   -10438    -9643    -9521    -9801 
  -10303   -10095    -9019    -8614    -9057    -9294    -9509    -9660 
   -9293    -9319   -10098   -10582   -10535   -10262    -9938   -10030 
  -10266   -10052    -9818    -9853    -9868    -9841    -9659    -9387 
   -9464    -9875   -10268   -10341   -10002    -9791   -10023    -9961 
   -9432    -9410    -9900   -10164   -10233    -9913    -9146    -9053 
   -9765   -10158   -10143   -10118    -9961    -9794    -9763    -9686 
   -9695    -9895    -9761    -9360    -9466    -9784    -9755    -9794 
   -9969    -9954    -9918    -9796    -9510    -9647   -10234   -10498 
  -10196    -9652    -9455    -9818   -10075   -10092   -10191    -9904 
   -9385    -9447    -9765    -9755    -9566    -9417    -9508    -9832 
   -9988    -9918    -9963    -9965    -9791    -9720    -9632    -9725 
  -10210   -10237    -9782    -9675    -9764    -9848   -10049   -10010 
   -9695    -9664    -9809    -9810   -10100   -10497   -10162    -9418 
   -9090    -9339    -9979   -10255    -9741    -9389    -9744   -10153 
  -10162    -9826    -9524    -9603    -9931   -10220   -10153    -9683 
   -9458    -9730    -9936   -10054   -10237   -10062    -9684    -9621 
   -9683    -9769    -9930    -9660    -9209    -9396    -9706    -9684 
   -9795    -9738    -9521    -9929   -10297    -9956    -9695    -9651 
   -9676   -10066   -10242    -9992   -10038   -10110    -9841    -9903 
  -10060    -9666    -9536   -10029   -10196    -9791    -9451    -9626 
  -10126   -10282    -9795    -9182    -9143    -9799   -10378   -10102 
   -9428    -9267    -9722   -10284   -10351    -9788    -9219    -9401 
  -10107   -10439   -10206    -9791    -9531    -9633    -9895    -9936 
   -9729    -9680   -10007   -10166    -9752    -9362    -9595   -10027 
  -10060    -9823    -9672    -9744    -9930    -9929    -9734    -9594 
   -9548    -9734   -10084   -10025    -9622    -9521    -9795   -10099 
  -10104    -9763    -9509    -9634    -9930   -10157   -10069    -9718 
   -9688    -9945    -9968    -9919    -9884    -9667    -9633    -9886 
   -9985    -9886    -9715    -9594    -9682    -9707    -9585    -9756 
  -10177   -10347   -10100    -9667    -9408    -9567    -9933   -10093 
  -10054    -9873    -9505    -9379    -9834   -10434   -10450    -9653 
   -8919    -9238   -10139   -10476   -10088    -9594    -9418    -9687 
  -10122   -10146    -9725    -9455    -9763   -10293   -10247    -9602 
   -9231    -9609   -10152   -10164    -9817    -9486    -9328    -9620 
  -10147   -10223    -9807    -9489    -9558    -9768    -9988   -10226 
  -10143    -9695    -9535    -9919   -10272   -10122    -9622    -9382 
   -9819   -10315   -10045    -9427    -9336    -9767   -10224   -10220 
   -9574    -9146    -9651   -10287   -10276    -9910    -9490    -9317 
   -9718   -10065    -9891    -9830   -10006    -9963    -9825    -9745 
   -9683    -9771    -9857    -9738    -9632    -9657    -9842   -10119 
   -9946    -9424    -9599   -10222   -10091    -9610    -9586    -9710 
   -9994   -10434   -10234    -9479    -9261    -9738   -10161   -10069 
   -9599    -9397    -9794   -10203   -10185    -9956    -9747    -9661 
   -9736    -9882    -9957    -9884    -9741    -9668    -9720    -9869 
   -9956    -9836    -9613    -9528    -9730    -9996   -10084   -10049 
   -9784    -9427    -9564   -10103   -10293    -9877    -9348    -9335 
   -9895   -10363   -10180    -9659    -9418    -9560    -9852   -10029 
   -9975    -9922    -9972    -9918    -9747    -9579    -9579    -9826 
  -10000    -9987    -9981    -9810    -9431    -9324    -9721   -10245 
  -10284    -9809    -9409    -9366    -9626   -10110   -10455   -10254 
   -9757    -9509    -9464    -9537    -9968   -10407   -10349    -9992 
   -9535    -9190    -9512   -10192   -10331    -9948    -9558    -9443 
   -9701   -10035   -10057    -9875    -9749    -9636    -9532    -9625 
   -9853    -9942    -9904    -9849    -9796    -9792    -9817    -9945 
  -10075    -9811    -9401    -9421    -9822   -10280   -10373    -9853 
   -9359    -9504    -9914   -10195   -10206    -9799    -9389    -9497 
   -9907   -10188   -10168    -9832    -9521    -9540    -9764   -10030 
  -10114    -9838    -9482    -9528    -9940   -10103    -9887    -9749 
   -9720    -9714    -9825    -9888    -9934   -10033    -9922    -9626 
   -9432    -9583   -10112   -10330    -9818    -9344    -9472    -9880 
  -10174   -10120    -9709    -9437    -9690   -10079   -10080    -9787 
   -9576    -9670    -9945    -9964    -9755    -9764    -9907    -9952 
   -9925    -9703    -9533    -9775   -10006    -9938    -9840    -9748 
   -9791   -10098   -10146    -9753    -9543    -9636    -9713    -9869 
  -10085   -10077    -9865    -9637    -9585    -9821    -9992    -9863 
   -9757    -9763    -9780    -9879    -9892    -9756    -9701    -9670 
   -9649    -9911   -10177    -9936    -9508    -9487    -9861   -10185 
  -10030    -9571    -9533    -9942   -10099    -9927    -9710    -9504 
   -9613   -10064   -10260    -9977    -9657    -9613    -9748    -9941 
  -10069    -9915    -9535    -9427    -9829   -10204   -10065    -9722 
