Origin Time       2025/02/01 08:16:00
Lat.              33.667
Long.             130.927
Depth. (km)       8
Mag.              3.1
Station Code      FKO008
Station Lat.      33.5712
Station Long.     130.8546
Station Height(m) 70
Record Time       2025/02/01 08:17:00
Sampling Freq(Hz) 100Hz
Duration Time(s)  60
Dir.              N-S
Scale Factor      7845(gal)/8223790
Max. Acc. (gal)   12.984
Last Correction   2025/02/01 08:17:01
Memo.             
[...]
   -2566    -2577    -2569    -2565    -2571    -2567    -2569    -2573 
   -2569    -2569    -2575    -2573    -2570    -2569    -2565    -2565 
   -2570    -2574    -2571    -2563    -2558    -2571    -2578    -2562 
   -2560    -2577    -2574    -2559    -2560    -2578    -2579    -2566 
   -2563    -2566    -2567    -2567    -2560    -2569    -2579    -2569 
   -2562    -2565    -2570    -2577    -2571    -2566    -2571    -2571 
   -2567    -2567    -2567    -2563    -2562    -2567    -2571    -2573 
   -2571    -2565    -2566    -2571    -2566    -2565    -2567    -2569 
   -2570    -2573    -2570    -2569    -2571    -2566    -2560    -2573 
   -2574    -2559    -2563    -2574    -2573    -2571    -2575    -2570 
   -2559    -2566    -2578    -2575    -2567    -2558    -2559    -2571 
   -2571    -2569    -2575    -2569    -2563    -2570    -2566    -2569 
   -2573    -2566    -2566    -2573    -2570    -2571    -2571    -2563 
   -2566    -2569    -2567    -2570    -2566    -2566    -2573    -2569 
   -2566    -2570    -2567    -2565    -2571    -2571    -2567    -2563 
   -2566    -2573    -2569    -2566    -2575    -2571    -2559    -2570 
   -2574    -2565    -2566    -2567    -2565    -2574    -2577    -2570 
   -2570    -2563    -2551    -2559    -2573    -2574    -2579    -2581 
   -2571    -2563    -2560    -2560    -2565    -2569    -2571    -2570 
   -2565    -2566    -2567    -2563    -2569    -2574    -2574    -2571 
   -2565    -2565    -2567    -2565    -2574    -2575    -2556    -2559 
   -2582    -2578    -2559    -2560    -2582    -2578    -2552    -2560 
   -2578    -2566    -2565    -2571    -2565    -2567    -2573    -2567 
   -2571    -2573    -2562    -2560    -2563    -2562    -2570    -2577 
   -2573    -2573    -2574    -2565    -2560    -2567    -2565    -2567 
   -2582    -2579    -2567    -2565    -2559    -2555    -2565    -2577 
   -2577    -2574    -2574    -2566    -2554    -2560    -2575    -2577 
   -2566    -2570    -2581    -2570    -2554    -2570    -2586    -2571 
   -2563    -2575    -2573    -2565    -2569    -2565    -2566    -2575 
   -2570    -2563    -2567    -2569    -2567    -2566    -2571    -2577 
   -2565    -2558    -2567    -2569    -2569    -2571    -2569    -2569 
   -2571    -2566    -2565    -2570    -2569    -2565    -2566    -2567 
   -2567    -2574    -2573    -2567    -2573    -2573    -2562    -2559 
   -2569    -2578    -2571    -2558    -2560    -2573    -2574    -2574 
   -2571    -2563    -2563    -2566    -2569    -2573    -2563    -2560 
   -2570    -2569    -2567    -2573    -2565    -2559    -2571    -2574 
   -2573    -2569    -2559    -2562    -2574    -2571    -2566    -2571 
   -2577    -2567    -2558    -2565    -2574    -2567    -2563    -2569 
   -2573    -2575    -2571    -2562    -2560    -2563    -2569    -2570 
   -2562    -2569    -2581    -2567    -2556    -2575    -2582    -2562 
   -2556    -2569    -2569    -2573    -2575    -2565    -2566    -2571 
   -2565    -2566    -2569    -2566    -2566    -2565    -2567    -2574 
   -2575    -2571    -2567    -2570    -2570    -2563    -2566    -2574 
   -2567    -2565    -2573    -2569    -2563    -2569    -2570    -2571 
   -2569    -2565    -2574    -2578    -2567    -2558    -2567    -2585 
   -2575    -2550    -2551    -2574    -2582    -2570    -2562    -2565 
   -2562    -2560    -2578    -2583    -2565    -2560    -2574    -2573 
   -2567    -2574    -2567    -2562    -2570    -2569    -2565    -2567 
   -2566    -2569    -2571    -2566    -2569    -2573    -2571    -2566 
   -2566    -2573    -2571    -2562    -2565    -2571    -2570    -2559 
   -2550    -2575    -2598    -2565    -2542    -2570    -2581    -2570 
   -2571    -2571    -2562    -2556    -2562    -2577    -2581    -2563 
   -2555    -2569    -2573    -2563    -2567    -2571    -2570    -2569 
   -2566    -2570    -2573    -2565    -2567    -2575    -2566    -2562 
   -2569    -2569    -2571    -2571    -2565    -2567    -2570    -2563 
   -2566    -2574    -2569    -2562    -2563    -2567    -2570    -2573 
   -2569    -2559    -2565    -2583    -2581    -2559    -2554    -2565 
   -2577    -2579    -2567    -2559    -2565    -2567    -2573    -2577 
   -2563    -2558    -2567    -2574    -2574    -2571    -2567    -2562 
   -2560    -2563    -2563    -2571    -2578    -2567    -2563    -2563 
   -2565    -2575    -2574    -2562    -2560    -2563    -2570    -2577 
   -2571    -2573    -2574    -2560    -2547    -2555    -2585    -2587 
   -2556    -2554    -2575    -2577    -2569    -2570    -2573    -2565 
   -2558    -2569    -2579    -2575    -2563    -2560    -2567    -2565 
   -2560    -2575    -2582    -2569    -2563    -2570    -2569    -2559 
   -2563    -2575    -2574    -2565    -2567    -2571    -2566    -2567 
   -2570    -2569    -2569    -2565    -2569    -2574    -2567    -2569 
   -2575    -2567    -2565    -2570    -2566    -2559    -2562    -2570 
   -2581    -2579    -2565    -2559    -2563    -2573    -2579    -2567 
   -2554    -2563    -2570    -2569    -2577    -2575    -2566    -2566 
   -2565    -2567    -2574    -2565    -2558    -2566    -2570    -2569 
   -2571    -2573    -2570    -2569    -2562    -2560    -2566    -2567 
   -2566    -2567    -2575    -2577    -2570    -2566    -2563    -2562 
   -2565    -2569    -2571    -2571    -2562    -2552    -2560    -2569 
   -2575    -2579    -2571    -2566    -2570    -2567    -2558    -2556 
   -2562    -2569    -2581    -2587    -2577    -2566    -2562    -2559 
   -2559    -2563    -2570    -2571    -2569    -2567    -2569    -2566 
   -2565    -2571    -2585    -2579    -2562    -2562    -2566    -2558 
   -2562    -2577    -2574    -2567    -2574    -2577    -2570    -2560 
   -2558    -2566    -2569    -2562    -2565    -2570    -2566    -2567 
   -2578    -2574    -2565    -2566    -2560    -2559    -2570    -2571 
   -2565    -2570    -2574    -2569    -2559    -2571    -2582    -2562 
   -2555    -2569    -2570    -2570    -2570    -2565    -2570    -2569 
   -2563    -2571    -2575    -2566    -2565    -2569    -2563    -2556 
   -2567    -2579    -2570    -2560    -2563    -2570    -2574    -2570 
   -2562    -2565    -2567    -2563    -2567    -2578    -2579    -2565 
   -2555    -2562    -2570    -2566    -2560    -2566    -2567    -2563 
   -2569    -2575    -2570    -2559    -2563    -2582    -2581    -2559 
   -2554    -2560    -2563    -2570    -2574    -2570    -2574    -2571 
   -2560    -2567    -2573    -2565    -2567    -2569    -2563    -2569 
   -2567    -2562    -2570    -2570    -2570    -2574    -2567    -2566 
   -2570    -2563    -2559    -2567    -2570    -2571    -2575    -2570 
   -2566    -2569    -2565    -2567    -2574    -2573    -2573    -2570 
   -2565    -2570    -2569    -2558    -2559    -2563    -2570    -2583 
   -2571    -2543    -2554    -2600    -2601    -2551    -2548    -2577 
   -2562    -2562    -2586    -2562    -2542    -2571    -2579    -2570 
   -2581    -2573    -2556    -2567    -2571    -2565    -2573    -2575 
   -2566    -2565    -2565    -2563    -2567    -2571    -2566    -2562 
   -2569    -2574    -2574    -2570    -2565    -2566    -2566    -2563 
   -2566    -2570    -2565    -2563    -2566    -2562    -2567    -2582 
   -2577    -2559    -2567    -2579    -2567    -2558    -2566    -2571 
   -2566    -2566    -2569    -2565    -2565    -2573    -2570    -2566 
   -2571    -2569    -2563    -2570    -2571    -2571    -2577    -2573 
   -2566    -2565    -2562    -2562    -2565    -2567    -2571    -2571 
   -2573    -2573    -2571    -2573    -2569    -2562    -2569    -2571 
   -2565    -2571    -2570    -2558    -2559    -2570    -2577    -2582 
   -2574    -2551    -2551    -2587    -2597    -2555    -2535    -2566 
   -2581    -2571    -2575    -2570    -2559    -2569    -2571    -2562 
   -2573    -2578    -2567    -2563    -2567    -2570    -2573    -2569 
   -2563    -2567    -2566    -2563    -2574    -2578    -2571    -2571 
   -2570    -2566    -2565    -2565    -2566    -2569    -2567    -2569 
   -2570    -2569    -2567    -2569    -2571    -2569    -2559    -2571 
   -2583    -2562    -2554    -2571    -2570    -2560    -2563    -2566 
   -2569    -2569    -2566    -2574    -2570    -2559    -2566    -2571 
   -2570    -2570    -2575    -2573    -2560    -2562    -2570    -2563 
   -2563    -2567    -2569    -2574    -2570    -2559    -2563    -2571 
   -2573    -2573    -2570    -2566    -2567    -2573    -2570    -2567 
   -2570    -2569    -2563    -2565    -2566    -2562    -2563    -2569 
   -2571    -2570    -2566    -2560    -2566    -2581    -2582    -2570 
   -2560    -2558    -2563    -2571    -2570    -2567    -2565    -2563 
   -2569    -2574    -2567    -2566    -2571    -2573    -2567    -2567 
   -2569    -2569    -2573    -2574    -2567    -2566    -2566    -2565 
   -2571    -2573    -2565    -2563    -2566    -2565    -2569    -2577 
   -2578    -2578    -2570    -2559    -2567    -2574    -2566    -2565 
   -2565    -2563    -2574    -2571    -2562    -2571    -2577    -2567 
   -2563    -2569    -2570    -2569    -2567    -2565    -2565    -2571 
   -2571    -2570    -2573    -2566    -2563    -2570    -2569    -2567 
   -2570    -2569    -2575    -2574    -2562    -2567    -2577    -2567 
   -2566    -2567    -2560    -2563    -2570    -2569    -2569    -2577 
   -2579    -2571    -2563    -2563    -2563    -2569    -2574    -2570 
   -2567    -2566    -2563    -2559    -2554    -2575    -2604    -2578 
   -2539    -2558    -2586    -2578    -2566    -2565    -2563    -2565 
   -2567    -2567    -2567    -2573    -2571    -2563    -2570    -2577 
   -2573    -2571    -2562    -2556    -2569    -2577    -2578    -2577 
   -2563    -2552    -2562    -2569    -2570    -2573    -2571    -2573 
   -2577    -2566    -2558    -2562    -2560    -2566    -2577    -2575 
   -2569    -2567    -2577    -2582    -2563    -2555    -2565    -2566 
   -2571    -2574    -2562    -2573    -2583    -2567    -2562    -2569 
   -2567    -2569    -2570    -2565    -2567    -2573    -2566    -2562 
   -2570    -2573    -2569    -2575    -2577    -2559    -2559    -2567 
   -2567    -2571    -2570    -2565    -2574    -2573    -2562    -2563 
   -2565    -2562    -2565    -2566    -2570    -2578    -2581    -2571 
   -2556    -2554    -2570    -2585    -2578    -2558    -2555    -2570 
   -2573    -2566    -2565    -2565    -2566    -2571    -2575    -2574 
   -2570    -2569    -2566    -2566    -2570    -2567    -2563    -2567 
   -2571    -2570    -2570    -2562    -2555    -2570    -2581    -2574 
   -2573    -2567    -2563    -2569    -2566    -2566    -2575    -2567 
   -2560    -2571    -2570    -2565    -2574    -2574    -2563    -2559 
   -2562    -2577    -2583    -2569    -2558    -2565    -2569    -2559 
   -2556    -2577    -2590    -2569    -2552    -2570    -2578    -2567 
   -2569    -2569    -2563    -2569    -2565    -2560    -2570    -2571 
   -2565    -2570    -2571    -2565    -2562    -2569    -2573    -2567 
   -2569    -2575    -2573    -2567    -2562    -2559    -2565    -2571 
   -2574    -2573    -2570    -2573    -2573    -2559    -2552    -2569 
   -2581    -2570    -2562    -2567    -2574    -2577    -2563    -2550 
   -2565    -2579    -2575    -2570    -2566    -2560    -2558    -2569 
   -2578    -2570    -2565    -2571    -2573    -2570    -2571    -2567 
   -2563    -2562    -2563    -2567    -2571    -2571    -2567    -2567 
   -2567    -2571    -2573    -2565    -2566    -2575    -2567    -2559 
   -2569    -2574    -2571    -2573    -2571    -2566    -2565    -2560 
   -2575    -2643    -2721    -2712    -2547    -2296    -2189    -2295 
   -2446    -2675    -2960    -3078    -2948    -2459    -2015    -2324 
   -3011    -3163    -2528    -1825    -1790    -2168    -2600    -3057 
   -3361    -3095    -2519    -2529    -2664    -2342    -2361    -2608 
   -2417    -2253    -2273    -2010    -1938    -2683    -3388    -3362 
   -3221    -3086    -2559    -2104    -2083    -2114    -2176    -2262 
   -2292    -2710    -3294    -3275    -2833    -2546    -2438    -2301 
   -2234    -2369    -2556    -2683    -2660    -2497    -2589    -2968 
   -2968    -2447    -2068    -2076    -2258    -2658    -3102    -3078 
   -2587    -2223    -2296    -2529    -2681    -2754    -2735    -2654 
   -2535    -2428    -2389    -2365    -2430    -2573    -2694    -2740 
   -2560    -2412    -2619    -2835    -2727    -2477    -2384    -2447 
   -2543    -2682    -2848    -2871    -2574    -2250    -2311    -2467 
   -2513    -2633    -2602    -2434    -2548    -2731    -2674    -2666 
   -2772    -2708    -2405    -2118    -2270    -2785    -2984    -2782 
   -2550    -2281    -2307    -2832    -3026    -2590    -2223    -2324 
   -2589    -2490    -2324    -2616    -2853    -2681    -2571    -2631 
   -2527    -2408    -2524    -2605    -2485    -2439    -2601    -2659 
   -2635    -2731    -2605    -2620    -2855    -2330    -1899    -2533 
   -3040    -2829    -2241    -1906    -2344    -2782    -2920    -3092 
   -2830    -2474    -2573    -2440    -2432    -3187    -3284    -2174 
   -1429    -1837    -2496    -2593    -2880    -3429    -3318    -3028 
   -2405    -1368    -1555    -2662    -3111    -2895    -2524    -2134 
   -1902    -2404    -3285    -3327    -2941    -2934    -2519    -1854 
   -1904    -1665     -928    -1178    -2166    -3254    -4785    -6342 
   -6901    -6215    -5593    -5903    -5840    -4167     -459     5069 
    9806    11043     8834     3788    -3215    -9948   -14324   -14818 
  -11314    -6176    -2299     -859     -931     -911     -544     -573 
    -927     -889     -533     -684    -1796    -2967    -3396    -4333 
   -6280    -7350    -6408    -4055    -1417      592     1850     2280 
    1502     -167    -1922    -3273    -4058    -4302    -4301    -4407 
   -4376    -3711    -2435    -1004     -179     -402    -1359    -2543 
   -3573    -4340    -4927    -5193    -4905    -4095    -3117    -2477 
   -2438    -2693    -2608    -2038    -1428     -905     -388     -306 
    -784    -1350    -2080    -3157    -4047    -4411    -4361    -3901 
   -3284    -2929    -2735    -2500    -2322    -2080    -1773    -1838 
   -2207    -2434    -2605    -2791    -2762    -2570    -2443    -2535 
   -2864    -3160    -3094    -2662    -2134    -1807    -1783    -1985 
   -2231    -2349    -2504    -2870    -3149    -3030    -2689    -2467 
   -2401    -2423    -2521    -2546    -2597    -2844    -2786    -2214 
   -1865    -2053    -2436    -2930    -3357    -3303    -2971    -2789 
   -2573    -2262    -2247    -2419    -2459    -2565    -2787    -2847 
   -2697    -2332    -1921    -1894    -2251    -2698    -3045    -3204 
   -3268    -3176    -2906    -2755    -2643    -2307    -2023    -2052 
   -2180    -2211    -2150    -2045    -2087    -2378    -2621    -2745 
   -3030    -3268    -3118    -2812    -2698    -2763    -2604    -2155 
   -1894    -1883    -1948    -2200    -2478    -2581    -2802    -3307 
   -3588    -3404    -3245    -3130    -2762    -2508    -2556    -2517 
   -2313    -2191    -2231    -2311    -2232    -2107    -2199    -2289 
   -2122    -2025    -2250    -2573    -2727    -2814    -3064    -3254 
   -3176    -3013    -2749    -2408    -2286    -2350    -2386    -2431 
   -2481    -2408    -2386    -2586    -2662    -2552    -2631    -2745 
   -2690    -2655    -2644    -2663    -2751    -2670    -2548    -2713 
   -2880    -2824    -2717    -2567    -2511    -2617    -2458    -2076 
   -1952    -2002    -2012    -2060    -2204    -2473    -2789    -2983 
   -2944    -2772    -2748    -2851    -2812    -2673    -2650    -2786 
   -2955    -2982    -2785    -2409    -2141    -2250    -2488    -2612 
   -2791    -2894    -2733    -2517    -2319    -2166    -2246    -2469 
   -2500    -2340    -2292    -2369    -2400    -2450    -2543    -2571 
   -2590    -2714    -2848    -2745    -2481    -2470    -2779    -3017 
   -2889    -2489    -2205    -2222    -2428    -2675    -2712    -2574 
   -2610    -2749    -2732    -2647    -2623    -2721    -2843    -2776 
   -2732    -2851    -2751    -2486    -2436    -2432    -2305    -2263 
   -2334    -2370    -2382    -2405    -2397    -2389    -2475    -2624 
   -2681    -2637    -2613    -2590    -2550    -2629    -2803    -2783 
   -2554    -2401    -2351    -2332    -2380    -2378    -2385    -2628 
   -2894    -2826    -2550    -2428    -2594    -2880    -2940    -2639 
   -2378    -2525    -2825    -2812    -2479    -2293    -2548    -2937 
   -2928    -2505    -2185    -2164    -2309    -2562    -2744    -2762 
   -2747    -2705    -2573    -2450    -2535    -2655    -2513    -2347 
   -2452    -2647    -2704    -2639    -2519    -2377    -2335    -2342 
   -2224    -2224    -2571    -2945    -3096    -3042    -2755    -2496 
   -2489    -2482    -2469    -2578    -2616    -2597    -2571    -2400 
   -2366    -2720    -2956    -2718    -2388    -2266    -2315    -2462 
   -2475    -2315    -2376    -2741    -3002    -2938    -2705    -2628 
   -2737    -2643    -2431    -2516    -2624    -2542    -2578    -2552 
   -2255    -2211    -2583    -2775    -2637    -2574    -2654    -2685 
   -2593    -2442    -2425    -2575    -2641    -2493    -2311    -2322 
   -2471    -2542    -2465    -2423    -2608    -2889    -2953    -2744 
   -2498    -2447    -2529    -2546    -2520    -2496    -2442    -2571 
   -2863    -2899    -2701    -2608    -2617    -2593    -2544    -2524 
   -2547    -2589    -2582    -2542    -2550    -2601    -2635    -2605 
   -2517    -2459    -2478    -2498    -2463    -2415    -2469    -2713 
   -2964    -2880    -2519    -2258    -2257    -2423    -2596    -2667 
   -2655    -2574    -2466    -2466    -2562    -2605    -2612    -2604 
   -2494    -2459    -2651    -2779    -2735    -2620    -2330    -2127 
   -2412    -2744    -2643    -2471    -2494    -2525    -2536    -2533 
   -2493    -2582    -2818    -2917    -2779    -2694    -2733    -2620 
   -2373    -2185    -2162    -2373    -2624    -2721    -2748    -2790 
   -2847    -2786    -2617    -2579    -2585    -2475    -2438    -2489 
   -2513    -2608    -2663    -2497    -2376    -2465    -2504    -2415 
   -2420    -2648    -2924    -2960    -2725    -2424    -2308    -2475 
   -2663    -2640    -2542    -2515    -2546    -2540    -2458    -2420 
   -2434    -2457    -2556    -2578    -2467    -2455    -2578    -2743 
   -2836    -2732    -2601    -2598    -2550    -2424    -2361    -2327 
   -2336    -2515    -2797    -2914    -2768    -2627    -2691    -2799 
   -2704    -2436    -2317    -2425    -2469    -2416    -2393    -2366 
   -2488    -2754    -2759    -2575    -2616    -2794    -2875    -2829 
   -2668    -2531    -2538    -2565    -2519    -2471    -2421    -2417 
   -2543    -2628    -2517    -2405    -2434    -2475    -2493    -2592 
   -2776    -2851    -2667    -2459    -2452    -2520    -2616    -2758 
   -2735    -2540    -2509    -2636    -2610    -2462    -2361    -2307 
   -2382    -2590    -2733    -2724    -2562    -2417    -2523    -2662 
   -2578    -2471    -2457    -2428    -2458    -2621    -2720    -2625 
   -2566    -2639    -2614    -2462    -2447    -2632    -2764    -2762 
   -2771    -2767    -2694    -2633    -2551    -2389    -2311    -2425 
   -2509    -2447    -2485    -2656    -2695    -2636    -2641    -2621 
