Origin Time       2025/01/26 08:11:00
Lat.              34.975
Long.             138.213
Depth. (km)       21
Mag.              3.4
Station Code      SZO015
Station Lat.      35.2433
Station Long.     138.3410
Station Height(m) 451
Record Time       2025/01/26 08:11:35
Sampling Freq(Hz) 100Hz
Duration Time(s)  60
Dir.              E-W
Scale Factor      7845(gal)/8223790
Max. Acc. (gal)   3.033
Last Correction   2025/01/26 08:11:34
Memo.             
[...]
    6717     6714     6718     6718     6714     6714     6720     6720 
    6714     6716     6718     6717     6716     6718     6717     6717 
    6717     6714     6716     6720     6717     6716     6718     6718 
    6716     6713     6718     6720     6713     6713     6723     6723 
    6713     6713     6721     6716     6714     6723     6721     6713 
    6713     6718     6720     6717     6720     6720     6717     6717 
    6716     6720     6718     6712     6717     6720     6714     6718 
    6717     6716     6717     6716     6714     6718     6717     6716 
    6720     6717     6714     6721     6720     6712     6714     6723 
    6718     6713     6714     6714     6718     6721     6716     6716 
    6718     6714     6713     6718     6721     6717     6713     6718 
    6718     6713     6718     6720     6714     6714     6718     6718 
    6716     6717     6717     6713     6714     6720     6717     6716 
    6720     6718     6714     6716     6717     6718     6717     6716 
    6717     6716     6714     6714     6717     6718     6716     6716 
    6720     6721     6716     6716     6717     6717     6718     6718 
    6717     6721     6718     6714     6720     6717     6713     6718 
    6718     6713     6717     6723     6720     6718     6724     6721 
    6710     6714     6724     6717     6712     6717     6718     6716 
    6717     6723     6720     6716     6721     6720     6716     6714 
    6716     6721     6723     6716     6710     6714     6721     6716 
    6713     6717     6717     6718     6720     6716     6716     6721 
    6717     6712     6718     6721     6712     6714     6721     6718 
    6717     6720     6718     6714     6717     6720     6718     6717 
    6720     6718     6717     6718     6718     6717     6716     6716 
    6717     6717     6716     6717     6717     6714     6714     6718 
    6720     6717     6716     6717     6720     6717     6714     6714 
    6716     6720     6721     6720     6717     6716     6721     6720 
    6713     6718     6723     6713     6714     6720     6717     6718 
    6723     6717     6712     6717     6718     6714     6720     6720 
    6713     6717     6718     6716     6718     6716     6713     6717 
    6716     6716     6720     6721     6713     6716     6723     6717 
    6713     6718     6720     6720     6718     6718     6717     6717 
    6721     6721     6717     6716     6714     6713     6717     6720 
    6717     6717     6717     6720     6720     6716     6717     6721 
    6717     6714     6720     6717     6714     6717     6717     6720 
    6721     6716     6713     6716     6714     6717     6721     6718 
    6713     6717     6721     6718     6714     6714     6721     6721 
    6713     6712     6717     6720     6718     6717     6718     6716 
    6717     6721     6718     6714     6718     6718     6716     6716 
    6714     6713     6716     6720     6720     6717     6716     6718 
    6718     6718     6717     6716     6717     6717     6717     6718 
    6720     6720     6718     6721     6718     6713     6718     6718 
    6709     6713     6723     6721     6716     6714     6718     6721 
    6716     6716     6717     6716     6716     6717     6717     6717 
    6716     6718     6721     6716     6714     6720     6720     6717 
    6717     6716     6717     6717     6714     6718     6723     6717 
    6714     6718     6720     6716     6714     6716     6716     6716 
    6717     6717     6714     6714     6718     6716     6713     6716 
    6714     6714     6721     6718     6716     6716     6714     6718 
    6720     6717     6717     6716     6718     6720     6716     6718 
    6718     6714     6718     6718     6714     6716     6718     6717 
    6714     6716     6718     6718     6720     6717     6714     6720 
    6720     6714     6716     6721     6720     6716     6717     6720 
    6717     6720     6720     6713     6714     6717     6717     6717 
    6718     6717     6718     6720     6717     6714     6718     6720 
    6716     6716     6723     6721     6713     6716     6718     6717 
    6717     6716     6713     6720     6724     6713     6710     6721 
    6720     6712     6718     6724     6713     6712     6717     6721 
    6723     6717     6716     6718     6716     6717     6717     6713 
    6718     6723     6714     6714     6721     6716     6714     6723 
    6720     6713     6718     6720     6714     6718     6718     6716 
    6718     6718     6717     6714     6720     6723     6720     6720 
    6721     6716     6712     6718     6720     6717     6721     6720 
    6716     6718     6721     6720     6718     6717     6717     6717 
    6718     6716     6713     6720     6720     6714     6718     6716 
    6714     6718     6718     6714     6716     6717     6717     6718 
    6717     6714     6718     6721     6717     6716     6718     6718 
    6716     6717     6720     6718     6716     6717     6717     6718 
    6720     6716     6714     6720     6716     6713     6717     6716 
    6714     6720     6718     6716     6717     6717     6716     6716 
    6718     6717     6714     6717     6720     6717     6717     6717 
    6714     6717     6718     6714     6714     6718     6718     6716 
    6718     6718     6716     6718     6720     6714     6713     6717 
    6716     6716     6718     6716     6714     6716     6718     6718 
    6716     6717     6717     6716     6720     6718     6714     6718 
    6721     6718     6714     6713     6717     6718     6714     6720 
    6723     6714     6712     6718     6718     6714     6718     6718 
    6714     6714     6717     6718     6721     6723     6717     6716 
    6720     6717     6712     6717     6718     6716     6721     6720 
    6713     6718     6723     6713     6714     6720     6717     6714 
    6720     6718     6714     6717     6721     6716     6717     6721 
    6716     6712     6721     6720     6713     6716     6720     6718 
    6718     6717     6716     6717     6717     6718     6718     6716 
    6714     6717     6717     6717     6717     6714     6716     6721 
    6720     6717     6716     6716     6720     6717     6713     6717 
    6718     6718     6718     6714     6714     6718     6717     6717 
    6718     6718     6717     6717     6720     6714     6713     6721 
    6718     6714     6720     6717     6714     6721     6720     6716 
    6717     6718     6718     6718     6717     6716     6717     6720 
    6718     6720     6720     6713     6714     6721     6717     6714 
    6718     6717     6716     6721     6720     6714     6716     6717 
    6716     6718     6718     6718     6716     6716     6720     6717 
    6714     6717     6713     6714     6721     6718     6716     6721 
    6718     6710     6716     6721     6714     6716     6720     6716 
    6717     6717     6717     6725     6720     6712     6718     6720 
    6714     6716     6718     6721     6718     6714     6718     6720 
    6714     6716     6721     6718     6716     6718     6718     6714 
    6716     6720     6718     6714     6716     6717     6716     6716 
    6718     6718     6718     6717     6716     6716     6717     6716 
    6716     6718     6717     6716     6717     6717     6716     6716 
    6717     6716     6714     6718     6718     6714     6717     6718 
    6714     6716     6718     6718     6717     6717     6717     6717 
    6717     6716     6716     6717     6712     6713     6724     6723 
    6713     6714     6717     6714     6714     6717     6717     6714 
    6716     6720     6717     6714     6717     6718     6716     6714 
    6713     6716     6717     6717     6721     6723     6716     6714 
    6718     6720     6718     6717     6714     6716     6721     6721 
    6718     6716     6716     6718     6717     6717     6718     6716 
    6717     6718     6716     6717     6723     6718     6710     6716 
    6721     6717     6720     6721     6714     6716     6718     6713 
    6710     6713     6712     6714     6720     6718     6712     6701 
    6681     6652     6642     6696     6829     6998     7067     6858 
    6382     6014     6154     6732     7299     7488     7204     6714 
    6467     6498     6417     6193     6197     6447     6837     7466 
    7824     7319     6632     6385     6052     5738     6070     6480 
    6902     8149     8707     6806     4862     5659     7468     7469 
    6118     5439     6061     7153     7647     7395     7069     7033 
    7057     6713     6084     6008     6637     7003     6656     6116 
    5999     6527     7376     7700     6960     6239     6714     7253 
    7005     6933     6771     6080     6088     6496     6362     6710 
    7364     6987     6354     6733     7406     7042     6367     6590 
    6620     5931     6178     7245     7434     6906     6527     6388 
    6615     6917     6901     6875     6944     6951     6874     6504 
    6037     6107     6762     7206     6764     6254     6739     7217 
    6798     6696     7082     6824     6574     6866     6637     6168 
    6471     6976     6852     6400     6291     6667     7180     7211 
    6675     6515     6886     6918     6683     6720     6720     6502 
    6515     6606     6570     6799     6859     6652     6929     6997 
    6554     6747     7055     6515     6164     6598     6879     6727 
    6610     6671     7071     7364     6720     6027     6523     7238 
    6874     6196     6365     6899     6956     6538     6237     6687 
    7237     7061     6917     7044     6687     6253     6494     6886 
    6663     6346     6691     7007     6674     6627     7040     6893 
    6696     7018     6646     5791     6231     7348     7140     6145 
    6316     7331     7501     6790     6330     6474     6758     6785 
    6556     6382     6473     6690     6971     7269     7175     6689 
    6467     6625     6729     6508     6151     6369     7086     7296 
    6875     6401     6292     6925     7601     7053     6029     6103 
    6840     7090     6821     6440     6289     6579     6993     7096 
    6897     6625     6532     6793     7130     6924     6297     6222 
    6818     7051     6655     6438     6694     6948     6828     6542 
    6555     6762     6774     6640     6552     6708     7064     7049 
    6648     6525     6702     6741     6610     6608     6740     6747 
    6802     6934     6677     6397     6624     6816     6732     6674 
    6623     6763     7106     6999     6489     6397     6654     6713 
    6809     6949     6635     6281     6529     7020     7225     6986 
    6466     6388     6895     6899     6353     6419     6721     6534 
    6631     7107     7196     7014     6760     6408     6362     6650 
    6709     6604     6754     6880     6727     6679     6847     6779 
    6440     6477     6987     7161     6681     6270     6633     7265 
    7056     6215     5985     6543     7032     7057     6921     6879 
    6759     6620     6809     6843     6397     6350     6706     6636 
    6642     7024     6804     6316     6663     7138     6895     6589 
    6675     6843     6922     6853     6612     6565     6856     6883 
    6463     6205     6346     6717     7060     6978     6747     6890 
    7048     6831     6473     6210     6207     6615     7150     7296 
    6997     6652     6477     6466     6600     6674     6590     6628 
    6917     7032     6747     6585     6739     6760     6667     6752 
    6777     6643     6751     6912     6598     6345     6697     7026 
    6867     6493     6307     6602     7067     7055     6643     6486 
    6805     7009     6772     6586     6652     6706     6651     6547 
    6585     6831     6959     6752     6523     6655     6956     6843 
    6463     6628     7080     6893     6440     6469     6745     6925 
    6806     6435     6347     6627     6889     6998     6937     6759 
    6655     6779     6995     6880     6413     6187     6498     6899 
    6891     6620     6650     6963     7007     6774     6615     6574 
    6589     6598     6596     6697     6840     6833     6795     6745 
    6555     6660     7011     6779     6359     6667     7111     6864 
    6438     6544     6922     7005     6659     6212     6204     6583 
    6860     6961     6975     6944     6968     6953     6836     6654 
    6466     6465     6637     6709     6642     6609     6575     6567 
    6785     6974     6805     6628     6797     7007     6924     6817 
    6806     6594     6336     6305     6421     6671     6983     7090 
    6845     6583     6713     6902     6710     6408     6513     6974 
    7061     6741     6771     6955     6709     6446     6616     6822 
    6655     6350     6219     6462     7037     7215     6687     6374 
    6814     7126     6674     6264     6474     6995     7624     7731 
    6983     6528     6875     7071     6647     5817     5017     5174 
    6307     7009     6758     6446     6767     7566     7994     7593 
    7051     7032     7198     6913     6335     5949     5630     5352 
    5706     6736     7443     7256     6874     6983     7414     7805 
    7877     7361     6647     6520     6662     6239     5972     6836 
    7497     6426     5094     5485     6702     7047     6357     5232 
    4598     5244     6633     7655     8298     8973     9377     9279 
    8849     7858     6318     5385     5913     6673     5917     4218 
    3538     4411     6106     7869     8650     8236     8249     8873 
    8079     6058     4954     4904     5007     5416     5940     5968 
    6374     7965     9190     8785     7911     7368     6453     5328 
    5103     5647     6178     6937     7935     8352     8046     7416 
    6728     6416     6307     5547     4685     5175     6592     7350 
    7209     6898     6548     5819     5255     5873     7198     8141 
    8845     9398     9175     8060     6544     5273     4666     4591 
    4693     4923     5436     6259     7395     8673     9331     8667 
    7285     6602     6640     6247     5553     5618     6308     6640 
    6351     6183     6820     7632     7520     6967     7284     8077 
    7767     6447     5653     5643     5382     4804     5179     6837 
    8006     7749     7553     8098     8216     7403     6284     5670 
    5917     6293     5984     5583     6079     7055     7438     7175 
    6766     6451     6574     7246     7782     7750     7516     7229 
    6921     6669     6157     5533     5236     5238     5667     6434 
    6891     7074     7392     7622     7429     6928     6473     6276 
    6478     7010     7256     7121     7219     7411     7138     6559 
    6231     6393     6683     6601     6318     6268     6324     6439 
    6829     7060     6891     6812     6779     6751     7044     7250 
    7002     6652     6388     6154     5975     5917     5957     6039 
    6502     7350     7742     7495     7300     7345     7272     6948 
    6598     6482     6482     6438     6610     6826     6505     6115 
    6303     6489     6411     6681     7057     6893     6589     6698 
    6905     6921     6941     6990     6963     6940     6912     6729 
    6461     6415     6610     6750     6717     6592     6535     6704 
    6949     6955     6777     6721     6671     6451     6340     6355 
    6380     6620     7029     7410     7604     7302     6701     6448 
    6496     6377     6299     6459     6346     6130     6613     7198 
    7051     6897     7172     7264     6983     6589     6296     6343 
    6623     6743     6677     6610     6589     6594     6492     6396 
    6654     7044     7183     7164     7114     6986     6810     6743 
    6673     6447     6345     6392     6397     6505     6606     6548 
    6663     6871     6863     6839     6768     6527     6559     6956 
    7094     6818     6670     6736     6656     6588     6721     6798 
    6855     7003     6976     6783     6691     6694     6644     6486 
    6323     6309     6434     6633     6826     6848     6825     7026 
    7215     7145     6970     6694     6362     6320     6554     6597 
    6473     6646     6914     6864     6825     6991     6963     6756 
    6717     6727     6577     6421     6399     6492     6646     6799 
    6922     6906     6658     6484     6714     7060     6998     6610 
    6408     6494     6652     6836     6868     6690     6731     6940 
    6793     6505     6590     6871     6860     6566     6484     6756 
    6953     6786     6505     6529     6756     6736     6600     6713 
    6837     6795     6817     6832     6736     6768     6786     6534 
    6451     6712     6768     6670     6864     7045     6832     6581 
    6633     6729     6658     6562     6566     6793     7052     6885 
    6555     6610     6860     6921     6733     6448     6382     6601 
    6808     6843     6808     6799     6745     6597     6494     6567 
    6771     6909     6879     6851     6925     6933     6790     6556 
    6351     6378     6600     6754     6870     6912     6729     6698 
    6867     6723     6490     6609     6794     6771     6667     6646 
    6686     6698     6687     6679     6760     6876     6806     6597 
    6463     6561     6882     7026     6795     6625     6708     6781 
    6791     6785     6724     6648     6551     6554     6799     6944 
    6771     6631     6724     6849     6731     6524     6651     6832 
    6673     6517     6546     6608     6732     6808     6782     6879 
    6982     6802     6573     6659     6898     6920     6760     6606 
    6489     6566     6783     6751     6624     6772     6902     6709 
    6512     6575     6706     6799     6835     6709     6648     6702 
    6513     6347     6637     6983     6978     6858     6818     6752 
    6723     6817     6752     6508     6521     6766     6822     6701 
    6643     6698     6766     6714     6610     6623     6813     7076 
    7025     6621     6507     6763     6812     6655     6604     6637 
    6654     6581     6523     6723     7005     6936     6578     6447 
    6691     6880     6789     6651     6652     6743     6766     6725 
    6839     6959     6782     6558     6574     6659     6632     6575 
    6704     6961     7034     6852     6600     6490     6594     6754 
    6808     6736     6636     6673     6781     6813     6856     6862 
    6615     6361     6466     6706     6745     6696     6731     6781 
    6810     6868     6878     6777     6698     6700     6683     6656 
    6631     6616     6720     6790     6597     6427     6602     6867 
    6897     6791     6782     6862     6852     6716     6609     6635 
    6669     6616     6597     6646     6679     6798     7042     7098 
    6862     6687     6666     6585     6492     6543     6663     6678 
    6625     6686     6755     6700     6735     6853     6810     6714 
    6733     6762     6713     6646     6696     6906     7009     6781 
    6461     6370     6494     6627     6721     6837     6849     6763 
    6816     6894     6826     6752     6691     6605     6579     6592 
    6577     6562     6586     6714     6949     7055     6887     6743 
    6724     6612     6602     6810     6843     6712     6713     6781 
    6767     6662     6527     6497     6601     6721     6804     6837 
