Origin Time       2025/01/26 08:11:00
Lat.              34.975
Long.             138.213
Depth. (km)       21
Mag.              3.4
Station Code      SZO015
Station Lat.      35.2433
Station Long.     138.3410
Station Height(m) 451
Record Time       2025/01/26 08:11:35
Sampling Freq(Hz) 100Hz
Duration Time(s)  60
Dir.              N-S
Scale Factor      7845(gal)/8223790
Max. Acc. (gal)   3.229
Last Correction   2025/01/26 08:11:34
Memo.             
[...]
   -1566    -1557    -1567    -1570    -1561    -1566    -1572    -1564 
   -1559    -1567    -1567    -1564    -1567    -1564    -1564    -1567 
   -1563    -1566    -1567    -1561    -1563    -1568    -1568    -1568 
   -1567    -1564    -1563    -1567    -1568    -1566    -1566    -1566 
   -1566    -1567    -1567    -1567    -1567    -1570    -1567    -1564 
   -1566    -1568    -1564    -1566    -1567    -1564    -1567    -1566 
   -1560    -1568    -1571    -1559    -1560    -1571    -1566    -1559 
   -1564    -1571    -1571    -1564    -1563    -1566    -1567    -1563 
   -1564    -1568    -1566    -1568    -1570    -1561    -1563    -1571 
   -1566    -1567    -1568    -1560    -1564    -1568    -1559    -1564 
   -1571    -1563    -1561    -1570    -1567    -1561    -1564    -1566 
   -1567    -1568    -1567    -1567    -1567    -1566    -1563    -1566 
   -1568    -1567    -1567    -1568    -1564    -1564    -1567    -1567 
   -1567    -1566    -1563    -1570    -1568    -1561    -1567    -1564 
   -1561    -1568    -1566    -1561    -1566    -1566    -1567    -1568 
   -1567    -1566    -1567    -1568    -1567    -1564    -1567    -1571 
   -1566    -1564    -1570    -1566    -1561    -1567    -1567    -1564 
   -1567    -1566    -1567    -1567    -1563    -1564    -1566    -1561 
   -1564    -1571    -1567    -1563    -1566    -1567    -1564    -1566 
   -1570    -1566    -1561    -1563    -1566    -1567    -1567    -1564 
   -1564    -1567    -1566    -1563    -1564    -1571    -1568    -1560 
   -1564    -1571    -1566    -1561    -1567    -1568    -1561    -1563 
   -1570    -1566    -1566    -1570    -1566    -1563    -1570    -1568 
   -1563    -1566    -1568    -1566    -1566    -1566    -1564    -1567 
   -1568    -1564    -1566    -1567    -1566    -1568    -1566    -1563 
   -1566    -1564    -1561    -1568    -1571    -1566    -1564    -1566 
   -1566    -1567    -1566    -1566    -1568    -1564    -1563    -1567 
   -1566    -1563    -1566    -1568    -1568    -1567    -1566    -1566 
   -1566    -1567    -1568    -1568    -1563    -1560    -1567    -1568 
   -1561    -1567    -1571    -1561    -1563    -1570    -1566    -1563 
   -1566    -1566    -1566    -1564    -1563    -1563    -1564    -1568 
   -1570    -1564    -1564    -1567    -1563    -1564    -1568    -1564 
   -1566    -1570    -1568    -1564    -1560    -1563    -1568    -1564 
   -1563    -1567    -1564    -1564    -1568    -1567    -1563    -1566 
   -1571    -1567    -1560    -1567    -1571    -1564    -1561    -1568 
   -1568    -1566    -1567    -1567    -1567    -1570    -1570    -1568 
   -1563    -1566    -1572    -1566    -1563    -1568    -1567    -1564 
   -1564    -1566    -1564    -1564    -1568    -1567    -1561    -1567 
   -1566    -1561    -1568    -1568    -1563    -1564    -1570    -1568 
   -1564    -1564    -1567    -1566    -1564    -1567    -1567    -1563 
   -1567    -1574    -1566    -1560    -1568    -1566    -1557    -1564 
   -1570    -1564    -1561    -1568    -1568    -1560    -1560    -1572 
   -1567    -1556    -1568    -1571    -1559    -1561    -1570    -1567 
   -1561    -1561    -1567    -1570    -1563    -1561    -1572    -1568 
   -1557    -1567    -1571    -1561    -1560    -1567    -1570    -1567 
   -1567    -1564    -1561    -1566    -1567    -1561    -1567    -1570 
   -1563    -1566    -1567    -1563    -1568    -1570    -1560    -1563 
   -1566    -1560    -1566    -1570    -1564    -1566    -1570    -1566 
   -1566    -1567    -1563    -1563    -1564    -1568    -1570    -1563 
   -1563    -1568    -1567    -1564    -1566    -1568    -1567    -1563 
   -1561    -1563    -1563    -1564    -1567    -1567    -1566    -1564 
   -1567    -1567    -1561    -1564    -1568    -1563    -1564    -1568 
   -1563    -1560    -1564    -1566    -1566    -1566    -1564    -1563 
   -1566    -1570    -1566    -1559    -1564    -1566    -1564    -1567 
   -1567    -1566    -1566    -1567    -1566    -1564    -1566    -1564 
   -1567    -1568    -1563    -1564    -1568    -1566    -1564    -1564 
   -1564    -1566    -1566    -1566    -1567    -1568    -1566    -1564 
   -1564    -1567    -1570    -1564    -1563    -1568    -1566    -1559 
   -1564    -1566    -1561    -1566    -1568    -1564    -1566    -1566 
   -1563    -1567    -1568    -1561    -1566    -1572    -1566    -1561 
   -1567    -1566    -1564    -1566    -1566    -1566    -1566    -1563 
   -1564    -1566    -1568    -1566    -1563    -1567    -1568    -1564 
   -1564    -1568    -1564    -1561    -1568    -1570    -1566    -1568 
   -1566    -1560    -1567    -1572    -1566    -1561    -1567    -1571 
   -1566    -1563    -1568    -1566    -1564    -1568    -1563    -1561 
   -1572    -1567    -1557    -1567    -1570    -1560    -1563    -1567 
   -1566    -1566    -1566    -1563    -1564    -1567    -1561    -1563 
   -1568    -1567    -1564    -1564    -1567    -1566    -1561    -1564 
   -1567    -1566    -1563    -1564    -1567    -1567    -1566    -1566 
   -1570    -1567    -1563    -1563    -1567    -1566    -1564    -1566 
   -1564    -1563    -1564    -1564    -1566    -1570    -1566    -1563 
   -1567    -1568    -1564    -1564    -1566    -1567    -1566    -1567 
   -1568    -1563    -1561    -1567    -1566    -1566    -1570    -1566 
   -1564    -1567    -1563    -1563    -1568    -1566    -1563    -1568 
   -1564    -1560    -1567    -1567    -1561    -1564    -1567    -1566 
   -1566    -1567    -1566    -1564    -1567    -1567    -1564    -1564 
   -1561    -1561    -1564    -1564    -1567    -1567    -1563    -1564 
   -1568    -1568    -1564    -1563    -1566    -1568    -1566    -1564 
   -1567    -1568    -1563    -1563    -1566    -1564    -1566    -1570 
   -1566    -1561    -1566    -1567    -1566    -1567    -1563    -1563 
   -1566    -1564    -1563    -1567    -1567    -1566    -1561    -1563 
   -1566    -1563    -1564    -1570    -1567    -1563    -1564    -1567 
   -1567    -1566    -1563    -1566    -1567    -1564    -1566    -1564 
   -1560    -1564    -1570    -1566    -1563    -1567    -1567    -1564 
   -1568    -1570    -1563    -1560    -1564    -1568    -1566    -1564 
   -1563    -1566    -1570    -1564    -1566    -1570    -1566    -1564 
   -1566    -1566    -1566    -1566    -1564    -1563    -1564    -1564 
   -1564    -1566    -1566    -1567    -1564    -1564    -1571    -1567 
   -1559    -1566    -1571    -1564    -1563    -1571    -1567    -1564 
   -1566    -1561    -1561    -1568    -1571    -1568    -1566    -1563 
   -1566    -1571    -1568    -1561    -1567    -1571    -1566    -1561 
   -1561    -1566    -1567    -1563    -1566    -1568    -1566    -1563 
   -1564    -1566    -1564    -1567    -1568    -1566    -1566    -1568 
   -1567    -1566    -1568    -1567    -1563    -1566    -1568    -1566 
   -1563    -1564    -1564    -1566    -1564    -1566    -1570    -1566 
   -1561    -1567    -1570    -1566    -1567    -1567    -1567    -1568 
   -1564    -1563    -1564    -1561    -1561    -1567    -1571    -1566 
   -1560    -1561    -1566    -1568    -1564    -1566    -1567    -1560 
   -1563    -1570    -1564    -1564    -1568    -1561    -1563    -1570 
   -1564    -1567    -1571    -1559    -1561    -1572    -1564    -1561 
   -1567    -1564    -1567    -1570    -1568    -1570    -1568    -1564 
   -1567    -1564    -1560    -1567    -1568    -1563    -1568    -1572 
   -1563    -1560    -1566    -1567    -1564    -1566    -1567    -1564 
   -1563    -1567    -1570    -1566    -1567    -1567    -1561    -1567 
   -1572    -1561    -1564    -1572    -1563    -1560    -1570    -1566 
   -1560    -1567    -1571    -1568    -1564    -1563    -1564    -1564 
   -1564    -1567    -1567    -1561    -1564    -1571    -1568    -1564 
   -1568    -1570    -1564    -1563    -1564    -1566    -1567    -1564 
   -1566    -1567    -1566    -1567    -1566    -1563    -1563    -1564 
   -1564    -1564    -1566    -1566    -1564    -1564    -1566    -1567 
   -1566    -1566    -1568    -1563    -1560    -1566    -1563    -1563 
   -1568    -1564    -1561    -1568    -1567    -1563    -1564    -1566 
   -1563    -1564    -1567    -1567    -1564    -1563    -1564    -1567 
   -1563    -1564    -1572    -1567    -1561    -1568    -1567    -1564 
   -1568    -1570    -1571    -1575    -1574    -1574    -1574    -1572 
   -1590    -1620    -1657    -1695    -1675    -1539    -1301    -1088 
   -1107    -1431    -1791    -1831    -1609    -1537    -1899    -2565 
   -2872    -2052     -338      884      486    -1314    -3343    -4151 
   -2934     -893       25     -216     -877    -1921    -2586    -2280 
   -1977    -1745    -1013     -951    -1750    -2065    -1954    -1366 
    -284     -567    -2320    -3248    -2532     -924      172     -746 
   -2482    -2485    -1564    -1331    -1147    -1381    -2147    -1849 
   -1341    -1837    -1834    -1158     -919     -978    -1563    -2567 
   -2674    -1545     -218     -375    -2107    -2891    -2066    -1273 
    -730     -724    -1568    -2085    -2281    -2358    -1586     -885 
    -961    -1112    -1463    -2023    -2232    -1949    -1209     -955 
   -1728    -1958    -1399    -1436    -1522    -1298    -1640    -1957 
   -1748    -1590    -1413    -1216    -1300    -1543    -1796    -1710 
   -1336    -1429    -1875    -2196    -2133    -1109     -334    -1216 
   -1960    -1850    -2111    -1854    -1090    -1309    -1737    -1603 
   -1556    -1586    -1586    -1799    -1701    -1102    -1196    -2006 
   -2015    -1271    -1011    -1279    -1499    -1826    -2103    -1771 
   -1502    -1584    -1475    -1737    -2014    -1246     -726    -1356 
   -1910    -2187    -2212    -1204     -395     -989    -1761    -2169 
   -2169    -1490    -1328    -1865    -1875    -1509    -1117     -888 
   -1374    -1910    -1850    -1892    -2068    -1798    -1304     -900 
    -831    -1498    -2313    -2265    -1541     -958     -992    -1521 
   -1885    -1898    -1883    -1676    -1298    -1406    -1726    -1518 
   -1429    -1846    -1625     -773     -865    -1933    -2489    -2099 
   -1405    -1058    -1364    -1783    -1765    -1630    -1480    -1233 
   -1341    -1709    -1737    -1517    -1451    -1763    -2025    -1566 
   -1017    -1173    -1664    -2079    -2027    -1379    -1062    -1424 
   -1706    -1660    -1435    -1264    -1499    -1830    -1942    -1950 
   -1575    -1102    -1379    -1863    -1736    -1433    -1223    -1166 
   -1572    -1917    -1788    -1679    -1605    -1470    -1440    -1368 
   -1366    -1433    -1421    -1769    -2258    -2145    -1719    -1382 
   -1075    -1004    -1344    -1831    -1927    -1545    -1332    -1591 
   -1827    -1615    -1335    -1493    -1606    -1497    -1706    -1688 
   -1313    -1595    -1996    -1744    -1478    -1273    -1070    -1348 
   -1733    -1753    -1709    -1661    -1606    -1798    -1784    -1282 
   -1151    -1514    -1590    -1520    -1653    -1729    -1715    -1729 
   -1606    -1414    -1456    -1444    -1165    -1344    -2011    -2160 
   -1722    -1271    -1039    -1336    -1965    -2074    -1659    -1298 
   -1111    -1395    -2033    -1946    -1255    -1073    -1439    -1925 
   -2050    -1567    -1202    -1277    -1398    -1588    -1753    -1773 
   -1780    -1674    -1453    -1220    -1287    -1777    -1890    -1602 
   -1621    -1572    -1433    -1680    -1606    -1105    -1298    -1867 
   -1942    -1919    -1594     -866    -1013    -1867    -2188    -2004 
   -1524    -1004    -1042    -1493    -1860    -1907    -1679    -1551 
   -1702    -1765    -1399    -1028    -1174    -1525    -1772    -1954 
   -1885    -1660    -1482    -1283    -1306    -1470    -1487    -1763 
   -1999    -1529    -1163    -1524    -1827    -1729    -1548    -1386 
   -1503    -1831    -1719    -1339    -1350    -1549    -1622    -1733 
   -1707    -1383    -1318    -1599    -1682    -1710    -1692    -1414 
   -1467    -1676    -1445    -1394    -1591    -1593    -1699    -1719 
   -1444    -1402    -1656    -1815    -1730    -1443    -1196    -1270 
   -1595    -1883    -1919    -1668    -1370    -1274    -1474    -1814 
   -1660    -1155    -1328    -1848    -1910    -1760    -1406    -1204 
   -1713    -1985    -1602    -1266    -1047    -1259    -1983    -2184 
   -1717    -1398    -1440    -1593    -1587    -1395    -1328    -1487 
   -1661    -1779    -1756    -1455    -1250    -1444    -1661    -1709 
   -1783    -1795    -1420    -1085    -1503    -1946    -1737    -1534 
   -1451    -1459    -1834    -1877    -1406    -1200    -1229    -1401 
   -1927    -2073    -1480    -1232    -1512    -1536    -1536    -1648 
   -1578    -1628    -1576    -1239    -1485    -2092    -1971    -1493 
   -1290    -1240    -1518    -1823    -1601    -1410    -1540    -1674 
   -1838    -1696    -1212    -1107    -1410    -1617    -1703    -1802 
   -1725    -1593    -1664    -1599    -1395    -1387    -1453    -1588 
   -1676    -1551    -1441    -1312    -1378    -1949    -2270    -1827 
   -1318    -1252    -1452    -1865    -2134    -1738    -1514    -2018 
   -2124    -1537     -988     -676     -700     -928    -1061    -1255 
   -1686    -2039    -1703     -899     -936    -2084    -2963    -2691 
   -1698    -1124    -1834    -2952    -2882    -1340      465      561 
   -1152    -2289    -1798     -750     -549    -1738    -2691    -2031 
   -1125    -1279    -2062    -2875    -3118    -2101     -477      139 
    -437    -1062    -1343    -1687    -2363    -3306    -3970    -3847 
   -2859    -1170      534     1628     1819      610    -1495    -2948 
   -2984    -1911     -957    -1348    -2586    -3150    -2485    -1359 
    -766     -926    -1506    -2246    -2620    -2138    -1549    -1684 
   -1800    -1154     -537     -905    -1848    -2099    -1391     -811 
    -920    -1390    -2188    -2716    -1733     -133     -207    -1657 
   -2583    -2492    -1875    -1647    -2147    -2249    -1394     -103 
     839      121    -2087    -3844    -4175    -3235    -1807     -886 
    -345      230       98    -1250    -2731    -3015    -2227    -1521 
   -1394    -1386    -1128     -718     -589     -927    -1381    -1877 
   -2462    -2871    -2970    -2384    -1057     -298     -932    -1908 
   -2149    -1763    -1201     -928    -1347    -2003    -2045    -1649 
   -1474    -1440    -1220    -1089    -1231    -1111     -853    -1236 
   -2037    -2668    -2963    -2490    -1255     -228     -251    -1185 
   -1975    -2116    -2384    -2714    -2020     -750     -409    -1055 
   -1691    -1977    -1964    -1625    -1472    -1717    -1786    -1694 
   -1475     -631      -99    -1084    -2478    -2897    -2532    -1827 
   -1082     -854    -1147    -1337    -1495    -1952    -2151    -1837 
   -1660    -1746    -1609    -1333    -1134     -934    -1107    -1723 
   -2189    -2226    -1790    -1210    -1129    -1476    -1732    -1632 
   -1228     -988    -1169    -1517    -1903    -2149    -1926    -1506 
   -1636    -2108    -1964    -1425    -1312    -1378    -1200    -1132 
   -1522    -1966    -1980    -1653    -1229    -1193    -1637    -1783 
   -1664    -1679    -1468    -1351    -1568    -1543    -1582    -1803 
   -1443     -908     -970    -1381    -1869    -2317    -2428    -2068 
   -1507    -1314    -1462    -1345    -1189    -1410    -1490    -1395 
   -1614    -1741    -1568    -1593    -1755    -1750    -1626    -1413 
   -1248    -1350    -1599    -1742    -1692    -1561    -1593    -1665 
   -1494    -1363    -1506    -1644    -1682    -1603    -1432    -1510 
   -1803    -1826    -1586    -1466    -1402    -1371    -1707    -2037 
   -1857    -1543    -1336    -1294    -1514    -1584    -1470    -1460 
   -1308    -1165    -1470    -1849    -1965    -2104    -2065    -1448 
    -954    -1069    -1258    -1561    -1879    -1632    -1458    -1676 
   -1594    -1544    -1705    -1524    -1490    -1742    -1588    -1490 
   -1777    -1777    -1607    -1510    -1259    -1209    -1509    -1757 
   -1869    -1856    -1637    -1412    -1539    -1675    -1305    -1128 
   -1536    -1695    -1590    -1713    -1701    -1560    -1620    -1560 
   -1435    -1440    -1356    -1444    -1740    -1709    -1474    -1462 
   -1647    -1810    -1761    -1556    -1478    -1489    -1382    -1370 
   -1567    -1744    -1881    -1898    -1570    -1185    -1156    -1426 
   -1725    -1826    -1730    -1614    -1532    -1526    -1591    -1486 
   -1289    -1352    -1514    -1603    -1813    -1946    -1838    -1603 
   -1248    -1229    -1647    -1686    -1441    -1530    -1563    -1413 
   -1557    -1831    -1796    -1572    -1494    -1485    -1374    -1360 
   -1491    -1556    -1574    -1640    -1733    -1830    -1821    -1687 
   -1617    -1576    -1370    -1161    -1219    -1471    -1707    -1856 
   -1937    -1761    -1300    -1185    -1540    -1672    -1568    -1517 
   -1386    -1371    -1556    -1591    -1583    -1698    -1683    -1599 
   -1598    -1506    -1489    -1669    -1671    -1630    -1779    -1688 
   -1435    -1452    -1522    -1436    -1377    -1495    -1657    -1632 
   -1593    -1675    -1675    -1624    -1552    -1462    -1534    -1567 
   -1472    -1588    -1714    -1594    -1452    -1323    -1266    -1493 
   -1799    -1908    -1873    -1688    -1416    -1362    -1455    -1544 
   -1748    -1787    -1528    -1404    -1452    -1460    -1526    -1637 
   -1632    -1584    -1613    -1742    -1872    -1691    -1306    -1248 
   -1398    -1468    -1659    -1817    -1753    -1626    -1429    -1345 
   -1463    -1468    -1444    -1505    -1534    -1663    -1821    -1822 
   -1753    -1541    -1248    -1285    -1522    -1567    -1548    -1587 
   -1624    -1699    -1760    -1701    -1432    -1150    -1263    -1552 
   -1692    -1838    -1794    -1449    -1282    -1401    -1609    -1844 
   -1836    -1593    -1553    -1638    -1575    -1512    -1529    -1576 
   -1567    -1491    -1495    -1532    -1524    -1561    -1593    -1568 
   -1507    -1466    -1605    -1734    -1532    -1375    -1556    -1621 
   -1574    -1761    -1804    -1602    -1534    -1417    -1287    -1498 
   -1710    -1699    -1782    -1918    -1806    -1495    -1281    -1271 
   -1314    -1328    -1431    -1588    -1695    -1799    -1806    -1706 
   -1653    -1517    -1328    -1345    -1485    -1601    -1618    -1518 
   -1464    -1441    -1547    -1915    -2045    -1719    -1409    -1297 
   -1370    -1559    -1655    -1656    -1555    -1408    -1445    -1591 
   -1638    -1571    -1483    -1487    -1566    -1652    -1630    -1431 
   -1362    -1567    -1737    -1786    -1825    -1741    -1548    -1471 
   -1440    -1339    -1382    -1541    -1588    -1603    -1609    -1568 
   -1587    -1591    -1551    -1582    -1583    -1534    -1629    -1786 
   -1752    -1498    -1301    -1395    -1580    -1610    -1595    -1664 
   -1725    -1714    -1652    -1512    -1379    -1327    -1318    -1463 
   -1706    -1779    -1722    -1638    -1487    -1377    -1440    -1583 
   -1649    -1672    -1723    -1687    -1522    -1404    -1414    -1480 
   -1586    -1710    -1663    -1485    -1532    -1690    -1613    -1506 
   -1520    -1490    -1525    -1620    -1541    -1517    -1696    -1737 
   -1601    -1472    -1336    -1308    -1507    -1772    -1804    -1578 
   -1462    -1533    -1545    -1525    -1526    -1547    -1640    -1719 
   -1688    -1587    -1552    -1567    -1464    -1447    -1602    -1578 
