Origin Time       2025/01/26 08:11:00
Lat.              34.975
Long.             138.213
Depth. (km)       21
Mag.              3.4
Station Code      SZO015
Station Lat.      35.2433
Station Long.     138.3410
Station Height(m) 451
Record Time       2025/01/26 08:11:35
Sampling Freq(Hz) 100Hz
Duration Time(s)  60
Dir.              U-D
Scale Factor      7845(gal)/8223790
Max. Acc. (gal)   1.657
Last Correction   2025/01/26 08:11:34
Memo.             
[...]
   32649    32647    32644    32648    32649    32645    32643    32647 
   32648    32645    32647    32651    32647    32643    32648    32651 
   32648    32647    32647    32647    32648    32647    32647    32647 
   32645    32645    32647    32647    32645    32647    32648    32645 
   32643    32647    32648    32645    32645    32648    32647    32643 
   32645    32652    32648    32643    32647    32649    32644    32644 
   32648    32648    32643    32645    32651    32648    32645    32648 
   32649    32647    32645    32645    32645    32644    32643    32644 
   32648    32647    32643    32648    32651    32645    32643    32647 
   32647    32645    32648    32648    32647    32647    32648    32647 
   32644    32647    32649    32648    32645    32648    32647    32645 
   32649    32648    32645    32645    32645    32648    32649    32645 
   32644    32644    32645    32648    32647    32644    32648    32649 
   32647    32645    32647    32644    32644    32647    32645    32645 
   32648    32648    32647    32644    32643    32645    32647    32645 
   32644    32644    32645    32645    32645    32645    32645    32647 
   32645    32643    32645    32649    32645    32640    32644    32651 
   32649    32644    32648    32649    32644    32645    32648    32647 
   32647    32648    32645    32645    32647    32647    32647    32647 
   32649    32651    32644    32644    32652    32649    32644    32648 
   32649    32645    32644    32645    32649    32649    32647    32645 
   32647    32647    32645    32644    32647    32649    32647    32645 
   32647    32647    32647    32648    32645    32647    32651    32648 
   32643    32645    32649    32647    32644    32644    32648    32649 
   32648    32647    32648    32648    32645    32645    32649    32648 
   32645    32649    32649    32644    32645    32649    32648    32648 
   32648    32647    32647    32647    32647    32645    32647    32649 
   32648    32647    32647    32645    32644    32645    32645    32645 
   32647    32647    32648    32648    32648    32647    32647    32648 
   32647    32644    32647    32648    32644    32645    32649    32649 
   32645    32644    32645    32648    32648    32647    32645    32647 
   32648    32649    32648    32648    32648    32647    32647    32647 
   32645    32645    32645    32644    32647    32645    32643    32645 
   32648    32647    32647    32647    32647    32647    32647    32645 
   32647    32651    32648    32644    32647    32648    32643    32644 
   32649    32648    32644    32648    32648    32643    32644    32648 
   32647    32645    32645    32647    32647    32647    32647    32648 
   32649    32647    32643    32647    32651    32647    32647    32652 
   32647    32641    32648    32649    32644    32647    32649    32647 
   32648    32648    32644    32644    32648    32651    32648    32645 
   32647    32648    32645    32643    32647    32649    32644    32645 
   32649    32647    32647    32651    32649    32647    32647    32647 
   32648    32647    32643    32645    32649    32647    32644    32645 
   32647    32649    32649    32645    32644    32647    32647    32647 
   32645    32643    32648    32649    32644    32644    32649    32648 
   32647    32648    32648    32647    32645    32647    32647    32647 
   32647    32644    32644    32647    32645    32645    32647    32644 
   32643    32648    32651    32648    32647    32647    32648    32648 
   32645    32645    32647    32647    32648    32648    32645    32644 
   32645    32649    32651    32644    32643    32648    32647    32644 
   32647    32647    32644    32643    32647    32648    32645    32645 
   32647    32645    32645    32647    32648    32648    32645    32647 
   32648    32648    32645    32647    32649    32645    32645    32648 
   32645    32645    32648    32645    32643    32647    32648    32645 
   32644    32648    32649    32645    32644    32647    32645    32645 
   32649    32649    32647    32647    32648    32649    32648    32644 
   32643    32645    32649    32648    32644    32647    32651    32649 
   32648    32645    32648    32649    32647    32644    32647    32648 
   32645    32647    32648    32645    32645    32648    32645    32644 
   32647    32648    32647    32645    32644    32644    32643    32644 
   32649    32651    32645    32643    32645    32647    32645    32645 
   32647    32647    32645    32644    32647    32647    32644    32645 
   32649    32651    32647    32644    32647    32651    32648    32644 
   32647    32649    32647    32645    32647    32648    32648    32644 
   32644    32647    32647    32647    32647    32647    32647    32647 
   32648    32645    32645    32649    32649    32645    32644    32644 
   32645    32648    32647    32645    32647    32648    32645    32645 
   32647    32648    32647    32644    32645    32645    32644    32647 
   32647    32645    32647    32648    32644    32643    32644    32648 
   32648    32645    32647    32648    32647    32648    32648    32648 
   32648    32647    32644    32643    32647    32651    32651    32649 
   32649    32649    32648    32645    32645    32647    32647    32647 
   32645    32645    32647    32647    32647    32647    32649    32649 
   32645    32647    32651    32648    32644    32645    32647    32647 
   32648    32647    32645    32645    32647    32647    32649    32649 
   32644    32647    32651    32648    32647    32649    32648    32645 
   32648    32649    32647    32647    32648    32645    32644    32649 
   32649    32644    32643    32645    32648    32648    32647    32647 
   32647    32647    32647    32648    32648    32647    32645    32645 
   32647    32648    32648    32644    32644    32647    32649    32645 
   32643    32645    32647    32648    32647    32647    32648    32649 
   32649    32647    32647    32648    32648    32645    32648    32649 
   32645    32647    32649    32645    32645    32648    32648    32647 
   32647    32648    32647    32645    32647    32648    32647    32645 
   32647    32648    32645    32645    32647    32647    32647    32648 
   32645    32645    32647    32645    32645    32647    32644    32647 
   32651    32647    32645    32648    32647    32645    32648    32648 
   32645    32647    32649    32644    32644    32649    32648    32645 
   32648    32649    32648    32647    32645    32647    32648    32648 
   32647    32645    32645    32647    32649    32649    32645    32644 
   32648    32649    32645    32645    32647    32647    32648    32647 
   32644    32645    32647    32647    32645    32645    32647    32648 
   32648    32644    32643    32648    32651    32645    32643    32647 
   32649    32647    32645    32648    32648    32645    32645    32647 
   32649    32647    32644    32647    32648    32648    32648    32647 
   32645    32645    32647    32648    32648    32648    32647    32647 
   32645    32644    32644    32645    32648    32649    32647    32647 
   32648    32647    32644    32645    32648    32649    32645    32645 
   32648    32648    32647    32645    32645    32648    32648    32644 
   32644    32645    32644    32647    32647    32645    32645    32645 
   32647    32647    32647    32648    32648    32644    32644    32647 
   32647    32645    32643    32645    32647    32645    32645    32647 
   32647    32647    32648    32649    32649    32647    32647    32649 
   32647    32645    32648    32647    32645    32645    32645    32645 
   32647    32645    32644    32647    32648    32647    32647    32647 
   32647    32645    32647    32649    32645    32640    32647    32652 
   32647    32644    32648    32647    32644    32645    32647    32644 
   32645    32647    32645    32643    32647    32647    32643    32640 
   32640    32633    32628    32632    32637    32638    32637    32617 
   32559    32463    32382    32420    32694    33210    33739    33806 
   33079    31887    31041    31078    31955    33177    33933    33636 
   32621    31901    32094    32948    33666    33432    32458    31872 
   31882    32000    32668    33859    34015    32838    31869    31666 
   31806    32331    33120    33515    32973    31841    31494    32602 
   33934    33957    32819    31860    31847    32433    32742    32714 
   32900    32918    32529    32339    32417    32653    32994    33046 
   32772    32431    32283    32656    33143    33029    32433    31837 
   31961    32952    33400    32833    32495    32610    32499    32281 
   32579    33243    33232    32462    32026    32216    32532    32871 
   33215    33131    32540    32050    32182    32817    33180    32981 
   32715    32312    31889    32302    33239    33363    32645    32313 
   32491    32383    32355    32992    33420    32875    32248    32327 
   32570    32653    32706    32668    32660    32540    32319    32622 
   33064    32775    32404    32738    33077    32726    32254    32296 
   32630    32778    32603    32401    32525    32811    32807    32736 
   33038    33127    32663    32382    32343    32278    32471    32780 
   32931    32918    32470    31897    32200    32996    33218    33093 
   32898    32466    32152    32329    32915    33185    32656    32174 
   32360    32684    32832    32898    32868    32817    32653    32277 
   32132    32408    32714    32859    32745    32497    32656    33124 
   33073    32543    32418    32632    32416    32251    32871    33266 
   32549    31900    32437    33215    33002    32441    32625    32984 
   32553    31997    32404    33178    33180    32674    32405    32381 
   32409    32528    32738    32822    32690    32528    32514    32675 
   32775    32611    32543    32778    32886    32788    32710    32591 
   32610    32806    32637    32182    32223    32744    32933    32624 
   32478    32799    33083    32930    32610    32429    32358    32429 
   32713    32910    32729    32404    32387    32755    32999    32786 
   32493    32428    32498    32578    32651    32817    32923    32759 
   32590    32563    32580    32675    32625    32327    32256    32656 
   33095    33035    32626    32472    32597    32692    32690    32613 
   32661    32760    32671    32622    32574    32377    32560    33053 
   33022    32548    32293    32329    32478    32664    32796    32910 
   33000    32807    32528    32548    32491    32247    32432    32900 
   32903    32563    32487    32657    32863    33025    32837    32370 
   32177    32329    32574    32945    33269    33008    32300    31995 
   32416    32923    32914    32703    32741    32659    32305    32382 
   32925    33097    32713    32354    32449    32690    32613    32552 
   32745    32805    32649    32557    32678    32840    32815    32690 
   32462    32248    32378    32560    32593    32867    33176    33015 
   32614    32319    32170    32356    32863    33174    33079    32746 
   32281    32053    32363    32798    32911    32818    32740    32630 
   32529    32616    32661    32529    32580    32788    32773    32579 
   32545    32751    32846    32617    32364    32479    32836    32940 
   32683    32502    32541    32514    32532    32782    32815    32559 
   32618    32954    32908    32493    32287    32466    32718    32714 
   32485    32429    32705    32933    32859    32702    32572    32449 
   32518    32740    32819    32697    32529    32568    32753    32717 
   32557    32593    32776    32871    32644    32262    32233    32679 
   33106    32981    32545    32460    32665    32647    32521    32603 
   32702    32663    32609    32644    32715    32624    32462    32679 
   33118    33038    32502    32175    32314    32699    32840    32738 
   32778    32740    32486    32464    32725    32826    32667    32560 
   32586    32540    32478    32586    32703    32630    32584    32764 
   32899    32730    32494    32530    32699    32676    32660    32788 
   32707    32571    32721    32825    32648    32424    32383    32533 
   32659    32598    32467    32464    32629    32946    33201    32989 
   32555    32483    32590    32536    32497    32614    32752    32660 
   32366    32377    32748    32879    32783    32838    32844    32629 
   32418    32402    32521    32513    32494    32736    32958    32881 
   32684    32620    32648    32568    32575    32746    32738    32652 
   32625    32408    32161    32377    33058    33428    33042    32574 
   32458    32455    32552    32711    32672    32526    32582    32711 
   32695    32678    32652    32509    32476    32664    32813    32730 
   32541    32458    32562    32771    32741    32294    31963    32231 
   32767    33064    32921    32557    32590    33080    33373    33185 
   32769    32589    32819    32842    32301    31689    31560    32130 
   32879    33114    33069    33029    32769    32566    32871    33281 
   33192    32767    32418    32169    32034    32040    31965    31976 
   32499    33143    33250    32971    32980    33277    32996    32103 
   31556    31754    32471    33166    33440    33516    33475    33116 
   32722    32663    32726    32591    32328    32124    31977    31769 
   31685    32078    32734    33083    32992    32773    32722    33021 
   33664    33998    33378    32382    31865    31648    31347    31337 
   31996    32819    33334    33706    33816    33403    32976    33008 
   33118    32745    31873    31129    31171    32011    33111    33727 
   33664    33478    33412    33037    32001    30910    30962    32277 
   33550    33744    33183    32719    32614    32485    32171    32123 
   32416    32737    33048    33266    33334    33210    32815    32337 
   31876    31519    31563    31980    32499    33070    33566    33648 
   33380    33176    33143    33026    32458    31584    31364    32108 
   32759    32678    32437    32624    33108    33311    33069    32971 
   33143    32836    31968    31550    32163    32989    32961    32444 
   32401    32657    32632    32629    33073    33520    33492    33157 
   32734    32231    31718    31437    31718    32512    33004    32775 
   32647    33081    33389    33130    32688    32422    32273    32262 
   32522    32988    33349    33124    32320    31681    31743    32205 
   32626    32975    33219    33223    32992    32732    32679    32726 
   32737    32769    32707    32517    32433    32529    32640    32652 
   32667    32798    32864    32675    32367    32220    32375    32587 
   32599    32618    32729    32695    32598    32738    32954    32895 
   32717    32594    32513    32571    32583    32466    32521    32671 
   32670    32548    32486    32698    32988    32989    32863    32818 
   32714    32506    32386    32487    32583    32501    32462    32490 
   32367    32308    32621    32999    33102    33057    32875    32543 
   32447    32722    32934    32787    32468    32304    32400    32605 
   32753    32821    32837    32832    32663    32238    32035    32416 
   32914    33041    32848    32564    32443    32634    32895    32886 
   32676    32508    32452    32502    32603    32691    32768    32767 
   32745    32803    32702    32448    32395    32460    32420    32485 
   32813    33062    33011    32877    32703    32512    32530    32629 
   32683    32768    32652    32418    32462    32594    32593    32620 
   32694    32773    32779    32522    32304    32522    32846    32857 
   32652    32532    32571    32571    32537    32559    32541    32584 
   32769    32926    32854    32539    32424    32748    32953    32776 
   32647    32641    32575    32597    32778    32880    32725    32454 
   32397    32553    32643    32610    32622    32759    32845    32694 
   32440    32381    32522    32602    32543    32505    32657    32977 
   33164    33002    32643    32427    32494    32649    32722    32703 
   32539    32310    32348    32644    32773    32679    32695    32788 
   32701    32583    32661    32799    32737    32490    32449    32657 
   32655    32535    32699    32873    32718    32529    32611    32730 
   32621    32553    32724    32779    32579    32454    32544    32699 
   32798    32771    32636    32509    32487    32595    32703    32687 
   32648    32634    32567    32559    32721    32904    32871    32559 
   32344    32517    32737    32786    32825    32810    32705    32575 
   32408    32428    32749    32913    32680    32470    32549    32718 
   32736    32633    32626    32738    32737    32553    32429    32536 
   32686    32679    32697    32837    32795    32533    32401    32508 
   32724    32846    32767    32652    32613    32579    32597    32680 
   32707    32647    32606    32641    32674    32625    32556    32609 
   32746    32752    32637    32532    32482    32574    32699    32688 
   32661    32709    32695    32632    32698    32771    32616    32410 
   32449    32690    32830    32722    32599    32628    32652    32617 
   32637    32701    32695    32583    32503    32575    32726    32857 
   32830    32579    32364    32436    32688    32840    32725    32526 
   32545    32692    32725    32713    32749    32751    32664    32586 
   32655    32706    32580    32526    32625    32719    32768    32701 
   32594    32640    32728    32740    32779    32749    32521    32316 
   32364    32590    32764    32775    32668    32529    32535    32721 
   32810    32714    32626    32614    32648    32649    32541    32510 
   32701    32768    32576    32570    32790    32795    32636    32633 
   32697    32655    32564    32540    32622    32710    32717    32659 
   32598    32607    32610    32562    32602    32691    32676    32671 
   32728    32690    32616    32674    32787    32734    32517    32445 
   32606    32748    32740    32590    32494    32644    32753    32670 
   32719    32832    32682    32421    32320    32462    32772    32953 
   32850    32647    32530    32497    32502    32611    32722    32664 
   32563    32580    32703    32802    32734    32602    32634    32748 
   32719    32591    32553    32644    32721    32656    32522    32525 
   32671    32751    32717    32680    32620    32522    32495    32607 
   32773    32794    32657    32614    32698    32711    32617    32557 
   32609    32645    32597    32586    32657    32711    32711    32688 
   32626    32533    32518    32616    32772    32883    32805    32614 
   32545    32566    32524    32509    32617    32746    32818    32836 
   32733    32548    32470    32568    32687    32679    32613    32617 
   32640    32620    32628    32663    32691    32756    32782    32661 
   32520    32485    32552    32698    32780    32709    32613    32589 
   32576    32553    32651    32811    32756    32547    32468    32557 
   32702    32802    32815    32757    32648    32571    32579    32594 
   32548    32483    32564    32788    32861    32737    32622    32591 
   32641    32703    32675    32601    32606    32638    32553    32497 
   32651    32833    32826    32661    32549    32579    32575    32564 
   32710    32814    32742    32680    32668    32622    32574    32559 
   32584    32667    32718    32651    32591    32653    32686    32622 
   32617    32659    32663    32625    32560    32562    32625    32638 
   32634    32676    32713    32675    32598    32593    32690    32763 
