Origin Time       2025/01/26 08:11:00
Lat.              34.975
Long.             138.213
Depth. (km)       21
Mag.              3.4
Station Code      SZO020
Station Lat.      35.0084
Station Long.     138.1474
Station Height(m) 270
Record Time       2025/01/26 08:11:36
Sampling Freq(Hz) 100Hz
Duration Time(s)  60
Dir.              U-D
Scale Factor      7845(gal)/8223790
Max. Acc. (gal)   3.994
Last Correction   2025/01/26 08:11:36
Memo.             
  -14146   -14148   -14145   -14143   -14145   -14143   -14142   -14143 
  -14143   -14142   -14142   -14142   -14142   -14143   -14143   -14143 
  -14145   -14145   -14143   -14142   -14142   -14143   -14143   -14143 
  -14142   -14142   -14145   -14146   -14143   -14142   -14142   -14143 
  -14146   -14145   -14141   -14142   -14145   -14143   -14142   -14141 
  -14142   -14143   -14145   -14143   -14143   -14145   -14145   -14145 
  -14143   -14141   -14142   -14143   -14142   -14142   -14143   -14142 
  -14142   -14143   -14143   -14146   -14148   -14143   -14142   -14145 
  -14146   -14145   -14146   -14143   -14142   -14143   -14142   -14143 
  -14145   -14145   -14143   -14143   -14143   -14145   -14143   -14143 
  -14145   -14143   -14143   -14145   -14143   -14142   -14143   -14143 
  -14142   -14141   -14141   -14142   -14141   -14141   -14143   -14143 
  -14141   -14142   -14142   -14141   -14143   -14143   -14142   -14143 
  -14142   -14142   -14145   -14145   -14142   -14142   -14143   -14142 
  -14142   -14143   -14145   -14143   -14141   -14141   -14141   -14142 
  -14143   -14141   -14141   -14143   -14145   -14142   -14142   -14142 
  -14141   -14142   -14143   -14143   -14143   -14143   -14145   -14142 
  -14142   -14142   -14142   -14143   -14146   -14143   -14141   -14142 
  -14142   -14142   -14145   -14146   -14145   -14143   -14143   -14146 
  -14146   -14145   -14145   -14146   -14143   -14141   -14141   -14142 
  -14143   -14143   -14143   -14142   -14141   -14141   -14143   -14145 
  -14145   -14143   -14142   -14142   -14143   -14145   -14142   -14141 
  -14142   -14145   -14145   -14143   -14145   -14145   -14142   -14143 
  -14145   -14145   -14143   -14141   -14143   -14146   -14142   -14141 
  -14143   -14143   -14143   -14143   -14141   -14145   -14148   -14143 
  -14142   -14145   -14145   -14143   -14145   -14145   -14145   -14143 
  -14143   -14143   -14143   -14145   -14146   -14143   -14143   -14145 
  -14145   -14145   -14145   -14143   -14143   -14142   -14142   -14143 
  -14143   -14142   -14143   -14145   -14143   -14143   -14145   -14143 
  -14142   -14142   -14143   -14141   -14142   -14143   -14142   -14143 
  -14146   -14145   -14145   -14143   -14145   -14145   -14142   -14143 
  -14148   -14143   -14141   -14143   -14143   -14143   -14145   -14143 
  -14142   -14145   -14145   -14142   -14142   -14143   -14145   -14145 
  -14143   -14143   -14142   -14142   -14142   -14143   -14143   -14143 
  -14145   -14145   -14145   -14145   -14143   -14145   -14145   -14142 
  -14142   -14143   -14143   -14143   -14145   -14141   -14139   -14142 
  -14143   -14143   -14143   -14143   -14143   -14142   -14142   -14143 
  -14145   -14143   -14141   -14142   -14146   -14143   -14143   -14143 
  -14143   -14143   -14142   -14142   -14143   -14145   -14145   -14143 
  -14141   -14143   -14146   -14143   -14141   -14142   -14145   -14142 
  -14142   -14145   -14143   -14142   -14142   -14145   -14143   -14142 
  -14142   -14142   -14143   -14142   -14141   -14141   -14142   -14142 
  -14142   -14142   -14143   -14142   -14141   -14141   -14141   -14141 
  -14141   -14143   -14145   -14143   -14145   -14145   -14141   -14141 
  -14145   -14143   -14142   -14145   -14145   -14142   -14145   -14143 
  -14143   -14145   -14142   -14142   -14145   -14143   -14141   -14142 
  -14141   -14141   -14145   -14143   -14142   -14143   -14143   -14143 
  -14143   -14143   -14141   -14142   -14142   -14141   -14143   -14145 
  -14142   -14143   -14145   -14145   -14146   -14142   -14141   -14143 
  -14143   -14142   -14145   -14145   -14143   -14145   -14145   -14142 
  -14143   -14145   -14143   -14141   -14141   -14142   -14145   -14143 
  -14142   -14142   -14142   -14145   -14148   -14145   -14142   -14143 
  -14143   -14143   -14145   -14145   -14143   -14142   -14141   -14141 
  -14142   -14145   -14143   -14142   -14145   -14143   -14141   -14142 
  -14143   -14143   -14145   -14143   -14142   -14142   -14142   -14142 
  -14142   -14142   -14143   -14145   -14143   -14143   -14143   -14143 
  -14143   -14143   -14143   -14143   -14143   -14143   -14142   -14142 
  -14143   -14145   -14143   -14142   -14142   -14143   -14143   -14143 
  -14143   -14143   -14143   -14143   -14145   -14142   -14141   -14141 
  -14142   -14143   -14142   -14142   -14143   -14143   -14143   -14145 
  -14142   -14143   -14145   -14142   -14142   -14141   -14139   -14142 
  -14143   -14142   -14142   -14141   -14141   -14145   -14145   -14145 
  -14143   -14142   -14143   -14145   -14142   -14142   -14143   -14142 
  -14143   -14146   -14146   -14143   -14143   -14145   -14143   -14142 
  -14143   -14143   -14142   -14143   -14143   -14142   -14143   -14145 
  -14143   -14143   -14142   -14142   -14145   -14145   -14142   -14141 
  -14142   -14143   -14143   -14142   -14143   -14142   -14142   -14142 
  -14143   -14146   -14148   -14143   -14142   -14143   -14143   -14142 
  -14142   -14143   -14145   -14145   -14143   -14143   -14142   -14141 
  -14142   -14145   -14143   -14141   -14142   -14143   -14142   -14141 
  -14143   -14145   -14142   -14142   -14146   -14142   -14139   -14141 
  -14141   -14141   -14143   -14145   -14143   -14142   -14142   -14143 
  -14145   -14143   -14145   -14145   -14142   -14142   -14143   -14143 
  -14143   -14143   -14145   -14145   -14142   -14143   -14143   -14143 
  -14143   -14142   -14143   -14145   -14145   -14145   -14145   -14145 
  -14145   -14142   -14142   -14142   -14142   -14146   -14146   -14145 
  -14145   -14145   -14146   -14145   -14145   -14145   -14143   -14142 
  -14143   -14145   -14145   -14143   -14143   -14145   -14142   -14139 
  -14142   -14143   -14141   -14142   -14143   -14142   -14142   -14143 
  -14145   -14143   -14142   -14142   -14141   -14141   -14142   -14145 
  -14145   -14143   -14142   -14141   -14142   -14145   -14146   -14145 
  -14142   -14143   -14143   -14141   -14143   -14145   -14141   -14142 
  -14145   -14145   -14142   -14142   -14145   -14145   -14143   -14141 
  -14143   -14143   -14141   -14142   -14143   -14141   -14139   -14143 
  -14146   -14145   -14143   -14142   -14142   -14142   -14143   -14143 
  -14142   -14141   -14143   -14145   -14143   -14143   -14143   -14142 
  -14141   -14143   -14145   -14143   -14143   -14143   -14142   -14142 
  -14142   -14142   -14145   -14145   -14142   -14142   -14145   -14142 
  -14139   -14143   -14148   -14143   -14141   -14142   -14143   -14143 
  -14143   -14142   -14143   -14145   -14145   -14145   -14145   -14142 
  -14142   -14145   -14145   -14142   -14142   -14143   -14142   -14143 
  -14145   -14143   -14143   -14142   -14141   -14143   -14143   -14142 
  -14145   -14145   -14142   -14143   -14142   -14142   -14143   -14145 
  -14143   -14143   -14142   -14143   -14143   -14142   -14145   -14145 
  -14142   -14141   -14142   -14143   -14143   -14142   -14145   -14146 
  -14142   -14141   -14145   -14145   -14142   -14142   -14143   -14143 
  -14143   -14143   -14142   -14141   -14141   -14142   -14143   -14145 
  -14143   -14142   -14143   -14143   -14143   -14143   -14143   -14145 
  -14145   -14143   -14143   -14145   -14142   -14142   -14142   -14142 
  -14143   -14143   -14143   -14145   -14143   -14145   -14145   -14142 
  -14142   -14143   -14143   -14143   -14143   -14142   -14145   -14146 
  -14143   -14142   -14145   -14142   -14141   -14145   -14145   -14141 
  -14143   -14146   -14145   -14142   -14142   -14145   -14145   -14143 
  -14142   -14145   -14143   -14142   -14146   -14146   -14142   -14142 
  -14143   -14143   -14145   -14145   -14142   -14143   -14146   -14143 
  -14141   -14142   -14142   -14142   -14142   -14142   -14142   -14142 
  -14143   -14145   -14143   -14145   -14143   -14142   -14143   -14143 
  -14141   -14142   -14145   -14143   -14143   -14143   -14145   -14145 
  -14143   -14143   -14143   -14142   -14142   -14143   -14143   -14142 
  -14143   -14146   -14145   -14141   -14142   -14142   -14143   -14145 
  -14145   -14145   -14145   -14145   -14143   -14142   -14143   -14145 
  -14143   -14142   -14141   -14141   -14142   -14142   -14141   -14145 
  -14146   -14143   -14143   -14142   -14142   -14143   -14143   -14142 
  -14143   -14146   -14146   -14143   -14142   -14143   -14142   -14142 
  -14142   -14141   -14142   -14145   -14143   -14142   -14143   -14142 
  -14143   -14145   -14145   -14145   -14142   -14142   -14142   -14143 
  -14145   -14145   -14142   -14142   -14143   -14143   -14143   -14143 
  -14143   -14143   -14143   -14143   -14143   -14142   -14142   -14143 
  -14145   -14145   -14145   -14143   -14143   -14143   -14142   -14141 
  -14142   -14143   -14142   -14142   -14142   -14142   -14145   -14145 
  -14142   -14142   -14143   -14143   -14143   -14142   -14142   -14142 
  -14143   -14142   -14143   -14143   -14142   -14143   -14146   -14143 
  -14143   -14146   -14145   -14145   -14146   -14145   -14143   -14145 
  -14146   -14142   -14143   -14146   -14145   -14146   -14148   -14142 
  -14141   -14145   -14143   -14142   -14146   -14145   -14145   -14143 
  -14142   -14142   -14143   -14145   -14145   -14142   -14142   -14143 
  -14143   -14145   -14148   -14146   -14141   -14141   -14142   -14142 
  -14143   -14143   -14142   -14142   -14143   -14142   -14142   -14143 
  -14145   -14142   -14143   -14145   -14143   -14139   -14142   -14145 
  -14143   -14143   -14143   -14143   -14142   -14142   -14143   -14145 
  -14143   -14145   -14146   -14142   -14142   -14143   -14143   -14146 
  -14145   -14143   -14145   -14142   -14145   -14146   -14143   -14143 
  -14143   -14143   -14145   -14142   -14141   -14143   -14142   -14141 
  -14142   -14143   -14143   -14143   -14142   -14142   -14143   -14145 
  -14142   -14142   -14142   -14142   -14143   -14143   -14142   -14142 
  -14142   -14142   -14143   -14143   -14143   -14145   -14145   -14145 
  -14143   -14143   -14143   -14143   -14145   -14145   -14145   -14142 
  -14142   -14145   -14146   -14145   -14145   -14145   -14145   -14145 
  -14143   -14145   -14146   -14145   -14142   -14141   -14143   -14145 
  -14145   -14143   -14143   -14142   -14141   -14142   -14143   -14141 
  -14142   -14145   -14145   -14143   -14142   -14142   -14145   -14142 
  -14141   -14143   -14143   -14142   -14143   -14143   -14143   -14145 
  -14143   -14142   -14141   -14142   -14145   -14143   -14142   -14142 
  -14143   -14145   -14146   -14143   -14142   -14143   -14143   -14142 
  -14142   -14143   -14142   -14145   -14145   -14142   -14142   -14142 
  -14143   -14143   -14142   -14142   -14142   -14141   -14142   -14145 
  -14142   -14141   -14143   -14142   -14142   -14143   -14143   -14142 
  -14141   -14139   -14142   -14143   -14142   -14141   -14142   -14142 
  -14142   -14143   -14143   -14143   -14143   -14143   -14142   -14143 
  -14145   -14145   -14153   -14181   -14226   -14235   -14218   -14301 
  -14299   -14031   -14412   -15441   -14685   -12433   -12480   -14612 
  -15560   -15520   -15194   -12722    -9956   -11736   -15250   -15190 
  -14553   -15334   -14623   -13656   -14207   -14435   -13961   -14002 
  -14609   -14673   -13886   -13747   -14435   -14532   -14342   -14345 
  -13821   -13435   -13941   -14535   -14727   -14207   -13437   -13805 
  -14346   -14017   -14188   -14526   -14088   -14060   -14451   -14351 
  -14114   -13972   -13945   -14203   -14496   -14450   -13980   -13728 
  -14106   -14203   -13641   -13486   -14157   -14607   -14315   -14288 
  -14571   -14208   -13969   -14482   -14504   -13759   -13483   -14103 
  -14625   -14334   -13836   -13863   -14177   -14289   -14427   -14431 
  -13782   -13533   -14218   -14447   -13953   -13774   -14165   -14542 
  -14472   -14081   -13779   -14004   -14307   -14077   -14044   -14467 
  -14656   -14496   -14056   -13653   -13779   -14173   -14513   -14455 
  -13770   -13508   -14010   -14218   -14323   -14635   -14490   -14048 
  -13910   -14170   -14378   -14030   -13680   -14030   -14435   -14320 
  -14123   -14027   -13969   -14023   -13972   -13959   -14380   -14607 
  -14208   -13944   -14003   -14203   -14562   -14570   -14234   -14049 
  -13965   -13857   -13918   -14258   -14299   -13954   -14026   -14135 
  -13875   -14122   -14701   -14539   -13857   -13664   -14075   -14296 
  -14067   -13799   -13797   -14049   -14316   -14513   -14530   -14323 
  -14253   -14083   -13655   -13880   -14725   -14809   -14002   -13628 
  -14030   -14258   -14000   -13956   -14276   -14361   -14143   -13919 
  -13782   -13856   -14168   -14513   -14492   -14080   -13938   -14179 
  -14280   -14288   -14322   -14085   -13819   -13983   -14292   -14357 
  -14319   -14372   -14338   -14033   -13880   -14184   -14287   -13926 
  -13805   -14123   -14372   -14237   -13973   -13963   -14126   -14272 
  -14247   -13938   -13792   -14073   -14355   -14451   -14276   -13937 
  -13956   -14220   -14324   -14287   -14180   -14191   -14278   -14212 
  -14192   -14123   -13802   -13791   -14158   -14172   -13945   -14053 
  -14274   -14249   -14150   -14239   -14287   -14006   -13891   -14192 
  -14332   -14285   -14355   -14334   -14098   -13922   -14112   -14337 
  -14145   -14034   -14258   -14199   -13836   -13729   -13945   -14197 
  -14374   -14365   -14042   -13829   -14191   -14553   -14331   -14168 
  -14358   -14197   -13873   -14048   -14272   -14108   -14025   -14169 
  -14126   -14007   -14095   -14069   -13983   -14230   -14370   -14138 
  -14065   -14164   -14080   -14015   -14134   -14184   -14179   -14246 
  -14165   -14083   -14208   -14122   -13859   -14000   -14415   -14478 
  -14145   -14013   -14125   -13971   -13930   -14316   -14439   -14262 
  -14215   -14085   -13941   -14095   -14185   -13976   -13952   -14196 
  -14224   -14098   -14118   -14130   -13987   -13878   -13991   -14168 
  -14188   -14231   -14350   -14254   -14080   -14168   -14326   -14454 
  -14737   -14868   -14455   -13765   -13473   -13821   -14152   -14134 
  -14191   -14197   -13894   -13625   -13670   -14044   -14539   -14771 
  -14624   -14216   -13849   -13887   -14196   -14366   -14296   -14154 
  -14162   -14229   -14125   -13999   -13914   -13784   -13913   -14260 
  -14318   -14089   -13883   -13828   -13946   -14115   -14291   -14450 
  -14384   -14165   -14095   -14214   -14389   -14455   -14346   -14202 
  -14065   -13911   -13984   -14256   -14269   -14111   -14157   -14184 
  -13922   -13730   -13946   -14260   -14326   -14260   -14189   -14034 
  -13811   -13842   -14268   -14600   -14472   -14195   -14091   -14029 
  -13903   -13959   -14181   -14230   -14135   -14133   -14180   -14153 
  -14042   -14018   -14169   -14247   -14235   -14324   -14315   -14106 
  -13972   -14002   -14130   -14270   -14322   -14276   -14048   -13822 
  -13983   -14224   -14150   -14072   -14179   -14266   -14269   -14280 
  -14366   -14374   -14227   -14180   -14246   -14233   -14165   -14041 
  -13861   -13801   -13949   -14156   -14234   -14184   -14112   -14052 
  -13979   -13913   -13925   -14002   -14138   -14274   -14219   -14071 
  -14127   -14338   -14359   -14168   -14134   -14291   -14327   -14277 
  -14280   -14269   -14220   -14131   -14083   -14116   -14081   -13994 
  -14017   -14106   -14142   -14050   -13933   -14042   -14229   -14188 
  -14045   -14061   -14239   -14332   -14211   -14076   -14095   -14274 
  -14449   -14347   -14089   -14040   -14127   -14098   -14041   -14091 
  -14127   -14095   -14088   -14092   -14049   -14027   -14089   -14138 
  -14115   -14138   -14203   -14206   -14150   -14069   -14025   -14100 
  -14218   -14192   -14031   -13980   -14081   -14131   -14162   -14264 
  -14242   -14115   -14149   -14239   -14170   -14161   -14300   -14324 
  -14231   -14197   -14207   -14195   -14154   -14169   -14276   -14322 
  -14220   -14099   -14084   -14184   -14256   -14196   -14130   -14115 
  -14057   -14027   -14139   -14258   -14218   -14076   -13986   -13979 
  -14007   -14058   -14091   -14077   -14061   -14021   -13956   -13995 
  -14153   -14238   -14185   -14166   -14212   -14188   -14110   -14121 
  -14222   -14219   -14160   -14241   -14283   -14215   -14238   -14258 
  -14154   -14030   -14031   -14130   -14125   -14085   -14099   -14025 
  -13960   -14018   -14042   -14023   -14062   -14107   -14154   -14253 
  -14268   -14177   -14149   -14165   -14197   -14260   -14251   -14173 
  -14095   -14080   -14168   -14208   -14125   -14114   -14208   -14222 
  -14179   -14231   -14257   -14150   -14111   -14197   -14220   -14152 
  -14139   -14208   -14200   -14103   -14088   -14131   -14156   -14191 
  -14156   -14064   -14027   -14037   -14107   -14195   -14164   -14100 
  -14106   -14125   -14135   -14145   -14152   -14157   -14122   -14081 
  -14106   -14170   -14200   -14135   -14057   -14095   -14162   -14160 
  -14157   -14170   -14138   -14125   -14188   -14183   -14085   -14068 
  -14158   -14242   -14202   -14095   -14081   -14104   -14098   -14123 
  -14142   -14126   -14111   -14135   -14214   -14273   -14241   -14145 
  -14077   -14112   -14187   -14189   -14134   -14114   -14127   -14122 
  -14153   -14211   -14165   -14098   -14116   -14092   -14056   -14169 
  -14284   -14229   -14123   -14121   -14169   -14162   -14157   -14199 
  -14175   -14075   -14054   -14176   -14281   -14183   -14037   -14069 
  -14149   -14141   -14116   -14087   -14061   -14076   -14098   -14142 
  -14207   -14214   -14153   -14057   -13983   -14031   -14164   -14203 
  -14126   -14114   -14189   -14203   -14185   -14216   -14193   -14119 
  -14134   -14166   -14122   -14107   -14152   -14172   -14161   -14129 
  -14111   -14130   -14141   -14161   -14187   -14160   -14169   -14200 
  -14164   -14185   -14230   -14152   -14094   -14134   -14160   -14137 
  -14114   -14143   -14185   -14156   -14112   -14112   -14096   -14084 
  -14131   -14149   -14106   -14088   -14087   -14111   -14170   -14170 
  -14145   -14181   -14216   -14215   -14181   -14102   -14080   -14161 
  -14223   -14200   -14142   -14119   -14143   -14157   -14148   -14175 
  -14207   -14172   -14149   -14139   -14060   -14022   -14087   -14142 
  -14156   -14127   -14062   -14052   -14100   -14111   -14108   -14118 
  -14110   -14130   -14168   -14153   -14127   -14130   -14162   -14222 
  -14241   -14191   -14160   -14193   -14206   -14158   -14148   -14210 
  -14247   -14231   -14206   -14187   -14173   -14135   -14099   -14108 
  -14129   -14122   -14125   -14149   -14148   -14114   -14067   -14038 
  -14088   -14173   -14173   -14127   -14103   -14085   -14116   -14179 
  -14177   -14133   -14123   -14150   -14164   -14145   -14122   -14084 
  -14041   -14057   -14135   -14188   -14172   -14125   -14085   -14080 
  -14123   -14183   -14193   -14162   -14160   -14143   -14088   -14110 
  -14173   -14166   -14165   -14202   -14183   -14127   -14114   -14150 
  -14193   -14200   -14177   -14160   -14164   -14161   -14122   -14115 
  -14176   -14224   -14214   -14180   -14160   -14156   -14170   -14193 
  -14164   -14102   -14088   -14114   -14142   -14162   -14161   -14146 
  -14145   -14139   -14135   -14148   -14131   -14095   -14106   -14137 
  -14143   -14141   -14116   -14096   -14141   -14184   -14153   -14108 
  -14112   -14146   -14160   -14152   -14153   -14139   -14121   -14152 
  -14170   -14125   -14080   -14098   -14156   -14179   -14133   -14068 
  -14076   -14161   -14197   -14131   -14073   -14103   -14158   -14149 
