Origin Time       2025/01/26 08:11:00
Lat.              34.975
Long.             138.213
Depth. (km)       21
Mag.              3.4
Station Code      SZO020
Station Lat.      35.0084
Station Long.     138.1474
Station Height(m) 270
Record Time       2025/01/26 08:11:36
Sampling Freq(Hz) 100Hz
Duration Time(s)  60
Dir.              N-S
Scale Factor      7845(gal)/8223790
Max. Acc. (gal)   2.770
Last Correction   2025/01/26 08:11:36
Memo.             
[...]
   -6883    -6885    -6887    -6886    -6886    -6886    -6885    -6885 
   -6886    -6886    -6885    -6886    -6889    -6889    -6886    -6887 
   -6887    -6886    -6889    -6890    -6886    -6883    -6886    -6886 
   -6886    -6887    -6887    -6887    -6886    -6886    -6889    -6890 
   -6890    -6890    -6887    -6886    -6887    -6890    -6887    -6883 
   -6885    -6889    -6889    -6886    -6886    -6886    -6885    -6887 
   -6887    -6885    -6887    -6889    -6886    -6887    -6887    -6885 
   -6886    -6886    -6886    -6886    -6889    -6887    -6887    -6889 
   -6887    -6886    -6885    -6885    -6886    -6887    -6887    -6886 
   -6887    -6887    -6886    -6887    -6887    -6887    -6887    -6886 
   -6887    -6887    -6887    -6887    -6889    -6887    -6887    -6887 
   -6890    -6890    -6886    -6886    -6887    -6886    -6885    -6886 
   -6886    -6887    -6890    -6889    -6885    -6886    -6889    -6887 
   -6886    -6886    -6887    -6887    -6887    -6889    -6887    -6886 
   -6889    -6889    -6886    -6887    -6889    -6887    -6887    -6886 
   -6886    -6886    -6889    -6887    -6886    -6889    -6889    -6889 
   -6887    -6887    -6887    -6889    -6889    -6889    -6886    -6886 
   -6887    -6889    -6887    -6887    -6887    -6887    -6889    -6889 
   -6886    -6886    -6887    -6889    -6886    -6887    -6889    -6889 
   -6889    -6889    -6887    -6887    -6886    -6887    -6887    -6886 
   -6886    -6887    -6887    -6886    -6889    -6887    -6886    -6887 
   -6889    -6887    -6886    -6887    -6886    -6885    -6886    -6887 
   -6887    -6887    -6885    -6886    -6890    -6890    -6887    -6887 
   -6886    -6886    -6887    -6886    -6885    -6885    -6886    -6885 
   -6885    -6887    -6887    -6887    -6887    -6889    -6887    -6886 
   -6886    -6886    -6886    -6886    -6886    -6887    -6887    -6887 
   -6887    -6889    -6889    -6889    -6886    -6886    -6889    -6886 
   -6886    -6889    -6890    -6887    -6886    -6885    -6887    -6890 
   -6887    -6886    -6886    -6887    -6887    -6886    -6886    -6887 
   -6886    -6885    -6886    -6889    -6889    -6887    -6885    -6886 
   -6887    -6887    -6887    -6887    -6887    -6883    -6882    -6886 
   -6887    -6887    -6887    -6883    -6883    -6886    -6887    -6886 
   -6886    -6885    -6885    -6885    -6886    -6887    -6887    -6886 
   -6885    -6885    -6886    -6887    -6887    -6886    -6887    -6890 
   -6890    -6887    -6886    -6889    -6886    -6885    -6886    -6885 
   -6885    -6889    -6887    -6885    -6889    -6890    -6886    -6885 
   -6887    -6889    -6886    -6886    -6886    -6886    -6887    -6886 
   -6886    -6887    -6886    -6885    -6887    -6887    -6886    -6886 
   -6885    -6887    -6889    -6887    -6886    -6886    -6886    -6886 
   -6886    -6887    -6886    -6885    -6886    -6887    -6886    -6886 
   -6886    -6887    -6887    -6886    -6887    -6889    -6885    -6886 
   -6887    -6886    -6887    -6887    -6889    -6889    -6886    -6887 
   -6889    -6889    -6886    -6886    -6887    -6887    -6887    -6890 
   -6887    -6885    -6887    -6887    -6886    -6886    -6887    -6886 
   -6883    -6886    -6887    -6885    -6883    -6886    -6887    -6885 
   -6885    -6887    -6885    -6883    -6886    -6885    -6885    -6889 
   -6889    -6886    -6886    -6886    -6886    -6886    -6887    -6887 
   -6886    -6885    -6886    -6886    -6886    -6887    -6886    -6886 
   -6887    -6886    -6885    -6886    -6886    -6887    -6889    -6886 
   -6886    -6887    -6886    -6886    -6887    -6886    -6886    -6886 
   -6889    -6889    -6886    -6886    -6887    -6887    -6887    -6889 
   -6887    -6886    -6886    -6887    -6886    -6886    -6886    -6886 
   -6886    -6887    -6886    -6886    -6889    -6886    -6883    -6886 
   -6889    -6886    -6885    -6889    -6889    -6886    -6886    -6889 
   -6886    -6885    -6886    -6886    -6885    -6886    -6887    -6887 
   -6886    -6886    -6889    -6887    -6886    -6887    -6887    -6885 
   -6887    -6890    -6889    -6887    -6885    -6885    -6886    -6886 
   -6886    -6887    -6886    -6883    -6886    -6889    -6889    -6885 
   -6885    -6889    -6887    -6885    -6889    -6889    -6885    -6886 
   -6886    -6885    -6887    -6887    -6885    -6886    -6886    -6882 
   -6885    -6887    -6887    -6886    -6886    -6887    -6889    -6886 
   -6886    -6887    -6886    -6887    -6889    -6886    -6886    -6887 
   -6886    -6886    -6886    -6887    -6887    -6889    -6889    -6886 
   -6885    -6887    -6885    -6882    -6886    -6887    -6885    -6885 
   -6886    -6887    -6886    -6883    -6883    -6886    -6889    -6889 
   -6889    -6889    -6886    -6883    -6887    -6889    -6885    -6886 
   -6887    -6886    -6887    -6887    -6886    -6886    -6887    -6889 
   -6890    -6887    -6886    -6889    -6887    -6886    -6886    -6885 
   -6887    -6887    -6886    -6887    -6887    -6886    -6886    -6886 
   -6886    -6887    -6887    -6886    -6886    -6887    -6887    -6887 
   -6886    -6885    -6886    -6886    -6887    -6887    -6887    -6887 
   -6889    -6887    -6886    -6887    -6887    -6887    -6887    -6887 
   -6886    -6885    -6886    -6886    -6886    -6889    -6887    -6886 
   -6886    -6887    -6886    -6887    -6886    -6885    -6887    -6887 
   -6886    -6887    -6886    -6886    -6887    -6889    -6887    -6886 
   -6886    -6887    -6886    -6886    -6887    -6886    -6886    -6889 
   -6889    -6887    -6886    -6887    -6887    -6886    -6886    -6887 
   -6886    -6886    -6890    -6889    -6886    -6887    -6887    -6885 
   -6886    -6887    -6886    -6886    -6886    -6885    -6886    -6889 
   -6887    -6886    -6886    -6887    -6887    -6886    -6885    -6887 
   -6889    -6886    -6886    -6887    -6886    -6889    -6890    -6890 
   -6887    -6885    -6886    -6890    -6887    -6885    -6885    -6886 
   -6886    -6887    -6886    -6885    -6886    -6887    -6887    -6886 
   -6886    -6889    -6886    -6885    -6889    -6889    -6886    -6887 
   -6890    -6887    -6886    -6887    -6887    -6885    -6885    -6885 
   -6886    -6887    -6887    -6886    -6885    -6885    -6887    -6887 
   -6887    -6887    -6887    -6887    -6887    -6887    -6887    -6886 
   -6887    -6887    -6886    -6886    -6887    -6890    -6887    -6887 
   -6889    -6886    -6883    -6886    -6889    -6889    -6889    -6887 
   -6886    -6886    -6887    -6887    -6886    -6886    -6887    -6889 
   -6887    -6887    -6887    -6886    -6887    -6886    -6886    -6887 
   -6890    -6887    -6887    -6889    -6887    -6887    -6886    -6885 
   -6885    -6886    -6886    -6887    -6887    -6886    -6887    -6887 
   -6885    -6886    -6886    -6883    -6890    -6890    -6886    -6889 
   -6887    -6883    -6887    -6891    -6890    -6887    -6887    -6887 
   -6886    -6886    -6889    -6887    -6886    -6887    -6887    -6886 
   -6887    -6887    -6885    -6886    -6887    -6889    -6887    -6887 
   -6889    -6889    -6887    -6887    -6889    -6886    -6886    -6886 
   -6886    -6886    -6887    -6887    -6886    -6885    -6886    -6886 
   -6886    -6887    -6887    -6883    -6885    -6886    -6889    -6887 
   -6886    -6887    -6889    -6887    -6887    -6887    -6887    -6885 
   -6885    -6889    -6890    -6887    -6887    -6887    -6885    -6885 
   -6885    -6886    -6886    -6886    -6889    -6887    -6886    -6886 
   -6887    -6890    -6891    -6887    -6885    -6886    -6886    -6886 
   -6889    -6886    -6886    -6889    -6887    -6886    -6886    -6887 
   -6887    -6886    -6886    -6886    -6885    -6886    -6887    -6886 
   -6886    -6885    -6886    -6887    -6886    -6886    -6889    -6890 
   -6887    -6886    -6889    -6889    -6886    -6886    -6889    -6890 
   -6889    -6887    -6887    -6887    -6886    -6886    -6887    -6887 
   -6886    -6885    -6886    -6887    -6889    -6886    -6886    -6887 
   -6886    -6887    -6889    -6889    -6886    -6887    -6889    -6887 
   -6889    -6887    -6886    -6886    -6885    -6887    -6887    -6886 
   -6886    -6886    -6886    -6886    -6886    -6886    -6886    -6885 
   -6886    -6887    -6885    -6886    -6887    -6886    -6886    -6886 
   -6886    -6889    -6887    -6885    -6886    -6887    -6889    -6886 
   -6885    -6887    -6887    -6887    -6887    -6887    -6887    -6887 
   -6886    -6885    -6889    -6889    -6885    -6885    -6886    -6887 
   -6885    -6882    -6883    -6885    -6885    -6886    -6887    -6887 
   -6885    -6885    -6886    -6886    -6886    -6887    -6887    -6885 
   -6885    -6886    -6886    -6885    -6886    -6887    -6886    -6886 
   -6886    -6885    -6883    -6886    -6886    -6883    -6882    -6885 
   -6889    -6887    -6885    -6885    -6886    -6886    -6886    -6885 
   -6885    -6886    -6886    -6885    -6887    -6887    -6883    -6883 
   -6886    -6886    -6883    -6886    -6886    -6886    -6886    -6885 
   -6885    -6887    -6886    -6886    -6887    -6887    -6887    -6887 
   -6889    -6886    -6885    -6885    -6885    -6885    -6885    -6885 
   -6885    -6885    -6886    -6886    -6885    -6886    -6886    -6887 
   -6886    -6886    -6885    -6886    -6887    -6887    -6886    -6885 
   -6885    -6887    -6887    -6886    -6886    -6886    -6886    -6886 
   -6885    -6887    -6887    -6885    -6885    -6886    -6887    -6886 
   -6885    -6885    -6882    -6883    -6887    -6886    -6885    -6886 
   -6885    -6886    -6889    -6886    -6885    -6887    -6887    -6887 
   -6886    -6885    -6883    -6885    -6885    -6885    -6886    -6885 
   -6885    -6886    -6885    -6886    -6886    -6885    -6887    -6886 
   -6885    -6886    -6887    -6886    -6885    -6887    -6887    -6885 
   -6883    -6886    -6886    -6883    -6885    -6886    -6886    -6887 
   -6887    -6886    -6886    -6886    -6887    -6887    -6883    -6882 
   -6887    -6889    -6885    -6886    -6887    -6886    -6887    -6890 
   -6887    -6885    -6886    -6890    -6887    -6885    -6886    -6887 
   -6885    -6885    -6885    -6885    -6885    -6886    -6887    -6886 
   -6887    -6889    -6887    -6886    -6887    -6886    -6885    -6887 
   -6889    -6883    -6885    -6889    -6886    -6886    -6889    -6889 
   -6887    -6886    -6886    -6889    -6890    -6889    -6887    -6887 
   -6887    -6885    -6883    -6883    -6882    -6887    -6883    -6856 
   -6887    -6933    -6783    -6768    -7198    -7152    -6408    -6502 
   -7434    -7512    -6960    -6863    -6399    -5742    -7026    -8770 
   -7871    -6161    -5759    -5602    -6215    -7825    -8004    -6871 
   -6577    -6504    -6072    -6941    -8490    -8129    -6604    -5872 
   -5332    -5398    -7468    -9196    -8152    -6400    -5815    -5917 
   -6885    -8141    -7839    -6484    -5845    -6075    -6863    -7861 
   -8062    -7160    -6158    -5933    -6492    -7321    -7508    -6880 
   -6664    -7136    -7092    -6596    -6575    -6798    -6808    -6890 
   -7144    -7072    -6690    -6710    -7090    -7092    -6681    -6432 
   -6751    -7389    -7496    -6839    -6351    -6588    -6930    -7052 
   -7153    -6984    -6555    -6466    -6862    -7231    -7148    -6789 
   -6613    -6766    -6994    -7041    -7038    -6963    -6635    -6623 
   -7186    -7422    -7005    -6574    -6408    -6513    -6988    -7539 
   -7434    -6677    -6432    -6998    -7300    -6963    -6496    -6293 
   -6573    -7142    -7430    -7249    -6890    -6556    -6444    -6697 
   -7090    -7304    -7165    -6677    -6224    -6409    -7183    -7665 
   -7182    -6343    -6327    -6897    -7150    -7231    -7283    -6909 
   -6350    -6342    -6890    -7462    -7670    -7157    -6372    -6386 
   -6852    -6817    -6782    -7171    -7203    -6709    -6480    -6782 
   -7169    -7258    -6959    -6631    -6740    -6995    -6982    -6843 
   -6658    -6485    -6559    -6901    -7307    -7515    -7234    -6588 
   -6270    -6610    -7115    -7315    -7195    -6812    -6428    -6521 
   -7026    -7379    -7226    -6759    -6561    -6747    -6798    -6705 
   -6979    -7398    -7267    -6663    -6392    -6802    -7246    -7079 
   -6644    -6602    -6940    -7169    -7014    -6723    -6710    -6906 
   -6963    -6841    -6785    -6967    -7133    -6978    -6739    -6705 
   -6774    -6816    -6835    -6941    -7045    -6980    -6963    -6963 
   -6724    -6635    -6960    -7175    -6967    -6732    -6826    -6972 
   -6864    -6762    -6829    -6885    -6902    -6851    -6644    -6610 
   -7032    -7464    -7330    -6754    -6362    -6508    -6937    -7258 
   -7290    -7060    -6762    -6563    -6596    -6848    -7011    -6988 
   -6976    -6934    -6812    -6779    -6905    -7024    -6995    -6949 
   -6968    -6891    -6682    -6515    -6544    -6820    -7130    -7225 
   -7141    -6934    -6627    -6546    -6837    -7091    -7138    -7171 
   -7025    -6623    -6498    -6829    -7063    -7118    -7231    -6997 
   -6513    -6594    -6976    -6929    -6797    -6910    -6847    -6675 
   -6831    -7036    -7061    -7072    -6837    -6444    -6565    -7079 
   -7245    -7021    -6837    -6682    -6501    -6706    -7241    -7425 
   -7165    -6805    -6515    -6585    -7017    -7288    -7296    -7331 
   -7123    -6555    -6370    -6671    -6592    -6257    -6567    -7295 
   -7531    -7160    -6484    -5580    -4882    -5184    -6575    -8282 
   -9504    -9660    -8537    -6937    -6114    -6351    -6983    -7423 
   -7466    -6799    -5273    -3983    -4564    -6893    -8939    -9107 
   -7863    -6824    -6685    -6924    -7029    -6810    -6324    -6157 
   -6678    -7335    -7470    -7101    -6581    -6177    -6214    -7011 
   -7936    -7591    -6006    -4887    -5262    -6804    -8596    -9211 
   -7809    -5838    -5540    -6976    -8332    -8330    -7167    -5880 
   -5451    -6077    -7072    -7615    -7480    -7055    -6851    -6901 
   -6862    -6656    -6524    -6667    -7041    -7298    -7038    -6373 
   -5960    -6197    -6789    -7321    -7596    -7468    -7045    -6712 
   -6615    -6637    -6806    -7110    -7218    -6957    -6635    -6646 
   -7028    -7381    -7369    -7118    -6818    -6602    -6693    -6926 
   -6824    -6450    -6363    -6771    -7298    -7501    -7258    -6716 
   -6296    -6459    -7049    -7384    -7132    -6637    -6404    -6520 
   -6789    -7074    -7221    -7140    -7001    -6898    -6682    -6372 
   -6339    -6872    -7620    -7819    -7223    -6412    -6095    -6481 
   -7215    -7661    -7479    -7026    -6820    -6906    -6982    -6841 
   -6597    -6467    -6493    -6612    -6809    -7030    -7053    -6818 
   -6720    -6957    -7125    -6968    -6725    -6628    -6628    -6589 
   -6593    -6851    -7218    -7279    -7007    -6814    -6864    -6943 
   -7024    -7171    -7177    -6953    -6729    -6764    -7011    -7123 
   -7020    -6991    -7059    -7007    -6848    -6724    -6709    -6795 
   -6848    -6771    -6718    -6820    -6924    -6882    -6767    -6705 
   -6750    -6901    -7022    -6972    -6868    -6845    -6822    -6851 
   -7028    -7122    -6926    -6667    -6659    -6790    -6777    -6736 
   -6872    -6984    -6902    -6808    -6821    -6875    -6971    -7071 
   -7045    -6986    -7030    -7055    -6974    -6841    -6716    -6694 
   -6806    -6906    -6944    -7037    -7165    -7172    -7059    -6936 
   -6798    -6693    -6794    -7068    -7215    -7092    -6825    -6550 
   -6361    -6385    -6652    -6956    -7055    -6902    -6674    -6627 
   -6809    -7028    -7101    -7025    -6929    -6883    -6868    -6883 
   -6910    -6876    -6806    -6875    -7083    -7144    -6994    -6853 
   -6789    -6756    -6785    -6895    -7017    -7044    -7045    -7056 
   -6929    -6731    -6656    -6708    -6863    -7086    -7176    -7042 
   -6810    -6566    -6447    -6662    -7083    -7375    -7410    -7180 
   -6785    -6536    -6624    -6808    -6808    -6724    -6747    -6872 
   -7001    -7061    -7042    -6951    -6833    -6804    -6880    -6921 
   -6859    -6812    -6863    -6885    -6762    -6628    -6686    -6933 
   -7157    -7163    -7021    -6860    -6642    -6502    -6675    -6980 
   -7126    -7136    -7064    -6906    -6771    -6789    -6924    -7040 
   -7048    -6991    -6970    -6974    -6920    -6833    -6771    -6700 
   -6697    -6875    -7090    -7091    -6885    -6671    -6565    -6597 
   -6767    -6947    -6997    -6917    -6813    -6806    -6898    -6949 
   -6876    -6754    -6712    -6820    -7036    -7198    -7106    -6816 
   -6667    -6826    -7048    -7060    -6922    -6831    -6825    -6848 
   -6887    -6984    -7061    -6967    -6794    -6782    -6902    -7011 
   -7078    -7028    -6860    -6797    -6936    -7086    -7069    -6928 
   -6789    -6744    -6791    -6859    -6875    -6799    -6647    -6590 
   -6781    -7036    -7063    -6895    -6754    -6732    -6799    -6907 
   -7009    -7033    -6924    -6760    -6706    -6787    -6883    -6936 
   -6932    -6848    -6754    -6759    -6868    -7020    -7125    -7082 
   -6947    -6901    -6948    -6963    -6943    -6932    -6916    -6890 
   -6864    -6874    -6970    -7045    -6975    -6868    -6878    -6934 
   -6886    -6777    -6764    -6802    -6812    -6864    -6949    -6968 
   -6925    -6878    -6829    -6786    -6801    -6879    -6948    -6949 
   -6901    -6867    -6863    -6856    -6825    -6786    -6798    -6876 
   -6918    -6882    -6856    -6868    -6878    -6867    -6817    -6774 
   -6844    -7002    -7091    -7040    -6891    -6733    -6689    -6812 
   -6994    -7064    -6963    -6808    -6732    -6764    -6893    -7022 
   -7005    -6845    -6679    -6636    -6778    -7005    -7119    -7080 
   -6968    -6871    -6893    -7022    -7068    -6951    -6817    -6794 
   -6886    -7005    -7017    -6887    -6731    -6666    -6713    -6844 
   -6982    -7032    -6988    -6909    -6814    -6739    -6731    -6795 
   -6886    -6945    -6952    -6944    -6974    -6999    -6953    -6870 
   -6836    -6870    -6895    -6856    -6802    -6775    -6777    -6849 
   -6972    -7034    -7018    -7007    -7025    -6987    -6855    -6728 
   -6729    -6874    -7044    -7103    -7021    -6856    -6702    -6673 
   -6802    -6971    -7055    -7028    -6903    -6729    -6623    -6689 
   -6883    -7006    -6955    -6845    -6783    -6759    -6787    -6887 
   -6994    -7037    -7003    -6903    -6778    -6725    -6778    -6866 
   -6952    -7001    -6970    -6920    -6913    -6880    -6806    -6816 
   -6916    -6978    -6963    -6920    -6878    -6862    -6867    -6848 
   -6837    -6885    -6917    -6862    -6804    -6816    -6851    -6875 
   -6889    -6887    -6891    -6909    -6928    -6941    -6924    -6871 
   -6829    -6821    -6837    -6893    -6972    -7013    -6991    -6970 
   -6971    -6947    -6924    -6953    -6979    -6932    -6839    -6771 
   -6772    -6847    -6922    -6918    -6887    -6905    -6913    -6874 
   -6839    -6848    -6880    -6858    -6786    -6787    -6871    -6928 
   -6921    -6890    -6871    -6852    -6814    -6809    -6859    -6917 
   -6948    -6961    -6948    -6875    -6783    -6775    -6867    -6960 
   -6979    -6929    -6880    -6898    -6957    -6964    -6907    -6855 
   -6824    -6806    -6845    -6945    -7005    -6953    -6864    -6820 
   -6802    -6789    -6826    -6930    -7014    -6999    -6921    -6847 
