Origin Time       2025/01/26 08:11:00
Lat.              34.975
Long.             138.213
Depth. (km)       21
Mag.              3.4
Station Code      SZO020
Station Lat.      35.0084
Station Long.     138.1474
Station Height(m) 270
Record Time       2025/01/26 08:11:36
Sampling Freq(Hz) 100Hz
Duration Time(s)  60
Dir.              E-W
Scale Factor      7845(gal)/8223790
Max. Acc. (gal)   2.815
Last Correction   2025/01/26 08:11:36
Memo.             
   -7344    -7341    -7339    -7341    -7339    -7339    -7341    -7339 
   -7341    -7341    -7338    -7338    -7342    -7341    -7341    -7341 
   -7339    -7339    -7339    -7338    -7339    -7342    -7341    -7339 
   -7338    -7339    -7341    -7339    -7338    -7339    -7341    -7341 
   -7342    -7342    -7341    -7341    -7344    -7345    -7341    -7338 
   -7339    -7344    -7344    -7342    -7339    -7338    -7339    -7339 
   -7341    -7344    -7342    -7338    -7339    -7341    -7339    -7339 
   -7344    -7344    -7342    -7342    -7342    -7341    -7341    -7341 
   -7341    -7341    -7339    -7341    -7341    -7339    -7341    -7341 
   -7341    -7341    -7339    -7339    -7339    -7342    -7344    -7344 
   -7339    -7338    -7341    -7342    -7342    -7341    -7339    -7339 
   -7341    -7342    -7342    -7344    -7344    -7342    -7339    -7339 
   -7339    -7339    -7339    -7339    -7339    -7339    -7339    -7339 
   -7342    -7342    -7342    -7341    -7341    -7342    -7342    -7341 
   -7341    -7339    -7341    -7342    -7339    -7338    -7341    -7341 
   -7339    -7341    -7341    -7342    -7342    -7341    -7339    -7341 
   -7342    -7342    -7341    -7341    -7342    -7342    -7342    -7341 
   -7339    -7341    -7344    -7341    -7341    -7344    -7341    -7339 
   -7342    -7342    -7342    -7342    -7339    -7339    -7342    -7342 
   -7341    -7339    -7342    -7344    -7342    -7341    -7342    -7344 
   -7344    -7344    -7344    -7341    -7341    -7341    -7339    -7339 
   -7339    -7339    -7341    -7342    -7344    -7341    -7338    -7339 
   -7341    -7341    -7339    -7339    -7341    -7342    -7341    -7339 
   -7339    -7339    -7341    -7341    -7341    -7341    -7341    -7341 
   -7341    -7339    -7339    -7341    -7341    -7339    -7342    -7345 
   -7342    -7341    -7342    -7341    -7341    -7339    -7339    -7342 
   -7344    -7341    -7341    -7341    -7341    -7342    -7341    -7338 
   -7341    -7342    -7341    -7341    -7341    -7342    -7341    -7339 
   -7341    -7342    -7341    -7339    -7338    -7339    -7341    -7341 
   -7341    -7338    -7338    -7341    -7339    -7339    -7342    -7341 
   -7341    -7341    -7339    -7338    -7339    -7338    -7341    -7345 
   -7344    -7341    -7342    -7341    -7339    -7338    -7339    -7342 
   -7342    -7341    -7339    -7341    -7341    -7341    -7342    -7342 
   -7339    -7341    -7344    -7341    -7338    -7342    -7342    -7338 
   -7341    -7344    -7342    -7342    -7341    -7337    -7338    -7342 
   -7345    -7342    -7341    -7342    -7342    -7342    -7341    -7338 
   -7338    -7339    -7344    -7342    -7339    -7341    -7342    -7342 
   -7341    -7341    -7341    -7339    -7339    -7341    -7341    -7341 
   -7342    -7342    -7341    -7339    -7339    -7341    -7344    -7345 
   -7338    -7337    -7341    -7339    -7341    -7344    -7339    -7338 
   -7339    -7339    -7341    -7341    -7342    -7344    -7339    -7338 
   -7339    -7341    -7342    -7341    -7342    -7344    -7341    -7339 
   -7339    -7341    -7341    -7338    -7338    -7341    -7341    -7339 
   -7341    -7342    -7341    -7341    -7342    -7341    -7341    -7342 
   -7341    -7341    -7342    -7341    -7341    -7342    -7339    -7339 
   -7344    -7339    -7338    -7339    -7342    -7342    -7342    -7342 
   -7342    -7341    -7341    -7341    -7338    -7338    -7341    -7341 
   -7339    -7341    -7338    -7339    -7342    -7341    -7339    -7341 
   -7339    -7341    -7344    -7341    -7339    -7341    -7342    -7342 
   -7341    -7341    -7341    -7339    -7339    -7342    -7342    -7339 
   -7341    -7342    -7341    -7339    -7338    -7337    -7338    -7339 
   -7339    -7339    -7341    -7341    -7339    -7338    -7338    -7338 
   -7339    -7341    -7341    -7342    -7342    -7342    -7341    -7339 
   -7339    -7342    -7341    -7338    -7339    -7341    -7341    -7344 
   -7344    -7341    -7341    -7342    -7341    -7339    -7342    -7344 
   -7342    -7342    -7342    -7341    -7339    -7341    -7344    -7342 
   -7341    -7342    -7342    -7339    -7339    -7341    -7342    -7341 
   -7339    -7341    -7341    -7339    -7341    -7344    -7341    -7338 
   -7339    -7341    -7342    -7339    -7339    -7342    -7341    -7341 
   -7342    -7339    -7341    -7344    -7342    -7342    -7342    -7342 
   -7339    -7339    -7342    -7342    -7339    -7339    -7341    -7342 
   -7344    -7341    -7341    -7342    -7342    -7339    -7341    -7341 
   -7342    -7345    -7342    -7341    -7342    -7342    -7344    -7342 
   -7339    -7341    -7344    -7341    -7341    -7342    -7342    -7341 
   -7339    -7341    -7341    -7338    -7339    -7342    -7342    -7341 
   -7341    -7341    -7344    -7344    -7341    -7341    -7342    -7341 
   -7342    -7344    -7344    -7342    -7339    -7341    -7342    -7341 
   -7339    -7339    -7339    -7341    -7344    -7342    -7344    -7344 
   -7342    -7341    -7341    -7341    -7341    -7341    -7342    -7342 
   -7341    -7342    -7342    -7339    -7342    -7344    -7341    -7339 
   -7341    -7342    -7342    -7342    -7342    -7344    -7342    -7339 
   -7339    -7342    -7345    -7341    -7339    -7342    -7339    -7337 
   -7339    -7341    -7342    -7344    -7342    -7341    -7342    -7341 
   -7339    -7341    -7341    -7341    -7339    -7341    -7344    -7344 
   -7344    -7341    -7339    -7342    -7342    -7339    -7341    -7341 
   -7339    -7341    -7341    -7341    -7342    -7339    -7339    -7344 
   -7344    -7341    -7342    -7342    -7341    -7342    -7344    -7344 
   -7341    -7341    -7341    -7339    -7341    -7344    -7342    -7341 
   -7341    -7339    -7341    -7345    -7341    -7339    -7344    -7344 
   -7341    -7341    -7339    -7339    -7341    -7342    -7342    -7344 
   -7344    -7341    -7339    -7341    -7342    -7344    -7344    -7341 
   -7339    -7342    -7342    -7341    -7344    -7344    -7339    -7341 
   -7344    -7341    -7339    -7342    -7344    -7344    -7342    -7339 
   -7342    -7342    -7339    -7341    -7342    -7341    -7342    -7341 
   -7342    -7344    -7342    -7342    -7344    -7342    -7341    -7344 
   -7344    -7341    -7342    -7341    -7339    -7342    -7345    -7344 
   -7341    -7339    -7341    -7342    -7342    -7342    -7342    -7342 
   -7342    -7341    -7341    -7342    -7341    -7341    -7342    -7341 
   -7341    -7344    -7339    -7337    -7341    -7339    -7338    -7341 
   -7341    -7341    -7342    -7341    -7344    -7345    -7338    -7338 
   -7344    -7342    -7342    -7345    -7344    -7342    -7341    -7341 
   -7342    -7341    -7339    -7341    -7341    -7341    -7344    -7342 
   -7341    -7344    -7341    -7338    -7342    -7342    -7339    -7341 
   -7342    -7341    -7342    -7345    -7344    -7342    -7342    -7339 
   -7341    -7341    -7341    -7344    -7344    -7339    -7339    -7339 
   -7342    -7344    -7342    -7344    -7344    -7341    -7342    -7344 
   -7342    -7342    -7342    -7341    -7341    -7339    -7339    -7339 
   -7339    -7341    -7341    -7341    -7342    -7344    -7341    -7338 
   -7339    -7341    -7342    -7344    -7341    -7339    -7341    -7341 
   -7341    -7344    -7342    -7341    -7344    -7342    -7339    -7342 
   -7342    -7339    -7339    -7341    -7339    -7341    -7342    -7342 
   -7342    -7342    -7342    -7341    -7342    -7342    -7342    -7341 
   -7339    -7341    -7342    -7342    -7344    -7342    -7342    -7341 
   -7339    -7341    -7344    -7342    -7341    -7342    -7342    -7341 
   -7339    -7338    -7339    -7342    -7341    -7341    -7342    -7341 
   -7339    -7341    -7341    -7341    -7341    -7341    -7344    -7344 
   -7341    -7339    -7339    -7339    -7341    -7344    -7338    -7338 
   -7342    -7341    -7339    -7341    -7342    -7342    -7341    -7338 
   -7339    -7341    -7339    -7339    -7342    -7344    -7339    -7338 
   -7339    -7341    -7341    -7342    -7342    -7344    -7341    -7339 
   -7342    -7341    -7338    -7339    -7339    -7341    -7341    -7341 
   -7342    -7344    -7341    -7339    -7341    -7342    -7341    -7339 
   -7338    -7338    -7339    -7339    -7339    -7341    -7339    -7338 
   -7342    -7342    -7339    -7342    -7341    -7339    -7341    -7342 
   -7341    -7341    -7342    -7341    -7339    -7341    -7339    -7339 
   -7342    -7342    -7339    -7338    -7342    -7342    -7338    -7341 
   -7342    -7342    -7341    -7339    -7339    -7341    -7341    -7339 
   -7339    -7341    -7341    -7341    -7341    -7339    -7341    -7341 
   -7339    -7342    -7342    -7341    -7339    -7339    -7339    -7339 
   -7339    -7339    -7339    -7341    -7342    -7341    -7342    -7339 
   -7339    -7342    -7342    -7339    -7339    -7339    -7342    -7342 
   -7341    -7341    -7342    -7341    -7338    -7339    -7342    -7341 
   -7337    -7339    -7342    -7341    -7341    -7339    -7339    -7341 
   -7341    -7339    -7339    -7339    -7338    -7337    -7339    -7339 
   -7339    -7341    -7339    -7338    -7341    -7341    -7341    -7341 
   -7339    -7339    -7341    -7338    -7338    -7339    -7338    -7338 
   -7338    -7338    -7341    -7341    -7341    -7342    -7342    -7339 
   -7341    -7342    -7339    -7341    -7341    -7338    -7339    -7338 
   -7339    -7341    -7338    -7339    -7342    -7342    -7339    -7339 
   -7341    -7341    -7342    -7344    -7339    -7335    -7338    -7342 
   -7342    -7339    -7339    -7341    -7341    -7341    -7339    -7338 
   -7339    -7339    -7339    -7342    -7342    -7342    -7341    -7342 
   -7342    -7341    -7337    -7338    -7339    -7338    -7338    -7339 
   -7341    -7339    -7339    -7339    -7338    -7339    -7341    -7341 
   -7342    -7339    -7338    -7339    -7341    -7338    -7339    -7341 
   -7339    -7339    -7341    -7339    -7339    -7341    -7339    -7339 
   -7339    -7338    -7335    -7338    -7339    -7338    -7339    -7339 
   -7339    -7342    -7341    -7338    -7342    -7341    -7338    -7341 
   -7342    -7342    -7341    -7341    -7341    -7339    -7341    -7345 
   -7342    -7339    -7339    -7341    -7342    -7341    -7338    -7341 
   -7342    -7339    -7339    -7338    -7339    -7342    -7342    -7339 
   -7338    -7338    -7341    -7339    -7339    -7342    -7339    -7339 
   -7341    -7339    -7339    -7339    -7338    -7339    -7344    -7344 
   -7338    -7338    -7341    -7341    -7339    -7339    -7341    -7342 
   -7342    -7341    -7339    -7338    -7341    -7342    -7342    -7342 
   -7342    -7338    -7337    -7339    -7342    -7341    -7339    -7339 
   -7344    -7342    -7338    -7337    -7338    -7339    -7341    -7341 
   -7341    -7338    -7338    -7341    -7339    -7338    -7337    -7338 
   -7341    -7339    -7341    -7342    -7342    -7342    -7341    -7339 
   -7342    -7341    -7337    -7333    -7327    -7330    -7327    -7300 
   -7345    -7406    -7186    -7086    -7578    -7599    -6990    -7433 
   -8004    -6766    -5945    -7668    -9100    -8303    -7512    -6581 
   -4753    -5902    -9675   -10291    -7898    -6030    -5157    -5861 
   -7843    -8671    -8363    -8093    -7273    -6350    -6349    -6878 
   -7747    -8777    -8716    -6971    -5436    -6080    -7408    -7898 
   -8434    -8087    -6463    -6461    -7651    -7381    -7021    -7454 
   -7377    -7582    -8264    -7871    -6959    -6756    -6956    -7325 
   -7827    -7830    -7187    -6822    -7146    -7458    -7331    -7003 
   -7040    -7565    -7681    -7152    -6975    -7263    -7341    -7399 
   -7695    -7682    -7318    -7319    -7831    -7906    -6895    -6160 
   -6879    -7843    -8178    -8143    -7411    -6241    -6131    -7450 
   -8414    -7924    -6983    -6679    -7159    -7597    -7338    -7226 
   -7570    -7499    -7265    -7434    -7492    -7323    -7179    -7001 
   -7095    -7526    -7992    -8058    -7202    -6385    -6802    -7626 
   -7805    -7499    -7245    -7275    -7257    -7168    -7497    -7759 
   -7380    -7152    -7269    -7149    -7055    -7203    -7431    -7700 
   -7591    -7063    -6926    -7214    -7454    -7612    -7441    -7163 
   -7404    -7782    -7515    -6890    -6831    -7291    -7755    -8068 
   -7682    -6766    -6662    -7291    -7462    -7435    -7690    -7585 
   -7094    -6866    -6997    -7439    -7838    -7572    -7160    -7296 
   -7481    -7442    -7387    -7146    -6976    -7344    -7565    -7195 
   -7238    -7789    -7632    -6872    -6762    -7350    -7757    -7825 
   -7686    -7326    -7021    -6998    -7261    -7501    -7483    -7528 
   -7539    -6974    -6465    -6997    -7913    -8109    -7670    -7098 
   -6804    -7051    -7456    -7578    -7527    -7456    -7294    -6990 
   -6821    -7182    -7832    -7977    -7325    -6740    -7020    -7539 
   -7546    -7387    -7358    -7352    -7312    -7146    -7123    -7480 
   -7805    -7755    -7318    -6870    -7059    -7688    -7915    -7543 
   -7063    -7036    -7352    -7380    -7199    -7183    -7165    -7285 
   -7649    -7642    -7209    -6917    -6980    -7258    -7392    -7402 
   -7605    -7742    -7593    -7388    -7246    -7227    -7352    -7511 
   -7420    -6979    -6831    -7271    -7560    -7481    -7539    -7569 
   -7240    -6978    -7118    -7380    -7508    -7547    -7446    -7196 
   -7231    -7523    -7426    -7179    -7360    -7549    -7356    -7171 
   -7198    -7267    -7429    -7619    -7445    -7084    -7033    -7109 
   -7233    -7582    -7681    -7383    -7303    -7342    -7110    -7130 
   -7551    -7669    -7503    -7393    -7084    -6860    -7283    -7782 
   -7685    -7361    -7248    -7165    -7042    -7226    -7624    -7626 
   -7310    -7184    -7195    -7238    -7362    -7372    -7237    -7183 
   -7110    -6906    -6847    -7052    -7327    -7491    -7241    -6492 
   -5906    -6257    -7438    -8492    -8382    -7192    -6477    -7318 
   -8982   -10089    -9779    -8191    -6700    -6716    -7735    -8016 
   -7560    -7707    -8112    -7470    -5935    -4741    -5140    -7321 
   -9297    -8949    -6976    -5755    -6281    -7391    -7693    -7469 
   -7638    -8024    -7877    -7152    -6546    -6512    -6986    -7693 
   -7894    -7233    -6735    -6967    -7161    -7163    -7430    -7812 
   -8055    -7983    -7342    -6473    -6188    -6821    -7931    -8715 
   -8669    -7862    -6785    -6277    -6826    -7827    -8216    -7545 
   -6423    -5965    -6590    -7639    -8241    -8106    -7488    -6824 
   -6494    -6606    -7061    -7716    -8216    -8195    -7879    -7696 
   -7481    -7055    -6876    -7155    -7468    -7595    -7578    -7371 
   -7015    -6760    -6914    -7411    -7659    -7500    -7402    -7387 
   -7145    -6841    -6866    -7371    -8004    -8075    -7434    -6723 
   -6706    -7399    -7827    -7453    -7022    -7075    -7233    -7236 
   -7260    -7410    -7454    -7226    -7079    -7304    -7704    -8047 
   -8101    -7686    -7117    -6917    -7204    -7673    -7916    -7712 
   -7180    -6702    -6681    -7126    -7551    -7614    -7383    -7088 
   -6994    -7182    -7411    -7392    -7172    -7114    -7277    -7406 
   -7516    -7607    -7453    -7191    -7146    -7292    -7411    -7403 
   -7437    -7638    -7717    -7508    -7329    -7420    -7638    -7650 
   -7398    -7173    -7164    -7299    -7352    -7133    -6906    -7065 
   -7464    -7607    -7329    -7026    -7145    -7445    -7377    -7061 
   -7037    -7377    -7630    -7442    -7063    -7009    -7288    -7454 
   -7288    -7128    -7368    -7751    -7738    -7271    -6797    -6825 
   -7337    -7730    -7607    -7207    -7002    -7176    -7472    -7616 
   -7624    -7511    -7368    -7415    -7495    -7335    -7207    -7365 
   -7577    -7646    -7504    -7206    -7086    -7275    -7477    -7470 
   -7260    -7038    -7083    -7354    -7515    -7439    -7288    -7217 
   -7233    -7304    -7388    -7406    -7376    -7350    -7288    -7252 
   -7360    -7503    -7539    -7480    -7362    -7308    -7441    -7609 
   -7570    -7368    -7209    -7226    -7389    -7449    -7244    -6979 
   -6912    -7060    -7237    -7364    -7489    -7491    -7392    -7407 
   -7426    -7319    -7265    -7345    -7381    -7271    -7213    -7338 
   -7487    -7588    -7614    -7419    -7138    -7115    -7292    -7416 
   -7407    -7271    -7215    -7368    -7443    -7327    -7202    -7150 
   -7294    -7592    -7647    -7352    -7088    -7091    -7250    -7337 
   -7209    -7061    -7179    -7392    -7389    -7272    -7276    -7385 
   -7508    -7614    -7603    -7416    -7261    -7373    -7611    -7665 
   -7458    -7175    -7091    -7246    -7398    -7441    -7379    -7195 
   -7105    -7227    -7333    -7356    -7447    -7545    -7493    -7299 
   -7101    -7086    -7263    -7412    -7391    -7311    -7337    -7408 
   -7418    -7422    -7434    -7368    -7265    -7222    -7231    -7292 
   -7334    -7248    -7142    -7175    -7346    -7527    -7503    -7302 
   -7221    -7337    -7453    -7456    -7410    -7399    -7403    -7385 
   -7352    -7329    -7362    -7419    -7399    -7310    -7245    -7244 
   -7295    -7380    -7406    -7352    -7348    -7389    -7318    -7200 
   -7253    -7407    -7485    -7506    -7492    -7377    -7202    -7152 
   -7281    -7423    -7395    -7210    -7096    -7199    -7350    -7400 
   -7385    -7312    -7268    -7387    -7474    -7354    -7230    -7236 
   -7312    -7446    -7546    -7504    -7385    -7295    -7296    -7395 
   -7431    -7302    -7217    -7312    -7403    -7399    -7403    -7399 
   -7369    -7377    -7327    -7195    -7210    -7366    -7431    -7400 
   -7341    -7288    -7325    -7368    -7356    -7393    -7404    -7307 
   -7237    -7229    -7287    -7408    -7461    -7412    -7358    -7321 
   -7283    -7257    -7263    -7292    -7269    -7196    -7194    -7263 
   -7338    -7416    -7425    -7373    -7395    -7468    -7497    -7457 
   -7364    -7329    -7388    -7369    -7277    -7292    -7369    -7384 
   -7317    -7188    -7137    -7277    -7461    -7468    -7338    -7250 
   -7285    -7366    -7366    -7326    -7326    -7314    -7280    -7261 
   -7245    -7249    -7283    -7285    -7252    -7230    -7225    -7303 
   -7479    -7576    -7520    -7372    -7210    -7204    -7403    -7568 
   -7515    -7345    -7249    -7319    -7476    -7527    -7398    -7288 
   -7346    -7438    -7447    -7395    -7323    -7284    -7288    -7311 
   -7380    -7454    -7423    -7311    -7238    -7244    -7334    -7474 
   -7526    -7429    -7254    -7106    -7137    -7345    -7458    -7369 
   -7264    -7257    -7330    -7425    -7441    -7358    -7306    -7330 
   -7308    -7217    -7169    -7200    -7271    -7344    -7373    -7356 
   -7337    -7307    -7277    -7294    -7337    -7403    -7446    -7365 
   -7234    -7179    -7206    -7334    -7512    -7554    -7460    -7388 
   -7346    -7283    -7249    -7299    -7391    -7426    -7345    -7217 
   -7177    -7258    -7353    -7433    -7500    -7488    -7381    -7261 
   -7183    -7207    -7377    -7554    -7560    -7431    -7315    -7280 
   -7330    -7395    -7379    -7330    -7344    -7361    -7353    -7383 
   -7407    -7377    -7342    -7280    -7177    -7156    -7260    -7381 
   -7446    -7431    -7349    -7256    -7213    -7237    -7306    -7408 
   -7487    -7438    -7314    -7246    -7265    -7353    -7446    -7460 
   -7399    -7354    -7350    -7346    -7344    -7373    -7430    -7446 
