Origin Time       2025/01/26 08:11:00
Lat.              34.975
Long.             138.213
Depth. (km)       21
Mag.              3.4
Station Code      AIC008
Station Lat.      35.1006
Station Long.     137.5757
Station Height(m) 479
Record Time       2025/01/26 08:11:47
Sampling Freq(Hz) 100Hz
Duration Time(s)  60
Dir.              E-W
Scale Factor      7845(gal)/8223790
Max. Acc. (gal)   3.100
Last Correction   2025/01/26 08:11:46
Memo.             
[...]
    6988     6986     6987     6991     6991     6988     6990     6993 
    6991     6987     6988     6991     6990     6987     6987     6987 
    6991     6993     6987     6987     6991     6990     6987     6987 
    6993     6997     6990     6984     6987     6990     6988     6988 
    6988     6988     6990     6990     6990     6990     6987     6987 
    6988     6990     6993     6993     6990     6987     6988     6988 
    6988     6988     6988     6991     6993     6988     6987     6990 
    6988     6984     6987     6991     6988     6986     6987     6990 
    6991     6988     6988     6994     6994     6991     6991     6988 
    6983     6986     6988     6991     6993     6991     6990     6993 
    6993     6990     6988     6988     6988     6986     6984     6987 
    6991     6994     6991     6990     6991     6988     6988     6991 
    6990     6984     6987     6993     6991     6988     6990     6990 
    6988     6988     6987     6986     6986     6988     6991     6995 
    6995     6991     6991     6991     6988     6987     6987     6987 
    6991     6994     6990     6990     6991     6991     6990     6990 
    6990     6987     6987     6990     6988     6990     6993     6991 
    6990     6991     6990     6987     6984     6984     6988     6991 
    6991     6993     6993     6991     6991     6990     6987     6987 
    6987     6987     6988     6990     6990     6988     6988     6990 
    6990     6990     6990     6990     6988     6988     6991     6994 
    6991     6988     6990     6990     6990     6993     6991     6990 
    6991     6987     6986     6990     6993     6990     6988     6988 
    6988     6987     6987     6991     6991     6990     6990     6988 
    6987     6988     6990     6988     6986     6986     6988     6993 
    6991     6988     6986     6987     6987     6986     6990     6993 
    6990     6987     6988     6990     6991     6987     6984     6987 
    6991     6990     6988     6991     6994     6993     6986     6986 
    6990     6988     6987     6991     6991     6988     6988     6990 
    6994     6993     6987     6987     6990     6990     6991     6990 
    6988     6991     6994     6990     6987     6990     6988     6988 
    6988     6987     6990     6994     6988     6987     6994     6993 
    6984     6988     6994     6991     6987     6987     6990     6993 
    6990     6988     6990     6990     6990     6990     6990     6991 
    6991     6990     6988     6988     6991     6990     6987     6987 
    6990     6991     6991     6991     6994     6993     6990     6988 
    6988     6987     6990     6994     6993     6990     6988     6988 
    6990     6988     6991     6993     6990     6990     6988     6988 
    6993     6994     6990     6991     6994     6990     6988     6988 
    6987     6986     6988     6990     6990     6991     6991     6987 
    6987     6991     6991     6988     6991     6993     6991     6990 
    6987     6987     6990     6990     6988     6988     6990     6991 
    6988     6987     6990     6990     6988     6988     6988     6988 
    6988     6987     6988     6991     6991     6988     6990     6990 
    6988     6987     6987     6991     6993     6991     6991     6991 
    6988     6986     6986     6987     6988     6988     6991     6993 
    6990     6990     6991     6987     6986     6988     6990     6990 
    6991     6990     6987     6987     6990     6990     6991     6993 
    6990     6987     6986     6987     6988     6987     6988     6991 
    6988     6984     6988     6991     6988     6988     6991     6991 
    6990     6991     6990     6987     6987     6987     6987     6987 
    6988     6990     6988     6988     6987     6988     6991     6993 
    6990     6990     6993     6993     6990     6987     6988     6991 
    6987     6982     6984     6988     6991     6991     6990     6991 
    6993     6986     6986     6990     6988     6984     6986     6990 
    6993     6995     6997     6994     6991     6987     6984     6986 
    6986     6986     6988     6993     6993     6991     6993     6991 
    6986     6984     6987     6988     6987     6987     6993     6994 
    6991     6987     6988     6991     6991     6988     6987     6986 
    6987     6988     6990     6988     6990     6993     6994     6993 
    6987     6986     6990     6991     6987     6988     6991     6994 
    6993     6990     6987     6990     6991     6986     6983     6983 
    6987     6993     6991     6990     6993     6993     6988     6988 
    6987     6984     6984     6986     6987     6991     6994     6994 
    6990     6987     6988     6993     6990     6982     6984     6988 
    6988     6988     6991     6993     6994     6991     6990     6988 
    6986     6988     6990     6987     6987     6993     6994     6993 
    6990     6986     6986     6988     6990     6988     6990     6988 
    6988     6990     6991     6990     6990     6988     6988     6994 
    6991     6986     6987     6987     6984     6987     6988     6990 
    6991     6990     6990     6991     6990     6987     6988     6988 
    6988     6988     6988     6988     6994     6994     6990     6991 
    6990     6987     6988     6990     6990     6990     6991     6991 
    6991     6991     6993     6993     6988     6988     6991     6990 
    6987     6987     6988     6991     6993     6990     6993     6995 
    6991     6990     6988     6984     6984     6987     6990     6991 
    6991     6991     6991     6988     6986     6984     6987     6991 
    6991     6990     6991     6991     6990     6991     6991     6988 
    6988     6988     6987     6990     6990     6988     6990     6991 
    6991     6988     6988     6988     6988     6987     6990     6993 
    6993     6997     7006     7014     7015     7010     7003     6963 
    6878     6812     6837     6980     7203     7348     7283     7068 
    6853     6713     6673     6745     6887     7060     7283     7441 
    7280     6860     6601     6650     6787     6920     7063     7190 
    7339     7447     7207     6650     6354     6612     7051     7281 
    7230     6980     6863     7107     7221     6821     6535     6864 
    7360     7499     7261     6909     6698     6675     6708     6714 
    6840     7234     7677     7731     7187     6439     6199     6563 
    6987     7213     7338     7357     7209     6903     6592     6605 
    7024     7403     7329     6972     6704     6609     6725     7017 
    7214     7271     7299     7144     6790     6578     6650     6912 
    7244     7366     7194     7021     6976     6925     6804     6682 
    6733     7010     7308     7411     7245     6929     6758     6831 
    6925     6913     6902     6945     6988     7006     7057     7141 
    7167     7115     7006     6821     6652     6664     6898     7213 
    7360     7223     6999     6893     6897     6974     7024     6929 
    6839     6920     7037     7055     7021     7024     7130     7250 
    7095     6721     6616     6876     7101     7091     7025     7078 
    7142     7034     6848     6771     6837     6998     7152     7229 
    7203     6980     6640     6535     6782     7119     7323     7353 
    7221     7006     6837     6751     6754     6883     7021     7047 
    7036     7034     7034     7056     7078     7092     7033     6852 
    6786     6953     7071     7020     6983     7005     7040     7076 
    7044     6983     7003     7003     6891     6835     6937     7052 
    7087     7087     7018     6891     6916     7042     6952     6810 
    6944     7095     7095     7136     7126     6972     6821     6727 
    6736     6933     7203     7334     7217     6983     6852     6851 
    6905     6976     6999     6970     7002     7053     6968     6893 
    7041     7211     7083     6754     6674     7018     7337     7196 
    6831     6737     6968     7182     7109     6841     6828     7218 
    7456     7119     6555     6385     6806     7302     7322     7055 
    6929     7021     7141     6998     6644     6613     7036     7317 
    7149     6910     6945     7107     7105     6963     6863     6825 
    6878     7049     7186     7157     7015     6870     6852     7011 
    7122     6979     6794     6885     7091     7048     6894     6944 
    7056     7078     7083     7006     6894     6991     7113     6934 
    6770     6980     7209     7076     6886     6955     7072     7057 
    6995     6897     6829     6924     7036     7049     7069     7048 
    6947     6922     6993     7036     6999     6940     6961     7028 
    7021     6960     6957     7038     7113     7074     6948     6836 
    6799     6895     7060     7123     7107     7114     7028     6836 
    6782     6918     7091     7172     7117     6986     6866     6805 
    6853     6987     7106     7160     7140     7011     6831     6794 
    6947     7084     7102     7055     6990     6963     6998     6975 
    6883     6926     7080     7113     7030     6934     6832     6858 
    7037     7092     7005     7068     7244     7190     6880     6655 
    6704     6909     7126     7214     7109     6997     6961     6918 
    6925     7002     7015     6928     6841     6955     7217     7204 
    6879     6716     6849     7064     7227     7188     6988     6922 
    6983     6947     6828     6770     6868     7136     7327     7186 
    6868     6745     6887     7076     7153     7086     6945     6917 
    7015     7006     6871     6810     6886     7087     7269     7194 
    6967     6897     6963     6957     6841     6725     6797     7109 
    7357     7264     6994     6859     6883     6897     6860     6885 
    7018     7198     7291     7141     6839     6724     6878     7015 
    7014     6968     6943     6999     7102     7109     7044     6984 
    6918     6910     6993     7024     6968     6967     7032     7014 
    6897     6839     6930     7088     7196     7180     7005     6790 
    6762     6928     7057     7021     6929     6970     7160     7271 
    7101     6808     6732     6930     7090     7010     6885     6922 
    7067     7182     7163     7014     6918     6945     6944     6866 
    6818     6906     7113     7198     7047     6866     6825     6930 
    7061     7052     6945     6951     7080     7144     7042     6901 
    6874     6957     7045     7059     7003     6949     6957     6966 
    6940     6990     7086     7086     7007     6949     6956     7001 
    7017     6966     6870     6843     6994     7194     7194     7025 
    6925     6917     6897     6921     6967     6967     7036     7119 
    6990     6799     6845     7036     7119     7074     6999     6918 
    6902     7032     7121     6979     6836     6921     7059     7091 
    7056     6982     6936     6991     7078     7047     6901     6874 
    7064     7183     7045     6858     6844     6982     7068     6944 
    6763     6849     7176     7338     7153     6899     6804     6817 
    6916     7047     7047     6990     7025     7053     7047     7068 
    7032     6932     6882     6844     6825     6964     7163     7187 
    7068     6934     6878     6975     7080     6975     6833     6921 
    7103     7098     6925     6858     7024     7229     7183     6890 
    6696     6835     7090     7102     6933     6916     7044     7121 
    7134     7020     6775     6737     6994     7180     7088     6871 
    6828     7042     7219     7145     6966     6879     6930     7026 
    6987     6866     6951     7234     7358     7156     6781     6534 
    6642     6979     7160     7044     6905     6997     7187     7199 
    6986     6762     6826     7132     7233     7010     6829     6916 
    7144     7195     6966     6829     6987     7110     6975     6758 
    6687     6801     6959     7063     7142     7199     7198     7132 
    7029     6945     6890     6837     6843     6870     6874     6986 
    7177     7222     7122     7063     7065     6986     6813     6724 
    6832     7083     7294     7244     6961     6766     6810     6926 
    7006     7072     7059     6980     6941     6916     6880     6928 
    7072     7182     7132     7033     7067     7079     6914     6751 
    6712     6781     6934     7024     7028     7136     7326     7342 
    7098     6828     6818     6978     6968     6772     6675     6804 
    7091     7368     7406     7221     7117     7163     7051     6696 
    6386     6353     6662     7156     7399     7308     7263     7317 
    7230     6982     6639     6326     6315     6696     7182     7457 
    7493     7389     7190     6974     6851     6831     6860     6916 
    6957     6917     6837     6901     7095     7175     7145     7175 
    7163     7053     6984     6907     6763     6744     6926     7134 
    7234     7203     7018     6729     6523     6501     6561     6637 
    6752     6882     7049     7244     7341     7361     7384     7290 
    7007     6658     6501     6804     7458     8037     8336     8344 
    7935     7078     6053     5281     5109     5537     6134     6636 
    7215     7920     8428     8428     7967     7399     6967     6569 
    6054     5632     5718     6334     7010     7430     7634     7634 
    7399     7094     6878     6818     7005     7242     7199     7018 
    6934     6786     6519     6556     7223     8220     8851     8546 
    7330     5913     4896     4321     4409     5691     7970     9950 
   10239     8672     6501     5103     4830     5231     5894     6804 
    7878     8706     8966     8675     8033     7261     6457     5736 
    5464     5867     6543     6956     7130     7419     7901     8187 
    7766     6694     5741     5529     5946     6674     7597     8425 
    8600     7956     6988     6307     6042     5902     5802     6006 
    6598     7373     8116     8586     8583     8133     7377     6536 
    5950     5755     5742     5805     6195     7047     7935     8279 
    8008     7534     7226     7137     7109     6994     6727     6323 
    5961     5873     6087     6597     7443     8303     8630     8293 
    7541     6679     6008     5682     5763     6286     6983     7474 
    7784     7986     7840     7373     6971     6720     6466     6226 
    6091     6183     6660     7425     8031     8136     7831     7346 
    6805     6332     6042     6019     6404     7084     7553     7541 
    7315     7179     7141     7096     7003     6952     7032     7101 
    6968     6763     6764     7015     7253     7202     6933     6756 
    6790     6826     6690     6521     6613     7017     7454     7605 
    7433     7165     7007     6947     6875     6816     6799     6764 
    6755     6880     7141     7477     7704     7596     7206     6733 
    6315     6143     6299     6616     6975     7326     7632     7885 
    7877     7411     6729     6215     6053     6208     6489     6768 
    7049     7325     7565     7680     7577     7325     6990     6609 
    6366     6430     6729     7059     7210     7129     7002     7015 
    7177     7364     7430     7342     7169     6934     6637     6404 
    6394     6629     6976     7265     7402     7438     7446     7299 
    6853     6264     5917     6068     6633     7318     7790     7877 
    7692     7464     7284     7098     6787     6362     6076     6157 
    6523     6956     7326     7616     7839     7893     7647     7184 
    6687     6218     5825     5698     6076     6948     7869     8338 
    8276     7898     7371     6777     6223     5919     6048     6480 
    6880     7090     7213     7408     7603     7574     7314     6997 
    6787     6743     6693     6489     6299     6381     6822     7454 
    7881     7862     7545     7148     6799     6612     6598     6716 
    6902     7001     6960     6914     6947     7045     7172     7202 
    7065     6872     6764     6804     6944     7059     7146     7317 
    7510     7470     7064     6504     6174     6270     6656     7032 
    7219     7264     7276     7295     7268     7140     6926     6705 
    6602     6639     6724     6880     7148     7404     7510     7461 
    7349     7196     6916     6486     6120     6130     6573     7176 
    7608     7747     7653     7420     7109     6750     6457     6427 
    6701     7060     7258     7199     6943     6728     6766     6971 
    7168     7317     7380     7311     7119     6825     6534     6447 
    6635     6967     7226     7257     7106     6947     6910     7018 
    7142     7099     6937     6898     7015     7048     6914     6802 
    6878     7086     7211     7161     7041     6936     6853     6837 
    6925     7059     7092     6976     6851     6833     6878     6899 
    6920     7022     7207     7353     7371     7271     7105     6933 
    6801     6693     6617     6612     6685     6862     7102     7283 
    7406     7520     7479     7164     6782     6575     6524     6534 
    6646     6912     7242     7468     7468     7295     7117     7003 
    6878     6687     6535     6575     6760     6939     7103     7298 
    7441     7411     7192     6916     6781     6843     6895     6741 
    6570     6704     7079     7356     7337     7088     6863     6886 
    7118     7264     7129     6859     6673     6621     6708     6922 
    7160     7322     7398     7396     7292     7067     6723     6390 
    6358     6700     7146     7426     7443     7290     7101     6878 
    6636     6552     6687     6883     7015     7084     7122     7161 
    7202     7229     7207     7137     7061     6960     6767     6542 
    6481     6716     7121     7437     7516     7383     7145     6886 
    6643     6529     6656     6957     7256     7385     7234     6902 
    6682     6700     6798     6879     7020     7250     7431     7361 
    7048     6713     6521     6528     6756     7114     7410     7477 
    7335     7117     6851     6566     6431     6543     6810     7115 
    7375     7551     7577     7354     6972     6666     6532     6571 
    6705     6813     6948     7192     7406     7466     7406     7252 
    7055     6864     6646     6447     6440     6679     7051     7366 
    7472     7379     7214     7045     6897     6766     6636     6565 
    6655     6933     7241     7349     7210     6997     6889     6917 
    6987     7011     6997     7020     7075     7059     6937     6847 
    6913     7045     7064     6990     6925     6889     6895     6949 
    7006     7042     7036     7006     7018     7064     7076     7040 
    6988     6976     6982     6952     6914     6897     6914     7036 
    7195     7203     7076     6955     6871     6835     6847     6863 
    6933     7086     7192     7164     7071     6993     6928     6875 
    6882     6947     6991     6982     6984     7015     7029     7033 
    7032     6983     6941     6971     6999     6967     6952     7024 
    7101     7061     6974     6932     6905     6887     6920     7017 
    7180     7298     7207     6971     6806     6782     6810     6835 
    6889     7001     7114     7160     7152     7118     7053     6982 
    6932     6894     6876     6897     6939     6953     6949     6979 
    7083     7234     7299     7168     6928     6751     6683     6678 
    6744     6913     7122     7271     7296     7194     7024     6866 
