Origin Time       2025/01/26 08:11:00
Lat.              34.975
Long.             138.213
Depth. (km)       21
Mag.              3.4
Station Code      AIC008
Station Lat.      35.1006
Station Long.     137.5757
Station Height(m) 479
Record Time       2025/01/26 08:11:47
Sampling Freq(Hz) 100Hz
Duration Time(s)  60
Dir.              N-S
Scale Factor      7845(gal)/8223790
Max. Acc. (gal)   2.171
Last Correction   2025/01/26 08:11:46
Memo.             
[...]
   -7832    -7831    -7835    -7838    -7835    -7832    -7835    -7834 
   -7834    -7836    -7835    -7834    -7835    -7834    -7835    -7836 
   -7834    -7832    -7835    -7832    -7831    -7831    -7832    -7834 
   -7835    -7838    -7836    -7834    -7834    -7834    -7832    -7832 
   -7834    -7835    -7834    -7831    -7834    -7835    -7834    -7835 
   -7836    -7835    -7834    -7834    -7838    -7839    -7834    -7832 
   -7835    -7839    -7838    -7831    -7830    -7835    -7838    -7836 
   -7835    -7835    -7834    -7832    -7835    -7838    -7836    -7832 
   -7831    -7831    -7834    -7836    -7834    -7834    -7838    -7838 
   -7834    -7834    -7838    -7836    -7832    -7831    -7831    -7835 
   -7836    -7834    -7834    -7838    -7839    -7835    -7835    -7832 
   -7828    -7831    -7835    -7834    -7834    -7836    -7835    -7836 
   -7836    -7835    -7835    -7832    -7830    -7832    -7836    -7836 
   -7834    -7835    -7836    -7834    -7835    -7835    -7835    -7834 
   -7835    -7839    -7839    -7832    -7828    -7831    -7834    -7835 
   -7836    -7835    -7832    -7834    -7838    -7836    -7834    -7834 
   -7836    -7835    -7832    -7832    -7836    -7834    -7830    -7834 
   -7836    -7835    -7835    -7836    -7836    -7834    -7834    -7835 
   -7836    -7835    -7831    -7834    -7836    -7836    -7835    -7836 
   -7836    -7834    -7831    -7835    -7836    -7834    -7834    -7836 
   -7834    -7834    -7835    -7835    -7835    -7835    -7835    -7836 
   -7836    -7832    -7831    -7835    -7836    -7834    -7834    -7836 
   -7838    -7838    -7835    -7832    -7831    -7835    -7835    -7834 
   -7835    -7834    -7832    -7835    -7838    -7838    -7838    -7835 
   -7834    -7835    -7835    -7832    -7831    -7834    -7835    -7834 
   -7835    -7838    -7838    -7835    -7831    -7832    -7836    -7838 
   -7835    -7834    -7834    -7835    -7834    -7831    -7835    -7840 
   -7839    -7834    -7834    -7835    -7831    -7831    -7834    -7834 
   -7834    -7832    -7834    -7836    -7836    -7834    -7834    -7832 
   -7831    -7834    -7834    -7834    -7836    -7836    -7832    -7834 
   -7836    -7836    -7835    -7836    -7835    -7834    -7834    -7832 
   -7831    -7832    -7836    -7836    -7834    -7835    -7836    -7838 
   -7836    -7834    -7832    -7836    -7835    -7834    -7835    -7838 
   -7838    -7831    -7832    -7836    -7838    -7836    -7834    -7831 
   -7831    -7831    -7835    -7838    -7836    -7832    -7835    -7838 
   -7835    -7832    -7834    -7835    -7835    -7832    -7831    -7834 
   -7835    -7832    -7832    -7836    -7835    -7832    -7831    -7834 
   -7838    -7836    -7832    -7832    -7836    -7838    -7834    -7831 
   -7832    -7835    -7835    -7835    -7836    -7836    -7834    -7832 
   -7835    -7834    -7832    -7835    -7835    -7832    -7834    -7836 
   -7834    -7832    -7832    -7832    -7834    -7834    -7832    -7834 
   -7835    -7835    -7832    -7832    -7835    -7834    -7834    -7836 
   -7838    -7836    -7834    -7832    -7834    -7835    -7835    -7835 
   -7834    -7832    -7832    -7835    -7836    -7836    -7835    -7834 
   -7832    -7834    -7836    -7836    -7835    -7834    -7832    -7832 
   -7836    -7838    -7836    -7838    -7838    -7835    -7834    -7834 
   -7834    -7832    -7834    -7838    -7835    -7834    -7838    -7835 
   -7831    -7834    -7835    -7836    -7838    -7834    -7835    -7840 
   -7838    -7831    -7834    -7838    -7835    -7831    -7832    -7835 
   -7835    -7835    -7839    -7839    -7836    -7834    -7835    -7838 
   -7836    -7835    -7836    -7834    -7832    -7834    -7835    -7835 
   -7836    -7835    -7834    -7834    -7835    -7834    -7834    -7832 
   -7834    -7836    -7834    -7832    -7836    -7836    -7835    -7835 
   -7834    -7832    -7832    -7836    -7836    -7834    -7834    -7835 
   -7834    -7836    -7838    -7836    -7835    -7832    -7830    -7832 
   -7834    -7834    -7835    -7838    -7838    -7835    -7838    -7840 
   -7836    -7831    -7830    -7830    -7834    -7836    -7835    -7835 
   -7838    -7838    -7836    -7835    -7836    -7838    -7831    -7827 
   -7831    -7834    -7835    -7839    -7836    -7834    -7836    -7839 
   -7836    -7834    -7832    -7834    -7834    -7832    -7834    -7836 
   -7835    -7836    -7838    -7836    -7834    -7834    -7835    -7836 
   -7838    -7834    -7832    -7835    -7836    -7836    -7839    -7838 
   -7834    -7832    -7835    -7834    -7835    -7838    -7835    -7830 
   -7830    -7834    -7840    -7840    -7834    -7834    -7836    -7832 
   -7832    -7838    -7839    -7835    -7831    -7832    -7835    -7835 
   -7834    -7835    -7835    -7835    -7835    -7838    -7840    -7838 
   -7832    -7831    -7831    -7834    -7836    -7836    -7834    -7835 
   -7834    -7835    -7838    -7839    -7838    -7832    -7828    -7831 
   -7834    -7835    -7834    -7831    -7828    -7832    -7836    -7839 
   -7838    -7834    -7834    -7835    -7834    -7834    -7832    -7830 
   -7831    -7836    -7836    -7836    -7839    -7838    -7835    -7834 
   -7832    -7834    -7834    -7832    -7832    -7835    -7838    -7838 
   -7838    -7838    -7836    -7834    -7834    -7834    -7832    -7831 
   -7831    -7834    -7832    -7831    -7832    -7838    -7839    -7838 
   -7836    -7835    -7835    -7836    -7835    -7834    -7836    -7836 
   -7835    -7834    -7834    -7834    -7834    -7835    -7838    -7834 
   -7831    -7834    -7836    -7832    -7831    -7835    -7836    -7835 
   -7834    -7832    -7832    -7834    -7835    -7834    -7836    -7836 
   -7832    -7832    -7834    -7835    -7836    -7834    -7832    -7835 
   -7835    -7835    -7838    -7836    -7834    -7834    -7835    -7835 
   -7836    -7836    -7835    -7834    -7832    -7831    -7834    -7836 
   -7835    -7835    -7835    -7834    -7834    -7834    -7834    -7835 
   -7834    -7836    -7842    -7843    -7844    -7846    -7842    -7819 
   -7784    -7762    -7784    -7850    -7920    -7947    -7916    -7873 
   -7858    -7820    -7716    -7624    -7639    -7782    -8001    -8133 
   -8051    -7816    -7676    -7744    -7784    -7689    -7715    -7877 
   -7978    -8010    -7936    -7770    -7734    -7863    -7946    -7789 
   -7561    -7630    -7905    -8040    -7947    -7751    -7753    -8012 
   -8135    -7955    -7688    -7530    -7584    -7774    -7889    -7878 
   -7875    -7974    -8035    -7958    -7844    -7726    -7639    -7627 
   -7645    -7770    -8016    -8178    -8110    -7871    -7678    -7649 
   -7738    -7824    -7820    -7790    -7812    -7857    -7882    -7902 
   -7947    -7981    -7931    -7785    -7576    -7481    -7668    -7978 
   -8160    -8156    -7970    -7693    -7510    -7541    -7749    -7974 
   -8110    -8125    -7955    -7669    -7499    -7560    -7789    -8033 
   -8149    -8077    -7827    -7561    -7520    -7712    -7924    -8043 
   -8064    -7973    -7815    -7688    -7624    -7654    -7786    -7928 
   -7992    -7989    -7982    -7960    -7827    -7587    -7456    -7622 
   -7974    -8249    -8225    -7858    -7456    -7391    -7682    -8064 
   -8237    -8110    -7870    -7663    -7533    -7564    -7740    -7912 
   -8012    -8044    -7996    -7873    -7735    -7650    -7638    -7720 
   -7885    -8046    -8093    -7947    -7732    -7632    -7649    -7790 
   -8005    -8048    -7874    -7681    -7650    -7811    -7974    -7962 
   -7840    -7759    -7769    -7861    -7951    -7913    -7755    -7670 
   -7749    -7848    -7866    -7862    -7904    -7925    -7866    -7817 
   -7794    -7739    -7755    -7863    -7931    -7952    -7931    -7820 
   -7688    -7657    -7781    -7960    -8014    -7919    -7743    -7618 
   -7708    -7908    -7952    -7890    -7882    -7866    -7789    -7746 
   -7767    -7790    -7813    -7862    -7929    -7962    -7916    -7831 
   -7736    -7678    -7763    -7933    -7966    -7798    -7680    -7815 
   -8001    -7992    -7832    -7720    -7771    -7857    -7832    -7711 
   -7627    -7777    -8029    -8033    -7830    -7742    -7890    -8048 
   -7942    -7688    -7608    -7717    -7851    -7925    -7906    -7862 
   -7904    -7954    -7877    -7705    -7585    -7663    -7870    -7959 
   -7901    -7869    -7901    -7921    -7877    -7801    -7781    -7750 
   -7701    -7800    -7921    -7869    -7811    -7886    -7951    -7884 
   -7749    -7673    -7701    -7821    -7985    -8046    -7901    -7716 
   -7705    -7784    -7819    -7852    -7888    -7881    -7840    -7816 
   -7873    -7913    -7823    -7712    -7711    -7816    -7936    -7960 
   -7898    -7784    -7663    -7693    -7878    -8010    -7977    -7836 
   -7734    -7778    -7878    -7874    -7805    -7796    -7820    -7838 
   -7850    -7828    -7809    -7843    -7905    -7940    -7913    -7847 
   -7761    -7663    -7634    -7713    -7846    -7960    -7994    -7933 
   -7828    -7758    -7781    -7861    -7908    -7878    -7805    -7727 
   -7690    -7773    -7956    -8070    -7992    -7788    -7618    -7620 
   -7786    -7940    -7982    -7942    -7874    -7813    -7761    -7732 
   -7763    -7857    -7948    -7909    -7805    -7811    -7851    -7823 
   -7817    -7847    -7823    -7781    -7815    -7892    -7898    -7843 
   -7832    -7855    -7838    -7816    -7816    -7805    -7819    -7869 
   -7878    -7830    -7731    -7684    -7835    -8027    -8000    -7796 
   -7616    -7641    -7879    -8085    -8041    -7794    -7580    -7628 
   -7852    -8008    -8025    -7890    -7693    -7643    -7743    -7873 
   -7966    -7990    -7965    -7869    -7717    -7646    -7722    -7886 
   -7990    -7913    -7755    -7712    -7805    -7904    -7898    -7831 
   -7811    -7859    -7896    -7815    -7647    -7603    -7770    -8008 
   -8136    -8068    -7882    -7765    -7728    -7688    -7678    -7757 
   -7896    -7997    -7971    -7875    -7804    -7798    -7848    -7831 
   -7731    -7704    -7770    -7855    -7915    -7911    -7866    -7817 
   -7804    -7840    -7859    -7816    -7773    -7809    -7904    -7912 
   -7807    -7736    -7774    -7863    -7932    -7932    -7854    -7757 
   -7762    -7865    -7890    -7801    -7743    -7801    -7892    -7877 
   -7794    -7786    -7850    -7898    -7894    -7830    -7770    -7819 
   -7933    -7936    -7792    -7696    -7788    -7923    -7904    -7792 
   -7761    -7836    -7906    -7871    -7767    -7717    -7766    -7867 
   -7917    -7854    -7770    -7817    -7929    -7928    -7855    -7824 
   -7816    -7815    -7831    -7862    -7879    -7835    -7757    -7700 
   -7719    -7851    -7983    -7963    -7832    -7757    -7777    -7792 
   -7790    -7827    -7873    -7897    -7881    -7838    -7815    -7809 
   -7824    -7870    -7874    -7839    -7847    -7857    -7804    -7758 
   -7769    -7786    -7793    -7844    -7917    -7893    -7801    -7798 
   -7879    -7935    -7919    -7825    -7734    -7757    -7819    -7816 
   -7839    -7920    -7982    -7958    -7813    -7665    -7651    -7755 
   -7906    -7959    -7831    -7705    -7734    -7862    -7963    -7928 
   -7843    -7848    -7875    -7851    -7800    -7738    -7731    -7809 
   -7878    -7852    -7816    -7865    -7917    -7879    -7798    -7778 
   -7834    -7838    -7777    -7776    -7817    -7854    -7867    -7809 
   -7790    -7889    -7974    -7956    -7834    -7658    -7597    -7763 
   -8024    -8094    -7929    -7811    -7816    -7790    -7744    -7770 
   -7886    -7998    -7924    -7703    -7542    -7581    -7798    -8036 
   -8110    -7973    -7801    -7786    -7848    -7809    -7700    -7713 
   -7894    -8048    -8023    -7859    -7686    -7645    -7765    -7897 
   -7884    -7784    -7804    -7947    -7979    -7842    -7699    -7666 
   -7735    -7800    -7804    -7796    -7803    -7888    -8037    -8085 
   -7969    -7821    -7761    -7743    -7657    -7585    -7700    -7936 
   -8093    -8074    -7936    -7805    -7755    -7755    -7770    -7770 
   -7739    -7754    -7816    -7827    -7823    -7873    -7938    -7948 
   -7890    -7835    -7803    -7770    -7805    -7924    -7982    -7892 
   -7762    -7695    -7713    -7873    -8066    -8046    -7803    -7574 
   -7546    -7684    -7842    -7951    -8002    -7966    -7866    -7761 
   -7696    -7736    -7855    -7912    -7882    -7843    -7827    -7834 
   -7862    -7878    -7858    -7835    -7869    -7927    -7905    -7821 
   -7753    -7681    -7599    -7615    -7824    -8140    -8309    -8140 
   -7746    -7454    -7473    -7712    -7896    -7890    -7820    -7821 
   -7927    -8043    -8020    -7884    -7800    -7805    -7790    -7708 
   -7636    -7653    -7765    -7915    -7971    -7909    -7897    -7992 
   -8001    -7816    -7603    -7562    -7695    -7894    -8051    -8048 
   -7919    -7817    -7794    -7805    -7815    -7800    -7788    -7821 
   -7879    -7881    -7786    -7653    -7601    -7715    -7948    -8158 
   -8131    -7808    -7441    -7292    -7411    -7720    -8028    -8135 
   -8020    -7819    -7744    -7897    -8118    -8222    -8151    -7955 
   -7790    -7716    -7626    -7534    -7619    -7969    -8476    -8830 
   -8730    -8185    -7461    -6831    -6471    -6535    -7074    -7873 
   -8503    -8673    -8480    -8194    -8035    -8102    -8268    -8310 
   -8086    -7549    -6839    -6362    -6575    -7569    -8905    -9795 
   -9513    -8109    -6521    -5699    -5940    -7009    -8378    -9378 
   -9568    -8995    -7919    -6764    -6228    -6752    -8067    -9435 
  -10014    -9324    -7686    -6093    -5559    -6381    -7940    -9177 
   -9305    -8378    -7092    -6226    -6365    -7528    -9003    -9981 
   -9956    -8834    -7215    -6021    -5833    -6596    -7692    -8488 
   -8734    -8529    -8256    -8245    -8449    -8577    -8317    -7516 
   -6489    -5925    -6199    -7048    -8014    -8857    -9440    -9535 
   -8982    -8043    -7240    -6862    -6859    -7125    -7574    -8101 
   -8514    -8598    -8351    -7970    -7651    -7458    -7281    -7110 
   -7123    -7354    -7666    -8010    -8359    -8581    -8540    -8247 
   -7893    -7666    -7570    -7603    -7819    -8105    -8267    -8206 
   -7888    -7415    -7048    -7040    -7470    -8063    -8432    -8473 
   -8225    -7743    -7285    -7190    -7568    -8149    -8475    -8349 
   -7969    -7634    -7510    -7587    -7762    -7919    -7978    -7975 
   -7960    -7859    -7630    -7438    -7460    -7587    -7582    -7488 
   -7562    -7898    -8307    -8533    -8472    -8189    -7851    -7641 
   -7592    -7607    -7688    -7939    -8297    -8449    -8166    -7645 
   -7344    -7480    -7900    -8259    -8220    -7769    -7280    -7092 
   -7260    -7618    -7927    -8054    -8043    -8040    -8114    -8148 
   -7982    -7558    -7082    -6998    -7510    -8266    -8689    -8510 
   -8023    -7707    -7738    -7940    -7978    -7738    -7503    -7538 
   -7784    -8060    -8187    -8091    -7911    -7773    -7749    -7874 
   -7969    -7847    -7614    -7461    -7474    -7611    -7769    -7915 
   -8033    -8105    -8147    -8129    -7982    -7742    -7542    -7485 
   -7576    -7747    -7952    -8143    -8170    -7985    -7767    -7668 
   -7684    -7711    -7634    -7523    -7531    -7703    -8008    -8322 
   -8419    -8197    -7792    -7453    -7364    -7543    -7812    -7966 
   -7970    -7923    -7905    -7898    -7867    -7855    -7906    -7948 
   -7886    -7762    -7724    -7817    -7933    -7998    -8013    -8016 
   -8002    -7911    -7769    -7674    -7678    -7750    -7789    -7715 
   -7562    -7453    -7522    -7774    -8067    -8233    -8175    -7940 
   -7693    -7543    -7479    -7457    -7519    -7719    -8002    -8267 
   -8452    -8459    -8203    -7785    -7402    -7240    -7371    -7684 
   -8014    -8232    -8232    -8067    -7908    -7808    -7773    -7839 
   -7919    -7861    -7661    -7446    -7380    -7524    -7793    -8036 
   -8121    -8039    -7915    -7882    -7927    -7904    -7773    -7662 
   -7684    -7821    -7958    -8012    -8010    -8004    -7978    -7885 
   -7739    -7620    -7560    -7533    -7562    -7727    -8019    -8282 
   -8314    -8048    -7650    -7387    -7412    -7658    -7892    -7971 
   -7947    -7917    -7965    -8059    -8059    -7935    -7780    -7666 
   -7626    -7661    -7761    -7894    -8001    -8040    -7974    -7821 
   -7747    -7836    -7936    -7889    -7722    -7550    -7495    -7601 
   -7784    -7920    -8010    -8067    -8024    -7875    -7708    -7597 
   -7612    -7749    -7894    -7977    -7993    -7967    -7960    -7956 
   -7852    -7685    -7603    -7670    -7801    -7875    -7886    -7929 
   -8014    -8052    -7983    -7834    -7689    -7635    -7690    -7794 
   -7851    -7809    -7759    -7812    -7920    -7958    -7909    -7827 
   -7766    -7763    -7789    -7816    -7871    -7950    -8023    -8071 
   -8047    -7929    -7789    -7711    -7709    -7742    -7749    -7715 
   -7678    -7661    -7688    -7776    -7865    -7904    -7889    -7815 
   -7709    -7669    -7732    -7835    -7924    -7981    -7960    -7897 
   -7892    -7959    -8012    -7967    -7851    -7778    -7794    -7862 
   -7908    -7874    -7770    -7669    -7654    -7767    -7950    -8070 
   -8036    -7867    -7677    -7599    -7658    -7757    -7803    -7828 
   -7916    -8029    -8064    -7989    -7828    -7643    -7533    -7564 
   -7695    -7840    -7979    -8067    -8019    -7898    -7848    -7870 
   -7884    -7808    -7673    -7628    -7747    -7923    -7990    -7904 
   -7801    -7808    -7888    -7969    -7970    -7815    -7576    -7442 
   -7514    -7753    -7985    -8075    -8054    -7987    -7919    -7861 
   -7776    -7686    -7673    -7753    -7889    -8027    -8078    -7986 
   -7798    -7638    -7623    -7792    -8001    -8064    -7958    -7763 
   -7589    -7577    -7744    -7938    -8027    -7997    -7890    -7778 
   -7746    -7786    -7823    -7843    -7840    -7790    -7757    -7811 
   -7915    -7955    -7889    -7807    -7792    -7870    -7996    -8002 
   -7825    -7646    -7607    -7680    -7821    -7983    -8083    -8056 
   -7901    -7684    -7508    -7457    -7539    -7686    -7834    -7983 
   -8141    -8226    -8141    -7886    -7600    -7465    -7519    -7666 
   -7850    -8032    -8129    -8095    -7948    -7754    -7646    -7693 
   -7825    -7950    -7994    -7928    -7816    -7746    -7728    -7744 
   -7777    -7823    -7906    -8000    -8016    -7917    -7749    -7632 
   -7717    -7947    -8068    -7951    -7701    -7557    -7673    -7925 
   -8073    -8019    -7838    -7655    -7568    -7622    -7790    -7979 
   -8095    -8081    -7942    -7757    -7612    -7573    -7638    -7740 
   -7844    -7959    -8074    -8112    -7997    -7788    -7627    -7603 
   -7716    -7836    -7835    -7773    -7749    -7792    -7897    -7996 
   -8008    -7927    -7824    -7778    -7805    -7867    -7893    -7831 
   -7749    -7713    -7728    -7803    -7940    -8089    -8147    -8050 
   -7881    -7759    -7688    -7653    -7678    -7751    -7847    -7947 
   -7967    -7890    -7815    -7789    -7782    -7767    -7736    -7715 
   -7731    -7774    -7850    -7946    -7954    -7852    -7761    -7734 
   -7781    -7886    -7935    -7889    -7804    -7728    -7736    -7821 
   -7873    -7889    -7909    -7886    -7847    -7836    -7820    -7798 
   -7819    -7904    -7997    -7978    -7809    -7620    -7570    -7701 
