Origin Time       2025/01/26 08:11:00
Lat.              34.975
Long.             138.213
Depth. (km)       21
Mag.              3.4
Station Code      AIC008
Station Lat.      35.1006
Station Long.     137.5757
Station Height(m) 479
Record Time       2025/01/26 08:11:47
Sampling Freq(Hz) 100Hz
Duration Time(s)  60
Dir.              U-D
Scale Factor      7845(gal)/8223790
Max. Acc. (gal)   1.022
Last Correction   2025/01/26 08:11:46
Memo.             
[...]
   19484    19484    19485    19485    19487    19488    19485    19483 
   19485    19485    19483    19484    19487    19487    19485    19485 
   19485    19484    19485    19485    19484    19488    19488    19484 
   19483    19485    19484    19483    19484    19487    19488    19485 
   19483    19484    19487    19487    19484    19483    19485    19488 
   19485    19484    19484    19484    19485    19487    19485    19483 
   19484    19487    19484    19481    19484    19485    19485    19485 
   19483    19485    19488    19487    19483    19483    19483    19487 
   19487    19484    19484    19484    19484    19487    19487    19485 
   19484    19487    19489    19485    19484    19485    19484    19484 
   19485    19484    19483    19480    19481    19488    19491    19487 
   19484    19485    19485    19485    19487    19487    19485    19483 
   19481    19483    19487    19488    19487    19487    19485    19484 
   19485    19485    19485    19485    19485    19488    19487    19484 
   19485    19485    19485    19487    19483    19481    19484    19485 
   19485    19487    19485    19485    19484    19485    19487    19488 
   19487    19484    19481    19484    19489    19489    19485    19483 
   19483    19487    19488    19484    19483    19484    19487    19487 
   19484    19484    19487    19487    19487    19487    19483    19480 
   19481    19485    19487    19487    19483    19485    19488    19484 
   19483    19485    19485    19483    19484    19487    19484    19483 
   19484    19484    19485    19485    19483    19484    19484    19483 
   19484    19485    19487    19484    19483    19485    19487    19484 
   19484    19485    19483    19483    19485    19485    19481    19483 
   19487    19485    19484    19485    19485    19484    19487    19487 
   19484    19483    19483    19483    19485    19487    19485    19483 
   19484    19485    19487    19487    19487    19487    19484    19485 
   19488    19485    19484    19487    19487    19485    19488    19487 
   19483    19483    19484    19484    19487    19487    19485    19484 
   19484    19484    19483    19483    19484    19484    19484    19487 
   19485    19483    19483    19484    19485    19487    19487    19483 
   19484    19485    19484    19485    19487    19485    19485    19484 
   19483    19484    19487    19485    19484    19484    19484    19485 
   19487    19488    19485    19480    19484    19487    19484    19485 
   19488    19485    19484    19485    19485    19484    19483    19481 
   19483    19485    19485    19483    19481    19484    19488    19485 
   19483    19483    19484    19485    19483    19483    19484    19484 
   19485    19488    19488    19483    19481    19485    19485    19484 
   19485    19487    19485    19484    19484    19484    19485    19487 
   19484    19485    19488    19489    19487    19483    19483    19484 
   19487    19488    19485    19483    19483    19485    19488    19488 
   19485    19483    19483    19484    19484    19484    19485    19485 
   19485    19487    19487    19483    19483    19488    19487    19481 
   19484    19487    19485    19485    19487    19488    19487    19484 
   19484    19488    19488    19485    19485    19485    19484    19485 
   19488    19485    19483    19483    19484    19485    19487    19487 
   19484    19487    19488    19484    19484    19488    19487    19483 
   19483    19483    19481    19484    19488    19487    19484    19483 
   19484    19485    19484    19483    19485    19485    19484    19485 
   19487    19484    19484    19485    19485    19488    19489    19485 
   19484    19487    19487    19484    19484    19487    19488    19488 
   19485    19484    19485    19487    19487    19485    19484    19484 
   19488    19487    19485    19487    19488    19485    19485    19484 
   19483    19485    19489    19488    19485    19484    19485    19487 
   19484    19483    19485    19485    19484    19483    19483    19485 
   19487    19484    19484    19484    19483    19484    19485    19484 
   19484    19484    19484    19485    19487    19485    19484    19483 
   19484    19487    19484    19483    19487    19488    19485    19485 
   19485    19485    19485    19481    19480    19481    19484    19484 
   19485    19487    19487    19485    19484    19483    19481    19484 
   19488    19483    19481    19487    19487    19483    19481    19483 
   19487    19488    19487    19483    19481    19484    19488    19488 
   19483    19483    19484    19485    19488    19487    19481    19480 
   19484    19484    19483    19483    19484    19488    19488    19484 
   19484    19488    19487    19484    19484    19484    19485    19485 
   19487    19487    19487    19485    19485    19481    19480    19484 
   19489    19489    19484    19481    19487    19488    19485    19487 
   19488    19485    19484    19484    19485    19487    19485    19484 
   19484    19487    19485    19481    19483    19485    19483    19485 
   19489    19487    19483    19484    19488    19488    19485    19484 
   19485    19485    19484    19484    19485    19487    19485    19483 
   19484    19484    19484    19485    19487    19485    19487    19487 
   19485    19485    19487    19487    19485    19484    19483    19487 
   19488    19484    19483    19483    19484    19487    19487    19485 
   19487    19488    19487    19488    19485    19484    19485    19485 
   19487    19485    19484    19484    19487    19487    19487    19487 
   19485    19485    19484    19484    19485    19485    19485    19485 
   19485    19488    19488    19484    19481    19484    19487    19485 
   19484    19484    19485    19487    19487    19488    19487    19485 
   19487    19487    19485    19485    19484    19484    19484    19484 
   19485    19485    19484    19485    19487    19484    19484    19487 
   19485    19484    19485    19485    19483    19477    19473    19473 
   19469    19465    19475    19495    19525    19577    19619    19584 
   19464    19303    19198    19272    19475    19620    19657    19630 
   19580    19562    19562    19485    19322    19240    19392    19581 
   19558    19507    19588    19643    19600    19418    19134    19093 
   19454    19850    19885    19597    19322    19332    19562    19587 
   19238    19052    19411    19865    19903    19618    19307    19187 
   19318    19487    19484    19448    19612    19826    19751    19395 
   19076    19133    19518    19723    19566    19472    19565    19580 
   19496    19407    19384    19502    19568    19437    19337    19422 
   19538    19595    19611    19522    19413    19512    19658    19507 
   19232    19218    19442    19651    19678    19545    19454    19484 
   19480    19402    19322    19318    19500    19777    19839    19599 
   19276    19124    19268    19560    19696    19626    19491    19369 
   19363    19507    19620    19597    19553    19503    19381    19314 
   19391    19521    19623    19600    19452    19387    19479    19597 
   19592    19394    19194    19268    19561    19784    19755    19526 
   19323    19341    19502    19550    19404    19313    19456    19627 
   19599    19488    19489    19531    19504    19461    19395    19330 
   19422    19604    19697    19660    19461    19255    19307    19530 
   19638    19579    19464    19413    19448    19471    19464    19479 
   19485    19450    19434    19507    19618    19660    19618    19502 
   19313    19183    19298    19580    19751    19631    19348    19283 
   19526    19664    19538    19392    19317    19359    19550    19639 
   19548    19495    19485    19461    19484    19450    19363    19461 
   19660    19608    19395    19383    19522    19560    19526    19535 
   19507    19398    19349    19434    19552    19600    19548    19457 
   19431    19454    19461    19488    19535    19483    19407    19483 
   19554    19488    19487    19602    19599    19367    19149    19294 
   19691    19826    19542    19242    19291    19573    19711    19542 
   19300    19307    19569    19743    19577    19286    19238    19473 
   19727    19692    19403    19288    19492    19672    19552    19279 
   19257    19587    19786    19561    19322    19391    19541    19546 
   19461    19422    19435    19444    19525    19647    19558    19315 
   19300    19523    19639    19554    19411    19352    19449    19603 
   19633    19529    19417    19359    19379    19510    19614    19514 
   19413    19500    19521    19404    19438    19581    19572    19448 
   19404    19471    19549    19560    19481    19360    19342    19491 
   19639    19657    19549    19376    19327    19483    19573    19476 
   19419    19485    19537    19534    19494    19437    19453    19535 
   19527    19430    19381    19399    19498    19641    19631    19469 
   19373    19404    19502    19607    19591    19448    19369    19410 
   19472    19525    19554    19506    19429    19444    19515    19533 
   19492    19448    19457    19511    19494    19421    19438    19527 
   19570    19556    19488    19375    19359    19531    19657    19553 
   19425    19415    19427    19464    19485    19448    19531    19673 
   19583    19377    19300    19340    19484    19639    19607    19449 
   19359    19368    19471    19615    19637    19483    19332    19368 
   19573    19728    19615    19342    19273    19457    19606    19624 
   19550    19387    19345    19494    19537    19433    19414    19492 
   19580    19593    19450    19322    19419    19583    19570    19448 
   19388    19448    19569    19618    19508    19373    19379    19473 
   19564    19612    19560    19440    19403    19471    19496    19421 
   19390    19510    19651    19660    19511    19321    19292    19440 
   19557    19545    19469    19421    19481    19607    19595    19414 
   19334    19465    19568    19521    19468    19454    19467    19518 
   19498    19408    19431    19545    19595    19564    19458    19334 
   19375    19561    19620    19491    19384    19437    19570    19634 
   19558    19438    19377    19400    19503    19568    19479    19369 
   19422    19579    19657    19533    19332    19325    19492    19595 
   19556    19458    19421    19472    19548    19561    19454    19356 
   19426    19561    19560    19440    19395    19522    19657    19572 
   19361    19327    19491    19616    19577    19427    19371    19499 
   19606    19552    19452    19399    19398    19471    19562    19550 
   19460    19414    19426    19465    19521    19558    19572    19542 
   19461    19421    19468    19503    19464    19429    19475    19570 
   19600    19489    19354    19384    19543    19580    19452    19376 
   19435    19560    19651    19561    19357    19319    19458    19566 
   19581    19541    19481    19465    19494    19483    19390    19332 
   19464    19637    19619    19503    19435    19429    19491    19533 
   19453    19354    19379    19552    19701    19595    19383    19392 
   19552    19610    19503    19332    19321    19527    19639    19516 
   19406    19394    19413    19539    19666    19564    19381    19350 
   19437    19537    19566    19511    19475    19465    19402    19365 
   19508    19677    19603    19404    19365    19483    19597    19616 
   19492    19315    19278    19429    19584    19581    19510    19494 
   19512    19506    19437    19379    19464    19619    19620    19487 
   19410    19407    19454    19546    19537    19390    19368    19565 
   19684    19558    19363    19322    19508    19674    19548    19345 
   19350    19433    19461    19487    19495    19530    19661    19683 
   19484    19259    19206    19429    19739    19723    19413    19271 
   19453    19696    19704    19449    19207    19253    19498    19620 
   19523    19434    19511    19631    19631    19452    19278    19376 
   19595    19630    19516    19380    19305    19400    19588    19651 
   19549    19437    19445    19512    19489    19379    19350    19446 
   19549    19576    19541    19514    19495    19461    19496    19588 
   19538    19373    19340    19429    19494    19546    19587    19577 
   19538    19473    19410    19402    19423    19435    19476    19543 
   19565    19515    19460    19452    19484    19503    19464    19444 
   19472    19477    19495    19542    19502    19404    19380    19450 
   19615    19723    19583    19361    19315    19441    19587    19561 
   19348    19236    19381    19639    19819    19737    19419    19259 
   19446    19611    19494    19332    19305    19418    19646    19732 
   19511    19318    19396    19565    19646    19550    19307    19217 
   19427    19674    19719    19581    19427    19403    19468    19492 
   19449    19396    19388    19437    19529    19587    19537    19456 
   19444    19461    19476    19471    19441    19485    19550    19450 
   19350    19465    19596    19580    19488    19373    19326    19423 
   19554    19585    19508    19411    19429    19545    19562    19433 
   19342    19433    19591    19618    19504    19399    19325    19233 
   19232    19475    19904    20231    20210    19878    19445    19137 
   19138    19414    19684    19750    19661    19515    19410    19421 
   19425    19350    19325    19271    18993    18673    18731    19305 
   20078    20479    20119    19278    18789    19090    19703    20015 
   19921    19697    19650    19597    19067    18454    18735    19811 
   20557    20359    19592    18993    18981    19278    19268    19006 
   19175    19884    20499    20471    19812    19107    18871    18933 
   18978    19124    19471    19818    20008    20017    19870    19597 
   19222    18843    18666    18910    19522    19985    19908    19597 
   19529    19692    19791    19641    19360    19273    19387    19359 
   19234    19350    19649    19804    19734    19576    19472    19467 
   19426    19246    19102    19191    19500    19876    20106    20040 
   19761    19488    19326    19230    19148    19070    19095    19383 
   19811    20007    19870    19607    19353    19126    18983    19024 
   19290    19657    19842    19657    19299    19161    19367    19701 
   19892    19800    19565    19452    19461    19396    19260    19191 
   19288    19539    19724    19692    19570    19435    19264    19222 
   19363    19460    19487    19556    19603    19633    19692    19662 
   19583    19653    19764    19674    19387    19075    19008    19334 
   19750    19791    19487    19299    19440    19642    19604    19356 
   19167    19219    19419    19560    19579    19538    19530    19623 
   19758    19738    19535    19391    19418    19460    19433    19413 
   19475    19610    19662    19519    19341    19298    19345    19427 
   19475    19414    19330    19333    19437    19588    19666    19624 
   19523    19386    19288    19342    19489    19626    19677    19579 
   19430    19435    19615    19778    19704    19395    19141    19161 
   19364    19561    19651    19662    19650    19587    19467    19398 
   19426    19437    19359    19292    19323    19467    19661    19715 
   19561    19426    19480    19615    19666    19565    19383    19300 
   19367    19434    19426    19425    19495    19575    19557    19473 
   19473    19579    19627    19498    19283    19210    19354    19554 
   19647    19638    19614    19593    19539    19444    19350    19299 
   19294    19334    19415    19473    19496    19591    19728    19718 
   19550    19425    19440    19498    19438    19260    19201    19367 
   19618    19816    19880    19797    19642    19408    19137    19012 
   19116    19348    19557    19650    19669    19714    19757    19673 
   19458    19291    19314    19458    19565    19562    19444    19307 
   19325    19535    19761    19793    19606    19373    19284    19373 
   19491    19460    19327    19315    19435    19516    19556    19600 
   19597    19554    19476    19357    19306    19394    19542    19665 
   19687    19558    19425    19481    19614    19560    19325    19167 
   19255    19484    19672    19750    19692    19523    19367    19319 
   19373    19442    19441    19395    19396    19450    19522    19614 
   19662    19592    19484    19457    19491    19498    19448    19384 
   19395    19507    19623    19678    19669    19561    19417    19384 
   19440    19431    19326    19268    19391    19608    19718    19637 
   19469    19396    19444    19471    19427    19404    19476    19580 
   19569    19419    19294    19348    19526    19653    19647    19562 
   19453    19373    19406    19508    19537    19476    19457    19537 
   19603    19553    19456    19400    19407    19491    19595    19612 
   19515    19367    19314    19430    19534    19480    19414    19476 
   19585    19581    19453    19361    19418    19515    19529    19535 
   19596    19602    19515    19427    19386    19399    19460    19526 
   19597    19626    19541    19431    19417    19461    19529    19568 
   19438    19190    19111    19322    19658    19826    19662    19375 
   19317    19492    19623    19599    19506    19444    19462    19477 
   19410    19400    19548    19710    19726    19562    19321    19206 
   19305    19469    19541    19522    19503    19549    19623    19616 
   19488    19321    19276    19454    19669    19658    19494    19387 
   19369    19427    19512    19519    19506    19560    19593    19545 
   19433    19273    19183    19299    19534    19693    19711    19638 
   19554    19498    19413    19311    19346    19515    19597    19533 
   19456    19457    19541    19641    19627    19473    19344    19357 
   19454    19516    19485    19410    19408    19510    19612    19646 
   19623    19527    19359    19246    19294    19426    19554    19643 
   19653    19565    19425    19354    19437    19556    19560    19484 
   19442    19483    19539    19485    19354    19306    19377    19510 
   19618    19623    19568    19541    19510    19415    19321    19346 
   19495    19623    19614    19554    19585    19673    19631    19419 
   19253    19298    19417    19449    19446    19487    19564    19630 
   19612    19516    19440    19427    19431    19386    19292    19288 
   19453    19633    19661    19566    19462    19433    19476    19522 
   19521    19460    19354    19332    19496    19710    19754    19583 
   19359    19298    19445    19623    19619    19440    19291    19334 
   19510    19626    19596    19521    19498    19499    19462    19387 
   19323    19361    19510    19629    19610    19527    19484    19495 
   19530    19503    19392    19350    19458    19587    19602    19508 
   19442    19462    19498    19506    19503    19503    19502    19477 
   19426    19394    19413    19489    19587    19591    19483    19404 
   19434    19503    19523    19458    19383    19411    19518    19585 
   19556    19476    19467    19550    19580    19483    19407    19444 
   19515    19554    19510    19406    19373    19446    19570    19643 
   19548    19372    19323    19410    19511    19538    19492    19469 
   19484    19473    19476    19511    19491    19441    19462    19538 
   19565    19498    19406    19402    19481    19552    19569    19533 
   19457    19413    19461    19546    19592    19573    19476    19363 
