Origin Time       2025/01/26 08:11:00
Lat.              34.975
Long.             138.213
Depth. (km)       21
Mag.              3.4
Station Code      SZO011
Station Lat.      35.2129
Station Long.     138.6015
Station Height(m) 195
Record Time       2025/01/26 08:11:38
Sampling Freq(Hz) 100Hz
Duration Time(s)  60
Dir.              N-S
Scale Factor      7845(gal)/8223790
Max. Acc. (gal)   2.264
Last Correction   2025/01/26 08:11:38
Memo.             
[...]
   -4459    -4479    -4504    -4534    -4550    -4534    -4498    -4468 
   -4459    -4469    -4492    -4513    -4525    -4529    -4519    -4502 
   -4500    -4500    -4484    -4482    -4488    -4491    -4504    -4522 
   -4530    -4531    -4517    -4494    -4480    -4480    -4486    -4492 
   -4503    -4514    -4515    -4511    -4504    -4499    -4495    -4494 
   -4496    -4496    -4492    -4495    -4510    -4514    -4503    -4496 
   -4491    -4494    -4503    -4506    -4503    -4499    -4496    -4502 
   -4507    -4509    -4509    -4503    -4500    -4500    -4495    -4492 
   -4500    -4507    -4509    -4507    -4500    -4488    -4486    -4495 
   -4506    -4511    -4515    -4517    -4509    -4496    -4491    -4488 
   -4491    -4499    -4503    -4498    -4502    -4519    -4526    -4511 
   -4490    -4477    -4479    -4492    -4515    -4529    -4527    -4518 
   -4499    -4483    -4479    -4477    -4483    -4494    -4503    -4510 
   -4518    -4515    -4502    -4495    -4495    -4496    -4502    -4509 
   -4511    -4514    -4511    -4513    -4514    -4503    -4487    -4486 
   -4498    -4517    -4522    -4503    -4480    -4477    -4491    -4500 
   -4506    -4517    -4521    -4510    -4494    -4484    -4487    -4494 
   -4494    -4494    -4504    -4515    -4517    -4519    -4523    -4513 
   -4488    -4468    -4464    -4482    -4514    -4538    -4540    -4518 
   -4491    -4476    -4483    -4499    -4510    -4509    -4495    -4491 
   -4503    -4511    -4514    -4519    -4515    -4503    -4490    -4479 
   -4479    -4486    -4499    -4513    -4518    -4513    -4509    -4509 
   -4502    -4494    -4490    -4495    -4509    -4515    -4515    -4513 
   -4504    -4495    -4487    -4487    -4495    -4509    -4517    -4511 
   -4495    -4491    -4503    -4507    -4509    -4511    -4503    -4496 
   -4498    -4492    -4486    -4492    -4506    -4513    -4511    -4504 
   -4500    -4499    -4499    -4503    -4510    -4514    -4517    -4510 
   -4492    -4488    -4498    -4507    -4513    -4502    -4484    -4482 
   -4488    -4500    -4514    -4513    -4509    -4506    -4506    -4506 
   -4503    -4502    -4503    -4499    -4498    -4502    -4500    -4492 
   -4491    -4499    -4507    -4513    -4509    -4502    -4502    -4504 
   -4502    -4496    -4495    -4499    -4504    -4500    -4494    -4500 
   -4514    -4511    -4500    -4492    -4496    -4510    -4511    -4498 
   -4491    -4491    -4494    -4500    -4503    -4498    -4504    -4521 
   -4531    -4527    -4503    -4473    -4467    -4483    -4502    -4514 
   -4514    -4507    -4509    -4503    -4494    -4495    -4499    -4499 
   -4495    -4498    -4506    -4511    -4506    -4506    -4513    -4517 
   -4517    -4500    -4476    -4472    -4487    -4494    -4495    -4503 
   -4513    -4518    -4519    -4514    -4503    -4494    -4488    -4494 
   -4504    -4504    -4498    -4495    -4498    -4503    -4503    -4502 
   -4500    -4492    -4491    -4506    -4514    -4511    -4504    -4495 
   -4488    -4495    -4504    -4504    -4506    -4509    -4514    -4515 
   -4499    -4471    -4461    -4482    -4514    -4536    -4531    -4514 
   -4499    -4490    -4480    -4479    -4483    -4492    -4515    -4536 
   -4530    -4510    -4486    -4464    -4469    -4502    -4523    -4527 
   -4515    -4490    -4484    -4503    -4510    -4507    -4510    -4500 
   -4492    -4499    -4503    -4504    -4515    -4517    -4507    -4492 
   -4472    -4467    -4483    -4503    -4530    -4545    -4529    -4507 
   -4486    -4465    -4469    -4495    -4514    -4523    -4513    -4484 
   -4475    -4487    -4506    -4529    -4538    -4518    -4496    -4487 
   -4483    -4487    -4509    -4529    -4536    -4517    -4475    -4446 
   -4452    -4484    -4533    -4558    -4541    -4504    -4467    -4453 
   -4475    -4511    -4537    -4537    -4515    -4492    -4480    -4480 
   -4492    -4509    -4518    -4515    -4504    -4495    -4487    -4491 
   -4510    -4518    -4509    -4490    -4479    -4486    -4506    -4522 
   -4531    -4526    -4495    -4455    -4440    -4464    -4509    -4550 
   -4569    -4556    -4523    -4483    -4455    -4464    -4494    -4519 
   -4531    -4519    -4490    -4471    -4475    -4494    -4515    -4523 
   -4518    -4507    -4490    -4476    -4482    -4500    -4521    -4521 
   -4502    -4484    -4483    -4495    -4515    -4526    -4518    -4499 
   -4479    -4480    -4492    -4496    -4502    -4509    -4515    -4519 
   -4510    -4499    -4499    -4503    -4502    -4496    -4491    -4495 
   -4514    -4534    -4537    -4517    -4480    -4453    -4453    -4477 
   -4507    -4525    -4517    -4480    -4448    -4446    -4472    -4518 
   -4568    -4590    -4558    -4500    -4452    -4433    -4457    -4518 
   -4556    -4544    -4513    -4498    -4521    -4581    -4615    -4567 
   -4452    -4337    -4298    -4375    -4518    -4622    -4629    -4572 
   -4517    -4495    -4473    -4419    -4369    -4379    -4425    -4468 
   -4510    -4571    -4653    -4702    -4671    -4596    -4519    -4444 
   -4395    -4388    -4378    -4324    -4295    -4371    -4546    -4762 
   -4914    -4892    -4675    -4313    -3969    -3925    -4283    -4795 
   -5123    -5108    -4818    -4398    -4041    -3932    -4016    -4167 
   -4477    -4896    -5080    -4934    -4668    -4391    -4167    -4149 
   -4336    -4515    -4545    -4487    -4453    -4480    -4546    -4608 
   -4592    -4537    -4607    -4764    -4799    -4676    -4429    -4098 
   -3955    -4178    -4509    -4746    -4953    -5009    -4735    -4299 
   -3963    -3842    -4006    -4342    -4612    -4838    -5116    -5255 
   -5090    -4700    -4217    -3847    -3785    -3952    -4221    -4577 
   -4855    -4882    -4762    -4645    -4525    -4415    -4402    -4484 
   -4596    -4654    -4564    -4317    -4008    -3840    -4077    -4761 
   -5544    -5861    -5456    -4642    -3886    -3460    -3433    -3661 
   -3981    -4394    -4851    -5212    -5374    -5254    -4899    -4558 
   -4336    -4132    -3947    -3867    -3966    -4293    -4741    -5093 
   -5193    -4961    -4522    -4209    -4201    -4378    -4569    -4634 
   -4500    -4280    -4145    -4148    -4282    -4509    -4725    -4855 
   -4905    -4893    -4791    -4583    -4356    -4216    -4148    -4124 
   -4186    -4340    -4514    -4693    -4895    -5040    -5009    -4764 
   -4411    -4105    -3969    -4056    -4282    -4477    -4572    -4577 
   -4552    -4581    -4657    -4653    -4499    -4270    -4118    -4168 
   -4430    -4770    -5017    -5088    -4992    -4789    -4545    -4298 
   -4101    -4031    -4083    -4220    -4432    -4668    -4820    -4819 
   -4698    -4534    -4422    -4433    -4530    -4607    -4579    -4401 
   -4158    -4024    -4055    -4195    -4409    -4654    -4897    -5090 
   -5151    -5031    -4777    -4476    -4155    -3842    -3649    -3713 
   -4094    -4695    -5243    -5514    -5474    -5154    -4635    -4113 
   -3789    -3751    -3929    -4153    -4361    -4581    -4754    -4827 
   -4820    -4731    -4575    -4426    -4352    -4356    -4376    -4392 
   -4457    -4569    -4654    -4684    -4644    -4530    -4430    -4426 
   -4504    -4598    -4623    -4552    -4430    -4338    -4326    -4386 
   -4460    -4522    -4581    -4614    -4579    -4473    -4372    -4379 
   -4471    -4548    -4592    -4598    -4519    -4434    -4471    -4610 
   -4730    -4715    -4546    -4309    -4144    -4155    -4329    -4546 
   -4700    -4734    -4664    -4573    -4518    -4453    -4321    -4189 
   -4217    -4457    -4752    -4903    -4891    -4796    -4639    -4436 
   -4307    -4336    -4414    -4418    -4345    -4244    -4180    -4228 
   -4388    -4641    -4938    -5128    -5080    -4811    -4418    -4006 
   -3740    -3742    -3969    -4334    -4762    -5134    -5360    -5368 
   -5105    -4661    -4198    -3850    -3750    -3925    -4229    -4515 
   -4693    -4708    -4600    -4480    -4401    -4363    -4409    -4554 
   -4700    -4796    -4891    -4934    -4814    -4575    -4357    -4207 
   -4125    -4131    -4218    -4357    -4507    -4603    -4635    -4648 
   -4630    -4584    -4565    -4567    -4494    -4317    -4145    -4133 
   -4344    -4671    -4891    -4861    -4656    -4455    -4395    -4496 
   -4629    -4650    -4554    -4421    -4329    -4326    -4415    -4541 
   -4595    -4541    -4449    -4387    -4405    -4495    -4553    -4527 
   -4484    -4467    -4477    -4526    -4592    -4638    -4654    -4639 
   -4595    -4514    -4403    -4321    -4321    -4378    -4480    -4619 
   -4719    -4715    -4614    -4436    -4247    -4136    -4120    -4198 
   -4391    -4656    -4903    -5070    -5112    -4969    -4661    -4286 
   -3931    -3696    -3700    -4000    -4509    -5000    -5247    -5192 
   -4920    -4564    -4255    -4099    -4135    -4288    -4457    -4579 
   -4627    -4617    -4576    -4519    -4452    -4411    -4448    -4537 
   -4607    -4638    -4638    -4612    -4583    -4521    -4394    -4272 
   -4222    -4221    -4291    -4475    -4699    -4861    -4911    -4819 
   -4598    -4357    -4206    -4175    -4243    -4340    -4411    -4468 
   -4522    -4587    -4698    -4810    -4793    -4622    -4391    -4210 
   -4201    -4417    -4723    -4918    -4895    -4671    -4349    -4067 
   -3935    -3985    -4190    -4492    -4792    -4985    -5036    -4973 
   -4843    -4680    -4475    -4249    -4099    -4090    -4156    -4178 
   -4155    -4213    -4426    -4739    -5038    -5194    -5136    -4901 
   -4585    -4263    -4025    -3954    -4044    -4255    -4549    -4796 
   -4873    -4791    -4615    -4446    -4374    -4357    -4318    -4286 
   -4320    -4403    -4506    -4625    -4702    -4669    -4584    -4556 
   -4576    -4577    -4530    -4442    -4364    -4364    -4452    -4538 
   -4542    -4487    -4455    -4513    -4630    -4711    -4696    -4580 
   -4403    -4278    -4276    -4355    -4418    -4436    -4459    -4521 
   -4608    -4695    -4729    -4702    -4675    -4644    -4537    -4360 
   -4178    -4067    -4114    -4336    -4629    -4822    -4801    -4614 
   -4395    -4284    -4355    -4525    -4656    -4707    -4657    -4499 
   -4337    -4301    -4403    -4560    -4677    -4714    -4677    -4580 
   -4433    -4287    -4209    -4234    -4372    -4557    -4676    -4683 
   -4608    -4533    -4531    -4542    -4465    -4357    -4363    -4507 
   -4693    -4811    -4792    -4638    -4432    -4255    -4151    -4125 
   -4175    -4315    -4514    -4688    -4822    -4905    -4858    -4680 
   -4464    -4252    -4090    -4056    -4178    -4418    -4672    -4838 
   -4938    -5003    -4943    -4699    -4375    -4141    -4087    -4190 
   -4360    -4503    -4557    -4526    -4469    -4460    -4510    -4546 
   -4537    -4533    -4560    -4603    -4644    -4638    -4581    -4483 
   -4363    -4307    -4376    -4471    -4468    -4401    -4386    -4436 
   -4506    -4556    -4522    -4418    -4352    -4359    -4440    -4627 
   -4855    -4943    -4823    -4584    -4349    -4170    -4056    -4067 
   -4263    -4599    -4943    -5158    -5154    -4961    -4695    -4448 
   -4243    -4068    -3963    -4008    -4224    -4526    -4788    -4922 
   -4895    -4725    -4446    -4116    -3856    -3800    -3974    -4345 
   -4839    -5274    -5440    -5282    -4878    -4375    -4023    -3986 
   -4145    -4295    -4387    -4453    -4525    -4607    -4649    -4594 
   -4482    -4392    -4378    -4475    -4656    -4791    -4787    -4660 
   -4476    -4298    -4145    -4070    -4198    -4560    -4973    -5179 
   -5047    -4635    -4176    -3912    -3917    -4132    -4421    -4607 
   -4618    -4544    -4506    -4531    -4536    -4455    -4333    -4245 
   -4230    -4314    -4526    -4850    -5142    -5224    -5050    -4688 
   -4253    -3894    -3781    -4009    -4479    -4938    -5171    -5112 
   -4853    -4525    -4194    -3950    -3913    -4066    -4283    -4536 
   -4804    -4982    -4986    -4847    -4611    -4332    -4132    -4091 
   -4144    -4230    -4372    -4560    -4699    -4706    -4599    -4483 
   -4434    -4457    -4545    -4712    -4941    -5142    -5179    -4973 
   -4568    -4106    -3767    -3705    -3952    -4371    -4762    -5001 
   -5020    -4792    -4371    -3915    -3612    -3595    -3879    -4411 
   -5005    -5362    -5300    -4916    -4455    -4168    -4166    -4348 
   -4584    -4815    -4965    -4947    -4756    -4433    -4027    -3676 
   -3557    -3767    -4276    -4947    -5583    -5983    -5989    -5575 
   -4887    -4128    -3456    -3019    -2928    -3145    -3545    -4016 
   -4514    -4990    -5382    -5682    -5877    -5869    -5555    -4939 
   -4193    -3542    -3098    -2911    -3048    -3507    -4236    -5128 
   -5922    -6278    -6018    -5227    -4274    -3639    -3570    -3955 
   -4479    -4828    -4818    -4455    -3974    -3712    -3855    -4337 
   -4885    -5221    -5290    -5169    -4885    -4487    -4118    -3909 
   -3908    -4104    -4444    -4816    -5050    -5035    -4816    -4538 
   -4310    -4155    -4074    -4067    -4166    -4437    -4831    -5121 
   -5109    -4795    -4363    -4070    -4058    -4244    -4430    -4519 
   -4564    -4642    -4753    -4831    -4818    -4708    -4554    -4386 
   -4163    -3843    -3546    -3523    -3900    -4541    -5144    -5409 
   -5233    -4776    -4336    -4167    -4290    -4544    -4816    -5044 
   -5130    -5012    -4712    -4313    -3923    -3670    -3649    -3848 
   -4206    -4680    -5192    -5593    -5748    -5568    -5031    -4209 
   -3298    -2633    -2562    -3210    -4394    -5678    -6588    -6863 
   -6493    -5597    -4401    -3217    -2377    -2128    -2531    -3435 
   -4545    -5512    -6053    -6053    -5563    -4781    -3982    -3404 
   -3241    -3565    -4198    -4826    -5275    -5499    -5462    -5158 
   -4679    -4153    -3713    -3493    -3609    -4083    -4783    -5449 
   -5810    -5772    -5478    -5107    -4747    -4436    -4191    -3997 
   -3847    -3758    -3735    -3793    -3990    -4305    -4584    -4733 
   -4766    -4720    -4627    -4537    -4496    -4495    -4434    -4212 
   -3870    -3615    -3657    -4054    -4649    -5150    -5346    -5278 
   -5117    -4949    -4774    -4599    -4448    -4357    -4364    -4506 
   -4752    -4934    -4911    -4689    -4401    -4190    -4085    -4045 
   -4097    -4255    -4457    -4596    -4604    -4540    -4530    -4626 
   -4812    -5040    -5175    -5084    -4738    -4207    -3639    -3238 
   -3171    -3491    -4091    -4761    -5301    -5611    -5664    -5468 
   -5086    -4642    -4263    -4010    -3881    -3861    -3921    -4017 
   -4137    -4321    -4561    -4780    -4899    -4878    -4707    -4465 
   -4291    -4263    -4361    -4491    -4587    -4672    -4735    -4684 
   -4502    -4276    -4090    -3981    -3994    -4178    -4527    -5001 
   -5466    -5717    -5634    -5278    -4788    -4310    -3955    -3804 
   -3867    -4056    -4266    -4442    -4560    -4594    -4554    -4452 
   -4332    -4271    -4295    -4371    -4465    -4549    -4615    -4666 
   -4712    -4762    -4797    -4791    -4738    -4662    -4585    -4521 
   -4445    -4337    -4240    -4222    -4299    -4433    -4544    -4552 
   -4464    -4367    -4318    -4313    -4299    -4213    -4074    -3996 
   -4054    -4218    -4445    -4745    -5065    -5244    -5179    -4938 
   -4685    -4537    -4461    -4334    -4108    -3878    -3816    -4028 
   -4510    -5134    -5636    -5736    -5370    -4730    -4098    -3701 
   -3631    -3844    -4226    -4603    -4837    -4903    -4827    -4644 
   -4410    -4182    -4016    -3970    -4055    -4232    -4475    -4774 
   -5082    -5292    -5316    -5158    -4888    -4600    -4383    -4305 
   -4376    -4525    -4650    -4675    -4572    -4390    -4171    -3933 
   -3743    -3696    -3809    -4044    -4349    -4673    -4936    -5039 
   -4965    -4795    -4610    -4436    -4257    -4068    -3901    -3808 
   -3828    -3951    -4174    -4523    -4984    -5437    -5715    -5714 
   -5482    -5150    -4860    -4698    -4669    -4704    -4703    -4580 
   -4298    -3915    -3570    -3408    -3492    -3789    -4193    -4575 
   -4841    -4959    -4936    -4811    -4622    -4374    -4099    -3897 
   -3871    -4086    -4494    -4927    -5209    -5267    -5124    -4841 
   -4517    -4252    -4071    -3989    -4035    -4205    -4472    -4785 
   -5069    -5236    -5211    -5007    -4723    -4468    -4299    -4236 
   -4241    -4236    -4207    -4210    -4252    -4287    -4283    -4218 
   -4113    -4051    -4089    -4228    -4434    -4649    -4839    -4990 
   -5054    -4997    -4858    -4715    -4618    -4557    -4495    -4441 
   -4461    -4618    -4900    -5194    -5360    -5309    -5031    -4625 
   -4221    -3862    -3550    -3342    -3308    -3476    -3821    -4249 
   -4637    -4895    -4974    -4873    -4648    -4394    -4194    -4081 
   -4047    -4099    -4264    -4523    -4807    -5053    -5232    -5351 
   -5401    -5331    -5127    -4835    -4486    -4139    -3924    -3912 
   -4060    -4288    -4477    -4552    -4545    -4507    -4415    -4295 
   -4217    -4201    -4248    -4349    -4469    -4575    -4645    -4654 
   -4602    -4546    -4552    -4625    -4733    -4839    -4897    -4857 
   -4733    -4602    -4490    -4387    -4288    -4218    -4240    -4360 
   -4434    -4347    -4189    -4118    -4186    -4332    -4492    -4649 
   -4791    -4896    -4963    -4969    -4857    -4631    -4351    -4094 
   -3951    -4004    -4272    -4675    -5057    -5287    -5279    -5009 
   -4530    -3967    -3483    -3221    -3283    -3682    -4315    -4981 
   -5464    -5618    -5472    -5184    -4853    -4531    -4305    -4210 
   -4214    -4266    -4297    -4272    -4226    -4201    -4232    -4329 
   -4467    -4592    -4654    -4629    -4557    -4521    -4569    -4666 
   -4725    -4687    -4569    -4449    -4403    -4429    -4456    -4440 
   -4390    -4306    -4206    -4147    -4166    -4264    -4428    -4583 
   -4658    -4672    -4672    -4691    -4747    -4818    -4855    -4838 
   -4773    -4664    -4523    -4388    -4313    -4328    -4433    -4594 
   -4742    -4811    -4761    -4594    -4347    -4114    -4000    -4004 
   -4077    -4213    -4423    -4666    -4845    -4878    -4762    -4563 
   -4374    -4260    -4259    -4337    -4445    -4558    -4637    -4662 
   -4650    -4598    -4541    -4519    -4526    -4544    -4546    -4487 
   -4395    -4328    -4282    -4245    -4259    -4341    -4465    -4592 
   -4696    -4770    -4801    -4761    -4676    -4608    -4577    -4541 
   -4473    -4425    -4445    -4536    -4646    -4692    -4621    -4467 
   -4299    -4172    -4124    -4174    -4286    -4413    -4564    -4753 
   -4916    -4965    -4854    -4599    -4270    -3993    -3901    -4039 
   -4330    -4634    -4826    -4839    -4676    -4396    -4099    -3932 
   -4000    -4257    -4591    -4896    -5103    -5165    -5082    -4911 
   -4733    -4608    -4544    -4490    -4419    -4376    -4391    -4410 
   -4361    -4248    -4131    -4086    -4164    -4349    -4558    -4677 
   -4662    -4602    -4590    -4623    -4666    -4700    -4720    -4741 
   -4766    -4783    -4792    -4792    -4752    -4649    -4514    -4374 
   -4232    -4118    -4070    -4067    -4094    -4164    -4244    -4286 
   -4305    -4333    -4361    -4380    -4422    -4522    -4664    -4795 
   -4866    -4858    -4772    -4652    -4537    -4429    -4333    -4247 
   -4182    -4182    -4278    -4438    -4596    -4722    -4831    -4916 
