Origin Time       2025/01/26 08:11:00
Lat.              34.975
Long.             138.213
Depth. (km)       21
Mag.              3.4
Station Code      SZO011
Station Lat.      35.2129
Station Long.     138.6015
Station Height(m) 195
Record Time       2025/01/26 08:11:38
Sampling Freq(Hz) 100Hz
Duration Time(s)  60
Dir.              U-D
Scale Factor      7845(gal)/8223790
Max. Acc. (gal)   0.724
Last Correction   2025/01/26 08:11:38
Memo.             
[...]
    6108     6097     6091     6095     6097     6096     6097     6108 
    6118     6110     6093     6091     6100     6102     6096     6096 
    6100     6104     6110     6107     6099     6102     6102     6097 
    6097     6096     6097     6099     6102     6108     6107     6103 
    6102     6095     6092     6099     6103     6107     6111     6107 
    6096     6091     6095     6104     6111     6114     6108     6096 
    6092     6096     6097     6102     6111     6110     6097     6092 
    6093     6097     6097     6096     6100     6106     6106     6104 
    6100     6100     6106     6103     6099     6104     6100     6093 
    6095     6102     6102     6100     6106     6110     6099     6093 
    6099     6102     6100     6100     6104     6106     6103     6096 
    6091     6092     6106     6115     6106     6093     6089     6099 
    6111     6110     6100     6096     6102     6111     6103     6089 
    6095     6110     6116     6108     6093     6093     6096     6092 
    6100     6111     6110     6108     6106     6095     6088     6095 
    6107     6114     6106     6095     6100     6108     6107     6103 
    6099     6095     6097     6100     6097     6106     6111     6100 
    6092     6097     6102     6102     6103     6104     6104     6104 
    6106     6099     6088     6091     6106     6118     6115     6099 
    6084     6088     6104     6115     6115     6106     6088     6088 
    6107     6116     6108     6099     6095     6091     6093     6102 
    6104     6108     6110     6102     6093     6091     6092     6100 
    6106     6106     6108     6103     6093     6095     6099     6104 
    6110     6107     6103     6099     6089     6092     6104     6106 
    6097     6096     6102     6106     6104     6099     6099     6104 
    6103     6100     6099     6096     6103     6111     6106     6097 
    6096     6097     6100     6103     6107     6107     6099     6092 
    6095     6103     6107     6104     6099     6096     6097     6099 
    6102     6107     6107     6100     6096     6099     6103     6103 
    6102     6103     6106     6104     6096     6091     6099     6107 
    6102     6095     6100     6106     6104     6099     6093     6095 
    6103     6107     6108     6106     6097     6091     6092     6102 
    6108     6107     6102     6091     6087     6100     6108     6106 
    6108     6106     6093     6092     6103     6107     6103     6099 
    6093     6091     6097     6102     6103     6100     6099     6103 
    6107     6103     6093     6087     6092     6099     6106     6116 
    6115     6092     6080     6091     6106     6111     6110     6106 
    6095     6085     6093     6107     6110     6102     6099     6102 
    6104     6097     6092     6100     6106     6102     6099     6106 
    6111     6104     6097     6089     6084     6095     6108     6115 
    6115     6095     6079     6088     6108     6116     6111     6102 
    6099     6091     6091     6103     6111     6108     6100     6092 
    6091     6099     6104     6107     6104     6096     6089     6092 
    6103     6111     6108     6099     6096     6100     6104     6108 
    6110     6099     6088     6096     6108     6107     6103     6103 
    6104     6102     6099     6095     6096     6104     6104     6099 
    6104     6111     6102     6095     6099     6099     6097     6099 
    6104     6106     6099     6093     6100     6107     6108     6107 
    6104     6095     6091     6100     6111     6106     6099     6102 
    6104     6103     6100     6096     6092     6092     6103     6114 
    6112     6107     6093     6083     6087     6099     6108     6119 
    6122     6110     6091     6076     6085     6107     6115     6116 
    6112     6095     6083     6087     6099     6111     6115     6110 
    6097     6092     6096     6096     6099     6108     6108     6102 
    6096     6092     6097     6107     6115     6115     6102     6089 
    6091     6099     6102     6100     6100     6100     6097     6100 
    6110     6108     6096     6092     6097     6099     6102     6107 
    6107     6103     6099     6091     6093     6104     6106     6102 
    6102     6103     6106     6104     6102     6103     6104     6096 
    6091     6093     6096     6102     6114     6115     6106     6092 
    6081     6088     6107     6115     6107     6097     6099     6104 
    6102     6102     6106     6107     6102     6095     6095     6097 
    6097     6102     6111     6108     6096     6096     6097     6093 
    6095     6103     6111     6114     6103     6095     6096     6099 
    6100     6099     6100     6103     6104     6100     6097     6100 
    6110     6112     6102     6087     6083     6093     6108     6115 
    6108     6104     6099     6095     6095     6099     6107     6107 
    6100     6102     6097     6089     6100     6114     6107     6100 
    6099     6099     6100     6104     6104     6096     6089     6093 
    6100     6104     6112     6112     6093     6079     6084     6103 
    6119     6119     6106     6092     6088     6104     6119     6111 
    6097     6088     6087     6099     6112     6114     6104     6095 
    6095     6099     6099     6106     6112     6106     6093     6088 
    6093     6102     6110     6112     6103     6099     6100     6093 
    6092     6100     6108     6112     6107     6096     6092     6095 
    6097     6104     6110     6110     6106     6096     6089     6087 
    6091     6106     6119     6123     6112     6089     6077     6085 
    6103     6115     6116     6107     6096     6095     6103     6103 
    6093     6092     6103     6108     6107     6100     6093     6095 
    6103     6108     6108     6102     6095     6095     6095     6100 
    6108     6106     6100     6099     6099     6099     6100     6100 
    6103     6103     6103     6106     6102     6091     6088     6099 
    6112     6115     6106     6096     6095     6097     6097     6102 
    6107     6104     6097     6096     6099     6096     6097     6108 
    6114     6108     6097     6085     6087     6102     6114     6112 
    6104     6097     6091     6085     6092     6115     6126     6111 
    6088     6077     6084     6107     6126     6122     6104     6092 
    6088     6091     6097     6108     6110     6102     6092     6092 
    6099     6107     6108     6104     6097     6095     6097     6106 
    6107     6096     6093     6108     6119     6111     6091     6084 
    6093     6104     6111     6110     6103     6096     6089     6089 
    6096     6103     6107     6107     6106     6103     6099     6095 
    6099     6106     6104     6099     6096     6096     6103     6108 
    6102     6093     6097     6106     6111     6110     6102     6092 
    6089     6091     6100     6115     6114     6099     6091     6085 
    6091     6112     6126     6114     6091     6075     6077     6096 
    6118     6133     6116     6080     6069     6083     6103     6126 
    6129     6106     6087     6084     6093     6106     6111     6107 
    6102     6099     6099     6099     6100     6102     6099     6093 
    6096     6104     6110     6111     6103     6093     6091     6093 
    6092     6096     6112     6119     6111     6099     6088     6081 
    6092     6112     6126     6122     6102     6085     6077     6080 
    6103     6124     6120     6100     6083     6081     6095     6112 
    6115     6108     6107     6097     6087     6092     6099     6103 
    6112     6112     6106     6093     6083     6084     6103     6119 
    6126     6119     6095     6079     6083     6091     6103     6119 
    6122     6108     6089     6079     6076     6092     6122     6131 
    6114     6087     6072     6085     6107     6118     6116     6106 
    6093     6087     6089     6103     6114     6108     6106     6106 
    6099     6095     6095     6095     6097     6102     6106     6108 
    6108     6103     6092     6087     6085     6092     6108     6126 
    6127     6106     6077     6066     6085     6114     6127     6122 
    6102     6081     6077     6092     6115     6127     6119     6095 
    6075     6080     6097     6115     6129     6123     6096     6079 
    6079     6092     6108     6115     6110     6099     6093     6096 
    6103     6106     6102     6096     6092     6088     6099     6116 
    6116     6103     6088     6081     6093     6108     6112     6108 
    6100     6092     6091     6096     6104     6110     6108     6103 
    6100     6095     6093     6102     6100     6096     6102     6108 
    6107     6100     6095     6092     6097     6106     6107     6104 
    6103     6100     6096     6095     6099     6102     6106     6107 
    6108     6102     6089     6085     6095     6112     6123     6115 
    6092     6076     6084     6104     6119     6123     6106     6081 
    6076     6096     6118     6116     6104     6093     6091     6103 
    6115     6110     6099     6097     6097     6097     6097     6100 
    6107     6104     6096     6096     6103     6104     6100     6096 
    6099     6107     6107     6100     6102     6106     6102     6095 
    6095     6099     6108     6112     6103     6095     6091     6091 
    6096     6107     6111     6108     6104     6096     6084     6085 
    6104     6120     6115     6099     6092     6097     6106     6104 
    6096     6093     6097     6100     6107     6110     6104     6103 
    6102     6096     6091     6095     6106     6112     6107     6099 
    6097     6103     6106     6106     6106     6099     6092     6092 
    6097     6107     6112     6108     6100     6095     6089     6091 
    6100     6111     6114     6100     6087     6092     6104     6110 
    6106     6100     6102     6102     6092     6092     6106     6106 
    6099     6099     6100     6106     6111     6106     6097     6091 
    6091     6100     6107     6107     6107     6103     6100     6100 
    6097     6092     6096     6104     6108     6106     6100     6099 
    6096     6097     6104     6102     6095     6093     6097     6108 
    6111     6097     6091     6099     6107     6111     6107     6099 
    6095     6095     6099     6099     6095     6095     6104     6110 
    6106     6100     6100     6104     6102     6099     6100     6100 
    6104     6103     6092     6093     6097     6097     6107     6111 
    6100     6092     6099     6104     6102     6102     6103     6099 
    6092     6091     6099     6110     6112     6106     6093     6083 
    6088     6106     6110     6108     6104     6089     6081     6092 
    6108     6110     6097     6092     6093     6100     6114     6108 
    6091     6085     6091     6104     6122     6122     6097     6084 
    6087     6097     6114     6119     6104     6088     6083     6089 
    6110     6124     6112     6088     6083     6091     6100     6110 
    6112     6104     6092     6084     6088     6099     6112     6120 
    6111     6095     6088     6087     6095     6107     6112     6114 
    6106     6096     6093     6093     6097     6102     6097     6099 
    6107     6107     6102     6096     6095     6097     6102     6104 
    6106     6102     6093     6091     6092     6097     6110     6114 
    6108     6099     6088     6085     6093     6104     6112     6114 
    6107     6103     6096     6084     6083     6092     6103     6119 
    6124     6106     6087     6083     6092     6111     6119     6108 
    6089     6076     6080     6103     6124     6130     6112     6092 
    6087     6081     6076     6088     6114     6131     6134     6116 
    6084     6065     6069     6089     6118     6130     6119     6104 
    6095     6085     6080     6088     6103     6111     6110     6108 
    6108     6102     6088     6084     6099     6120     6122     6100 
    6085     6087     6096     6111     6112     6103     6100     6102 
    6097     6093     6093     6103     6111     6111     6100     6088 
    6087     6092     6102     6119     6133     6127     6102     6065 
    6050     6073     6116     6143     6139     6110     6079     6062 
    6072     6100     6124     6134     6120     6089     6072     6080 
    6100     6119     6122     6107     6088     6083     6093     6107 
    6108     6106     6104     6099     6095     6092     6089     6096 
    6111     6108     6100     6099     6091     6080     6077     6073 
    6066     6073     6095     6118     6126     6114     6088     6064 
    6070     6122     6191     6228     6193     6106     6043     6038 
    6068     6118     6169     6191     6168     6100     6023     6002 
    6053     6131     6173     6123     6008     5937     5965     6066 
    6189     6273     6253     6108     5930     5883     6002     6162 
    6239     6215     6168     6153     6134     6085     6057     6103 
    6185     6189     6062     5892     5832     5958     6181     6312 
    6280     6184     6108     6070     6091     6142     6165     6143 
    6111     6124     6219     6320     6269     5977     5597     5456 
    5715     6180     6520     6554     6309     5984     5806     5811 
    5886     6038     6293     6424     6269     5994     5796     5776 
    6042     6489     6728     6571     6215     5910     5798     5930 
    6174     6258     6107     5922     5854     5903     6050     6241 
    6313     6166     5910     5732     5722     5919     6312     6724 
    6860     6581     6084     5738     5722     5888     5992     5962 
    5940     6042     6205     6316     6336     6219     5964     5760 
    5810     6060     6280     6320     6214     6097     6046     6039 
    6045     6030     6003     6073     6258     6361     6232     5960 
    5753     5807     6133     6489     6601     6411     6076     5826 
    5796     5913     6049     6170     6257     6250     6149     6026 
    5958     6003     6145     6257     6207     6033     5871     5803 
    5883     6108     6323     6365     6237     6041     5902     5910 
    6043     6227     6399     6438     6274     6015     5825     5817 
    6041     6359     6520     6400     6092     5798     5695     5822 
    6052     6211     6227     6150     6081     6060     6052     6041 
    6042     6052     6068     6127     6224     6285     6280     6245 
    6183     6068     5941     5911     6025     6188     6239     6102 
    5891     5796     5881     6110     6353     6428     6315     6161 
    6029     5933     5953     6079     6174     6169     6095     6011 
    5975     6042     6203     6301     6228     6093     6030     6027 
    6058     6118     6147     6123     6088     6029     5941     5941 
    6081     6268     6346     6227     6012     5930     6021     6146 
    6228     6228     6112     5971     5953     6077     6232     6303 
    6237     6072     5929     5888     5938     6050     6174     6262 
    6305     6289     6197     6065     5975     5984     6068     6116 
    6075     6011     6027     6127     6220     6210     6087     5953 
    5913     5961     6037     6124     6216     6243     6166     6050 
    5995     6039     6122     6150     6145     6195     6261     6212 
    6061     5958     5987     6095     6173     6138     6021     5949 
    6007     6145     6273     6345     6322     6191     6034     5941 
    5913     5934     5991     6056     6095     6114     6129     6097 
    6025     6023     6146     6257     6245     6187     6177     6185 
    6164     6118     6046     5972     5956     6010     6091     6158 
    6150     6060     5998     6033     6107     6161     6178     6177 
    6188     6181     6130     6083     6073     6061     6022     6003 
    6056     6130     6156     6127     6081     6048     6041     6052 
    6076     6139     6235     6303     6270     6143     5998     5929 
    5980     6079     6111     6056     5980     5952     5988     6070 
    6173     6262     6299     6266     6187     6103     6043     6026 
    6069     6129     6104     6015     5985     6065     6169     6188 
    6104     6002     5987     6093     6226     6272     6239     6188 
    6127     6043     5972     5988     6097     6177     6112     5948 
    5834     5895     6127     6372     6450     6323     6091     5900 
    5873     6007     6173     6220     6088     5879     5807     5975 
    6265     6450     6382     6147     5957     5921     6016     6154 
    6226     6184     6092     6041     6050     6096     6166     6226 
    6197     6070     5933     5875     5908     5995     6106     6228 
    6335     6355     6227     6016     5896     5950     6102     6228 
    6261     6214     6161     6131     6058     5937     5869     5913 
    6016     6104     6178     6257     6289     6203     6029     5902 
    5921     6045     6168     6249     6277     6239     6156     6064 
    6014     6037     6096     6130     6100     6014     5964     6019 
    6115     6173     6177     6114     6018     5981     6065     6228 
    6343     6282     6060     5852     5846     6065     6336     6432 
    6293     6038     5845     5838     6007     6215     6304     6230 
    6081     5965     5941     5973     6000     6037     6107     6178 
    6218     6207     6153     6102     6083     6096     6153     6235 
    6280     6243     6133     6000     5923     5935     5979     5996 
    6042     6149     6228     6204     6092     5969     5919     5998 
    6165     6291     6266     6126     6003     6006     6126     6235 
    6227     6127     6031     6006     6072     6189     6250     6178 
    6041     5961     5996     6103     6169     6102     5964     5899 
    5957     6081     6184     6188     6110     6056     6083     6181 
    6289     6300     6196     6062     5976     5992     6119     6234 
    6245     6176     6057     5922     5860     5929     6092     6237 
    6246     6112     5934     5825     5873     6099     6373     6490 
    6361     6095     5892     5859     5968     6143     6295     6343 
    6268     6106     5960     5940     6049     6160     6160     6085 
    6064     6116     6154     6133     6089     6064     6066     6095 
    6112     6076     6018     6021     6104     6192     6188     6102 
    6033     6048     6118     6199     6250     6234     6120     5953 
    5846     5900     6075     6216     6239     6172     6066     6021 
    6107     6215     6215     6131     6029     5971     6041     6196 
    6258     6172     6045     5979     6018     6135     6219     6187 
    6075     5987     5992     6061     6119     6108     6042     6019 
    6085     6146     6126     6072     6056     6079     6111     6172 
    6218     6142     6007     5988     6122     6277     6320     6210 
    6023     5906     5934     6030     6106     6169     6203     6129 
    5980     5927     6037     6199     6293     6300     6246     6172 
    6108     6046     5989     5996     6073     6143     6161     6124 
    6056     6012     6037     6092     6116     6103     6075     6035 
    6012     6089     6282     6450     6412     6153     5829     5632 
    5661     5879     6145     6324     6355     6265     6126     6023 
    6021     6096     6137     6075     6011     6069     6211     6307 
    6293     6183     6038     5941     5935     5984     6029     6057 
