Origin Time       2025/01/26 08:11:00
Lat.              34.975
Long.             138.213
Depth. (km)       21
Mag.              3.4
Station Code      SZO011
Station Lat.      35.2129
Station Long.     138.6015
Station Height(m) 195
Record Time       2025/01/26 08:11:38
Sampling Freq(Hz) 100Hz
Duration Time(s)  60
Dir.              E-W
Scale Factor      7845(gal)/8223790
Max. Acc. (gal)   2.029
Last Correction   2025/01/26 08:11:38
Memo.             
[...]
   -8696    -8689    -8677    -8660    -8656    -8664    -8677    -8689 
   -8691    -8685    -8684    -8679    -8680    -8688    -8687    -8684 
   -8684    -8684    -8689    -8685    -8671    -8653    -8646    -8657 
   -8675    -8694    -8716    -8722    -8710    -8692    -8673    -8658 
   -8650    -8653    -8669    -8687    -8703    -8714    -8704    -8688 
   -8675    -8669    -8672    -8671    -8671    -8679    -8675    -8675 
   -8684    -8684    -8676    -8675    -8681    -8692    -8704    -8710 
   -8699    -8676    -8657    -8644    -8645    -8667    -8689    -8708 
   -8726    -8722    -8691    -8662    -8650    -8650    -8661    -8680 
   -8689    -8694    -8696    -8694    -8684    -8680    -8680    -8672 
   -8669    -8672    -8668    -8664    -8675    -8688    -8689    -8691 
   -8698    -8698    -8689    -8679    -8664    -8662    -8680    -8694 
   -8689    -8685    -8683    -8680    -8680    -8684    -8687    -8677 
   -8657    -8656    -8669    -8683    -8700    -8711    -8708    -8700 
   -8683    -8660    -8649    -8657    -8675    -8684    -8684    -8679 
   -8684    -8699    -8703    -8694    -8683    -8672    -8660    -8652 
   -8658    -8672    -8684    -8689    -8688    -8688    -8694    -8698 
   -8692    -8677    -8664    -8665    -8680    -8692    -8688    -8676 
   -8664    -8667    -8685    -8702    -8711    -8707    -8684    -8657 
   -8642    -8637    -8641    -8657    -8685    -8711    -8721    -8715 
   -8699    -8681    -8671    -8664    -8662    -8669    -8677    -8689 
   -8695    -8687    -8677    -8675    -8675    -8680    -8683    -8683 
   -8685    -8683    -8676    -8680    -8685    -8687    -8684    -8677 
   -8675    -8680    -8681    -8680    -8687    -8687    -8671    -8665 
   -8677    -8684    -8687    -8691    -8684    -8675    -8671    -8669 
   -8669    -8679    -8694    -8698    -8698    -8703    -8691    -8665 
   -8656    -8661    -8673    -8687    -8699    -8704    -8694    -8677 
   -8675    -8675    -8672    -8672    -8676    -8685    -8694    -8696 
   -8691    -8680    -8665    -8656    -8662    -8677    -8687    -8694 
   -8695    -8692    -8677    -8662    -8667    -8680    -8691    -8703 
   -8708    -8695    -8673    -8660    -8656    -8664    -8681    -8694 
   -8692    -8688    -8681    -8673    -8669    -8671    -8684    -8694 
   -8689    -8689    -8687    -8673    -8664    -8667    -8681    -8696 
   -8696    -8685    -8675    -8671    -8672    -8672    -8677    -8688 
   -8691    -8691    -8689    -8680    -8672    -8669    -8676    -8688 
   -8691    -8679    -8667    -8669    -8683    -8687    -8684    -8676 
   -8668    -8668    -8677    -8689    -8704    -8715    -8704    -8679 
   -8664    -8664    -8668    -8675    -8681    -8683    -8683    -8679 
   -8675    -8677    -8688    -8692    -8687    -8691    -8702    -8698 
   -8677    -8660    -8656    -8658    -8667    -8681    -8698    -8710 
   -8711    -8703    -8680    -8653    -8641    -8646    -8669    -8703 
   -8723    -8718    -8689    -8662    -8660    -8669    -8672    -8676 
   -8683    -8687    -8692    -8695    -8688    -8675    -8664    -8664 
   -8675    -8680    -8684    -8694    -8699    -8698    -8689    -8677 
   -8671    -8671    -8675    -8685    -8694    -8684    -8671    -8660 
   -8660    -8672    -8688    -8702    -8699    -8683    -8679    -8675 
   -8660    -8654    -8657    -8662    -8684    -8710    -8714    -8703 
   -8685    -8662    -8653    -8661    -8672    -8676    -8683    -8695 
   -8700    -8696    -8688    -8685    -8687    -8683    -8676    -8668 
   -8665    -8669    -8680    -8699    -8702    -8677    -8654    -8657 
   -8679    -8698    -8698    -8688    -8679    -8667    -8662    -8672 
   -8677    -8673    -8675    -8689    -8696    -8687    -8673    -8669 
   -8679    -8687    -8694    -8699    -8698    -8691    -8676    -8665 
   -8667    -8672    -8675    -8677    -8683    -8684    -8683    -8683 
   -8681    -8683    -8676    -8657    -8646    -8657    -8677    -8696 
   -8708    -8710    -8692    -8675    -8673    -8677    -8679    -8676 
   -8667    -8654    -8658    -8681    -8710    -8730    -8725    -8694 
   -8658    -8625    -8618    -8657    -8708    -8735    -8733    -8700 
   -8660    -8641    -8638    -8650    -8684    -8710    -8699    -8675 
   -8660    -8658    -8673    -8700    -8718    -8704    -8673    -8649 
   -8661    -8700    -8721    -8710    -8681    -8644    -8608    -8610 
   -8661    -8727    -8765    -8770    -8733    -8664    -8619    -8619 
   -8644    -8677    -8702    -8696    -8675    -8668    -8677    -8695 
   -8718    -8719    -8684    -8638    -8615    -8637    -8685    -8716 
   -8719    -8715    -8704    -8684    -8669    -8661    -8660    -8667 
   -8676    -8681    -8684    -8685    -8689    -8695    -8685    -8680 
   -8687    -8689    -8685    -8683    -8679    -8681    -8683    -8677 
   -8675    -8671    -8672    -8687    -8698    -8698    -8692    -8675 
   -8654    -8653    -8668    -8679    -8689    -8700    -8696    -8683 
   -8681    -8679    -8672    -8675    -8676    -8687    -8699    -8696 
   -8691    -8680    -8662    -8662    -8676    -8684    -8688    -8685 
   -8671    -8668    -8681    -8688    -8692    -8695    -8689    -8681 
   -8677    -8676    -8676    -8675    -8671    -8671    -8677    -8683 
   -8685    -8689    -8691    -8688    -8687    -8684    -8681    -8694 
   -8721    -8737    -8723    -8688    -8650    -8625    -8619    -8642 
   -8683    -8703    -8668    -8602    -8567    -8595    -8672    -8748 
   -8785    -8777    -8722    -8656    -8633    -8654    -8687    -8703 
   -8694    -8684    -8711    -8780    -8846    -8846    -8768    -8638 
   -8492    -8398    -8433    -8581    -8756    -8880    -8897    -8814 
   -8708    -8626    -8542    -8449    -8386    -8414    -8581    -8830 
   -9005    -9034    -8958    -8830    -8711    -8650    -8602    -8523 
   -8472    -8490    -8554    -8629    -8683    -8714    -8766    -8820 
   -8779    -8653    -8507    -8351    -8301    -8519    -8965    -9444 
   -9715    -9540    -8955    -8295    -7873    -7796    -7993    -8298 
   -8637    -9023    -9340    -9337    -8955    -8430    -8025    -7936 
   -8232    -8680    -8932    -8923    -8811    -8710    -8668    -8665 
   -8671    -8758    -8970    -9200    -9352    -9321    -8928    -8302 
   -7904    -7974    -8374    -8851    -9144    -9097    -8779    -8355 
   -7927    -7603    -7605    -8095    -8919    -9767   -10330   -10336 
   -9774    -8911    -8036    -7407    -7219    -7504    -8195    -9089 
   -9783    -9971    -9621    -8910    -8163    -7655    -7454    -7609 
   -8174    -8937    -9559    -9842    -9711    -9201    -8576    -8183 
   -8113    -8225    -8425    -8684    -8927    -9089    -9138    -8978 
   -8610    -8236    -8067    -8187    -8509    -8833    -9073    -9165 
   -8981    -8615    -8321    -8182    -8179    -8357    -8719    -9154 
   -9481    -9524    -9242    -8789    -8405    -8195    -8112    -8077 
   -8097    -8275    -8649    -9082    -9360    -9370    -9132    -8795 
   -8552    -8463    -8456    -8484    -8518    -8548    -8588    -8607 
   -8576    -8533    -8499    -8495    -8642    -8986    -9364    -9587 
   -9533    -9130    -8486    -7892    -7546    -7496    -7762    -8316 
   -9004    -9639   -10029    -9975    -9448    -8710    -8075    -7707 
   -7662    -7902    -8289    -8681    -9050    -9348    -9445    -9266 
   -8870    -8383    -7959    -7771    -7878    -8185    -8630    -9144 
   -9533    -9652    -9543    -9293    -8978    -8698    -8482    -8264 
   -8041    -7905    -7955    -8214    -8590    -8961    -9244    -9374 
   -9323    -9119    -8800    -8422    -8118    -8008    -8083    -8251 
   -8449    -8687    -8931    -9090    -9139    -9127    -9046    -8868 
   -8657    -8527    -8509    -8563    -8660    -8757    -8793    -8758 
   -8652    -8463    -8259    -8178    -8291    -8538    -8797    -8988 
   -9096    -9158    -9162    -9027    -8760    -8514    -8430    -8526 
   -8677    -8739    -8700    -8623    -8533    -8438    -8378    -8376 
   -8424    -8505    -8619    -8796    -9004    -9120    -9063    -8872 
   -8622    -8402    -8297    -8344    -8510    -8741    -8984    -9171 
   -9223    -9061    -8714    -8347    -8160    -8229    -8459    -8718 
   -8939    -9067    -9058    -8907    -8634    -8345    -8210    -8290 
   -8518    -8818    -9072    -9108    -8891    -8590    -8375    -8328 
   -8448    -8607    -8692    -8725    -8731    -8694    -8638    -8619 
   -8679    -8843    -9066    -9204    -9131    -8846    -8471    -8176 
   -8081    -8182    -8397    -8637    -8856    -9062    -9250    -9344 
   -9259    -8992    -8594    -8174    -7897    -7879    -8093    -8433 
   -8789    -9051    -9153    -9117    -8986    -8772    -8513    -8322 
   -8282    -8399    -8654    -8942    -9109    -9104    -8988    -8829 
   -8641    -8445    -8280    -8203    -8276    -8526    -8873    -9167 
   -9310    -9275    -9070    -8766    -8459    -8206    -8062    -8056 
   -8195    -8457    -8743    -8927    -8982    -8970    -8926    -8847 
   -8752    -8657    -8594    -8594    -8648    -8710    -8760    -8802 
   -8833    -8827    -8769    -8664    -8556    -8456    -8368    -8351 
   -8440    -8602    -8795    -8953    -8986    -8912    -8833    -8780 
   -8725    -8640    -8518    -8437    -8506    -8696    -8876    -8976 
   -8986    -8888    -8679    -8395    -8104    -7912    -7942    -8259 
   -8804    -9396    -9805    -9846    -9483    -8865    -8220    -7769 
   -7642    -7828    -8203    -8671    -9157    -9494    -9512    -9234 
   -8816    -8407    -8133    -8071    -8189    -8394    -8642    -8904 
   -9116    -9229    -9215    -9026    -8671    -8298    -8086    -8117 
   -8365    -8698    -8955    -9073    -9053    -8907    -8687    -8507 
   -8444    -8460    -8503    -8557    -8603    -8641    -8696    -8780 
   -8896    -9046    -9185    -9247    -9157    -8865    -8444    -8050 
   -7786    -7753    -8027    -8518    -9027    -9390    -9450    -9155 
   -8677    -8230    -7981    -8046    -8387    -8843    -9236    -9391 
   -9238    -8884    -8523    -8306    -8303    -8509    -8796    -8992 
   -9016    -8910    -8769    -8664    -8586    -8490    -8382    -8297 
   -8270    -8349    -8559    -8816    -8972    -8968    -8892    -8846 
   -8834    -8789    -8691    -8588    -8545    -8607    -8772    -8922 
   -8919    -8752    -8525    -8388    -8410    -8513    -8575    -8588 
   -8622    -8706    -8810    -8858    -8793    -8662    -8590    -8644 
   -8779    -8885    -8870    -8745    -8644    -8671    -8765    -8783 
   -8689    -8554    -8486    -8569    -8754    -8861    -8772    -8542 
   -8302    -8174    -8222    -8417    -8664    -8904    -9099    -9190 
   -9169    -9077    -8938    -8788    -8700    -8680    -8646    -8544 
   -8397    -8275    -8264    -8375    -8533    -8649    -8688    -8691 
   -8716    -8797    -8891    -8889    -8762    -8619    -8560    -8588 
   -8633    -8648    -8661    -8706    -8791    -8942    -9134    -9251 
   -9194    -8942    -8575    -8226    -8019    -8006    -8147    -8343 
   -8534    -8707    -8819    -8861    -8872    -8870    -8895    -8991 
   -9081    -9038    -8850    -8599    -8397    -8337    -8419    -8514 
   -8517    -8484    -8509    -8573    -8679    -8850    -8981    -8957 
   -8822    -8696    -8679    -8781    -8924    -8966    -8830    -8590 
   -8410    -8390    -8496    -8631    -8703    -8714    -8777    -8945 
   -9088    -9049    -8808    -8476    -8232    -8213    -8395    -8590 
   -8606    -8445    -8293    -8317    -8540    -8870    -9177    -9362 
   -9390    -9247    -8941    -8537    -8145    -7873    -7844    -8144 
   -8683    -9208    -9483    -9420    -9112    -8749    -8469    -8301 
   -8221    -8209    -8229    -8268    -8372    -8563    -8793    -9019 
   -9200    -9298    -9301    -9200    -8969    -8650    -8376    -8243 
   -8260    -8398    -8607    -8789    -8843    -8799    -8768    -8772 
   -8711    -8557    -8437    -8432    -8492    -8561    -8618    -8680 
   -8784    -8904    -8951    -8864    -8656    -8436    -8391    -8626 
   -9019    -9323    -9329    -9004    -8532    -8118    -7839    -7722 
   -7848    -8263    -8864    -9435    -9763    -9715    -9300    -8680 
   -8081    -7673    -7561    -7794    -8338    -9023    -9617    -9926 
   -9819    -9313    -8619    -8052    -7848    -8050    -8464    -8837 
   -9051    -9084    -8935    -8694    -8478    -8313    -8186    -8122 
   -8148    -8306    -8644    -9094    -9448    -9463    -9069    -8487 
   -8116    -8214    -8710    -9281    -9594    -9509    -9112    -8569 
   -8044    -7695    -7627    -7848    -8306    -8895    -9385    -9522 
   -9235    -8718    -8276    -8117    -8272    -8656    -9085    -9352 
   -9369    -9175    -8856    -8500    -8236    -8171    -8316    -8573 
   -8789    -8833    -8671    -8424    -8287    -8378    -8676    -9020 
   -9170    -9035    -8808    -8722    -8770    -8803    -8712    -8487 
   -8194    -7974    -7997    -8309    -8787    -9238    -9463    -9327 
   -8856    -8253    -7846    -7893    -8371    -9050    -9683   -10007 
   -9836    -9279    -8610    -8051    -7758    -7774    -7992    -8299 
   -8611    -8842    -9012    -9231    -9474    -9547    -9278    -8649 
   -7862    -7298    -7244    -7682    -8364    -8986    -9356    -9462 
   -9413    -9312    -9167    -8964    -8733    -8515    -8349    -8317 
   -8490    -8770    -8920    -8739    -8212    -7562    -7202    -7481 
   -8432    -9666   -10590   -10808   -10354    -9570    -8816    -8306 
   -8068    -8013    -8039    -8073    -8040    -7897    -7763    -7858 
   -8232    -8752    -9251    -9564    -9582    -9310    -8864    -8438 
   -8263    -8430    -8845    -9282    -9526    -9478    -9146    -8595 
   -7931    -7341    -7079    -7304    -7956    -8829    -9629   -10077 
  -10038    -9578    -8938    -8405    -8144    -8160    -8376    -8685 
   -8968    -9121    -9065    -8814    -8514    -8303    -8257    -8368 
   -8542    -8694    -8772    -8754    -8667    -8542    -8364    -8175 
   -8135    -8341    -8745    -9238    -9709    -9983    -9913    -9486 
   -8807    -8037    -7410    -7155    -7380    -8036    -8914    -9688 
  -10095   -10060    -9645    -9011    -8353    -7821    -7518    -7515 
   -7746    -8082    -8453    -8803    -9076    -9238    -9288    -9265 
   -9190    -9050    -8847    -8591    -8295    -8021    -7892    -7981 
   -8226    -8532    -8860    -9138    -9269    -9229    -9065    -8834 
   -8619    -8491    -8440    -8414    -8461    -8681    -9058    -9437 
   -9622    -9459    -8942    -8275    -7788    -7723    -8031    -8460 
   -8811    -9015    -9105    -9128    -9063    -8878    -8598    -8286 
   -8054    -7987    -8074    -8252    -8515    -8839    -9142    -9328 
   -9333    -9155    -8896    -8662    -8476    -8330    -8233    -8209 
   -8302    -8538    -8861    -9157    -9342    -9364    -9193    -8870 
   -8517    -8240    -8133    -8252    -8537    -8857    -9053    -8996 
   -8719    -8422    -8279    -8353    -8618    -8955    -9180    -9153 
   -8922    -8623    -8328    -8079    -7970    -8067    -8351    -8776 
   -9271    -9667    -9718    -9290    -8521    -7750    -7315    -7346 
   -7765    -8434    -9174    -9774   -10080   -10030    -9628    -8976 
   -8286    -7794    -7647    -7865    -8355    -8946    -9458    -9728 
   -9620    -9124    -8417    -7807    -7601    -7889    -8491    -9088 
   -9391    -9328    -9003    -8572    -8166    -7904    -7904    -8183 
   -8591    -8928    -9084    -9069    -8973    -8910    -8957    -9092 
   -9209    -9220    -9111    -8916    -8656    -8355    -8059    -7793 
   -7573    -7462    -7558    -7928    -8572    -9373   -10085   -10443 
  -10331    -9826    -9143    -8517    -8108    -7985    -8140    -8468 
   -8793    -8943    -8795    -8365    -7828    -7416    -7325    -7611 
   -8159    -8762    -9221    -9439    -9443    -9320    -9154    -9012 
   -8927    -8874    -8826    -8788    -8808    -8868    -8880    -8780 
   -8573    -8334    -8198    -8282    -8600    -9040    -9375    -9412 
   -9144    -8752    -8414    -8174    -8014    -7950    -7978    -8068 
   -8217    -8444    -8726    -8982    -9096    -9040    -8934    -8860 
   -8795    -8742    -8756    -8835    -8919    -8981    -9019    -8995 
   -8888    -8710    -8510    -8375    -8394    -8579    -8843    -9058 
   -9123    -8989    -8668    -8243    -7885    -7750    -7858    -8127 
   -8451    -8792    -9143    -9423    -9516    -9389    -9094    -8704 
   -8321    -8094    -8125    -8370    -8683    -8964    -9208    -9378 
   -9366    -9126    -8716    -8235    -7809    -7578    -7593    -7794 
   -8128    -8532    -8896    -9144    -9281    -9331    -9301    -9207 
   -9088    -8969    -8823    -8646    -8518    -8532    -8714    -9007 
   -9263    -9352    -9225    -8887    -8421    -7992    -7722    -7668 
   -7877    -8311    -8815    -9219    -9385    -9274    -8995    -8675 
   -8367    -8139    -8073    -8162    -8314    -8478    -8648    -8797 
   -8892    -8915    -8891    -8864    -8849    -8835    -8812    -8768 
   -8708    -8673    -8687    -8726    -8779    -8834    -8834    -8773 
   -8706    -8661    -8654    -8711    -8824    -8934    -8977    -8928 
   -8814    -8677    -8534    -8370    -8186    -8051    -8027    -8117 
   -8264    -8392    -8514    -8711    -9031    -9402    -9668    -9725 
   -9587    -9315    -8968    -8586    -8220    -7943    -7811    -7855 
   -8083    -8425    -8768    -9015    -9116    -9067    -8884    -8591 
   -8243    -7943    -7821    -7966    -8360    -8907    -9467    -9902 
  -10093    -9949    -9458    -8762    -8075    -7595    -7450    -7668 
   -8148    -8669    -9028    -9181    -9143    -8938    -8653    -8378 
   -8190    -8171    -8311    -8517    -8762    -9046    -9305    -9468 
   -9482    -9333    -9077    -8791    -8568    -8461    -8451    -8494 
   -8567    -8604    -8529    -8356    -8176    -8073    -8079    -8174 
   -8334    -8568    -8842    -9063    -9123    -8999    -8793    -8653 
   -8654    -8752    -8830    -8826    -8785    -8769    -8804    -8907 
   -9045    -9139    -9154    -9074    -8877    -8603    -8348    -8182 
   -8147    -8262    -8484    -8711    -8845    -8854    -8739    -8502 
   -8202    -7955    -7858    -7939    -8159    -8486    -8876    -9215 
   -9393    -9356    -9131    -8853    -8664    -8637    -8750    -8904 
   -8997    -8993    -8938    -8903    -8919    -8949    -8924    -8826 
   -8685    -8526    -8357    -8186    -8024    -7939    -8001    -8210 
   -8514    -8854    -9124    -9235    -9227    -9175    -9069    -8900 
   -8715    -8553    -8464    -8496    -8633    -8800    -8942    -9038 
   -9066    -8991    -8820    -8613    -8407    -8217    -8063    -7986 
   -8008    -8118    -8298    -8513    -8711    -8896    -9084    -9217 
   -9227    -9117    -8941    -8749    -8594    -8507    -8502    -8560 
   -8644    -8707    -8711    -8631    -8487    -8341    -8282    -8351 
   -8545    -8834    -9108    -9224    -9150    -8957    -8761    -8662 
   -8665    -8708    -8756    -8814    -8907    -9018    -9062    -8965 
   -8729    -8424    -8158    -8047    -8120    -8279    -8429    -8553 
   -8652    -8707    -8715    -8689    -8652    -8634    -8676    -8762 
   -8833    -8854    -8841    -8816    -8762    -8664    -8575    -8563 
