Origin Time       2025/02/01 08:16:00
Lat.              33.667
Long.             130.927
Depth. (km)       8
Mag.              3.1
Station Code      FKO004
Station Lat.      33.7366
Station Long.     131.0121
Station Height(m) 3
Record Time       2025/02/01 08:17:01
Sampling Freq(Hz) 100Hz
Duration Time(s)  60
Dir.              U-D
Scale Factor      7845(gal)/8223790
Max. Acc. (gal)   11.198
Last Correction   2025/02/01 08:17:01
Memo.             
   -8289    -8289    -8280    -8284    -8293    -8289    -8284    -8290 
   -8290    -8283    -8286    -8294    -8290    -8279    -8284    -8291 
   -8284    -8280    -8286    -8286    -8282    -8284    -8286    -8284 
   -8284    -8286    -8287    -8284    -8282    -8284    -8290    -8290 
   -8284    -8283    -8289    -8289    -8284    -8286    -8290    -8290 
   -8291    -8291    -8286    -8282    -8286    -8291    -8286    -8282 
   -8287    -8293    -8287    -8282    -8286    -8287    -8283    -8283 
   -8287    -8284    -8282    -8286    -8289    -8286    -8286    -8290 
   -8290    -8283    -8282    -8289    -8290    -8286    -8287    -8290 
   -8289    -8286    -8290    -8293    -8287    -8280    -8284    -8291 
   -8286    -8279    -8286    -8289    -8280    -8282    -8290    -8287 
   -8280    -8283    -8287    -8278    -8278    -8289    -8290    -8282 
   -8287    -8291    -8287    -8284    -8287    -8289    -8286    -8283 
   -8284    -8287    -8287    -8286    -8290    -8291    -8287    -8283 
   -8289    -8291    -8282    -8278    -8286    -8289    -8282    -8284 
   -8293    -8287    -8279    -8284    -8287    -8280    -8278    -8287 
   -8294    -8286    -8283    -8290    -8289    -8283    -8286    -8287 
   -8282    -8280    -8284    -8289    -8284    -8282    -8289    -8290 
   -8284    -8286    -8293    -8291    -8283    -8286    -8291    -8287 
   -8279    -8282    -8286    -8283    -8280    -8286    -8291    -8286 
   -8282    -8287    -8290    -8282    -8280    -8286    -8283    -8280 
   -8287    -8293    -8289    -8284    -8286    -8286    -8284    -8289 
   -8290    -8287    -8289    -8293    -8290    -8282    -8280    -8287 
   -8289    -8283    -8280    -8284    -8290    -8290    -8283    -8283 
   -8289    -8282    -8278    -8289    -8291    -8284    -8286    -8289 
   -8283    -8280    -8289    -8290    -8282    -8280    -8287    -8290 
   -8289    -8287    -8284    -8287    -8287    -8287    -8287    -8284 
   -8283    -8289    -8290    -8284    -8284    -8287    -8287    -8282 
   -8282    -8290    -8289    -8280    -8283    -8289    -8289    -8284 
   -8282    -8283    -8283    -8280    -8286    -8291    -8284    -8283 
   -8291    -8290    -8286    -8290    -8290    -8283    -8286    -8293 
   -8289    -8280    -8286    -8291    -8286    -8286    -8290    -8287 
   -8280    -8280    -8287    -8290    -8284    -8283    -8287    -8287 
   -8283    -8279    -8283    -8286    -8282    -8280    -8287    -8290 
   -8286    -8286    -8289    -8287    -8284    -8290    -8291    -8283 
   -8279    -8287    -8290    -8280    -8279    -8291    -8293    -8287 
   -8291    -8291    -8286    -8283    -8283    -8283    -8283    -8283 
   -8291    -8293    -8283    -8282    -8289    -8284    -8278    -8286 
   -8291    -8287    -8287    -8290    -8289    -8289    -8284    -8284 
   -8290    -8286    -8282    -8286    -8287    -8280    -8280    -8293 
   -8294    -8284    -8284    -8287    -8282    -8283    -8293    -8287 
   -8282    -8284    -8289    -8284    -8279    -8283    -8293    -8290 
   -8286    -8289    -8287    -8282    -8283    -8287    -8287    -8283 
   -8287    -8294    -8291    -8287    -8289    -8290    -8287    -8284 
   -8283    -8286    -8284    -8279    -8284    -8291    -8286    -8287 
   -8293    -8286    -8276    -8276    -8284    -8286    -8283    -8287 
   -8293    -8291    -8287    -8289    -8290    -8286    -8283    -8284 
   -8282    -8280    -8282    -8287    -8289    -8287    -8290    -8291 
   -8286    -8280    -8283    -8289    -8287    -8284    -8289    -8291 
   -8284    -8283    -8289    -8284    -8278    -8280    -8291    -8289 
   -8282    -8286    -8287    -8283    -8287    -8291    -8286    -8284 
   -8289    -8290    -8286    -8287    -8291    -8286    -8282    -8287 
   -8289    -8287    -8289    -8287    -8290    -8290    -8284    -8286 
   -8290    -8284    -8286    -8289    -8287    -8286    -8282    -8282 
   -8289    -8284    -8280    -8287    -8289    -8282    -8279    -8287 
   -8289    -8282    -8284    -8291    -8289    -8287    -8287    -8286 
   -8284    -8286    -8287    -8286    -8286    -8290    -8290    -8283 
   -8284    -8290    -8289    -8280    -8279    -8287    -8289    -8280 
   -8282    -8289    -8289    -8283    -8282    -8289    -8289    -8280 
   -8283    -8291    -8290    -8283    -8284    -8291    -8289    -8286 
   -8289    -8286    -8279    -8287    -8289    -8279    -8280    -8289 
   -8291    -8287    -8286    -8290    -8290    -8283    -8283    -8286 
   -8286    -8284    -8283    -8284    -8284    -8283    -8287    -8291 
   -8287    -8283    -8283    -8286    -8287    -8286    -8289    -8293 
   -8286    -8283    -8289    -8290    -8283    -8283    -8287    -8286 
   -8284    -8286    -8289    -8287    -8284    -8290    -8290    -8284 
   -8289    -8294    -8286    -8282    -8287    -8289    -8284    -8282 
   -8284    -8287    -8282    -8280    -8290    -8290    -8283    -8286 
   -8290    -8287    -8286    -8291    -8293    -8286    -8280    -8290 
   -8295    -8286    -8278    -8283    -8287    -8284    -8287    -8290 
   -8284    -8284    -8293    -8290    -8279    -8279    -8287    -8286 
   -8279    -8282    -8289    -8287    -8283    -8286    -8287    -8284 
   -8284    -8283    -8282    -8286    -8286    -8287    -8293    -8290 
   -8286    -8291    -8291    -8286    -8283    -8286    -8289    -8286 
   -8284    -8289    -8287    -8282    -8286    -8290    -8284    -8283 
   -8287    -8287    -8282    -8279    -8283    -8284    -8280    -8286 
   -8289    -8284    -8286    -8289    -8284    -8284    -8284    -8286 
   -8289    -8286    -8282    -8286    -8293    -8293    -8289    -8289 
   -8286    -8283    -8286    -8290    -8287    -8283    -8287    -8290 
   -8286    -8287    -8290    -8286    -8280    -8284    -8289    -8284 
   -8280    -8289    -8293    -8284    -8282    -8290    -8289    -8283 
   -8284    -8287    -8286    -8289    -8293    -8289    -8282    -8286 
   -8289    -8286    -8284    -8286    -8289    -8289    -8286    -8290 
   -8289    -8283    -8283    -8284    -8286    -8286    -8279    -8286 
   -8291    -8283    -8280    -8289    -8290    -8283    -8284    -8293 
   -8291    -8283    -8282    -8284    -8283    -8286    -8290    -8289 
   -8286    -8289    -8293    -8290    -8286    -8286    -8284    -8282 
   -8282    -8287    -8290    -8287    -8286    -8287    -8289    -8284 
   -8283    -8287    -8286    -8279    -8283    -8293    -8291    -8282 
   -8282    -8284    -8283    -8279    -8282    -8289    -8289    -8289 
   -8291    -8287    -8283    -8289    -8290    -8284    -8283    -8289 
   -8290    -8284    -8286    -8293    -8290    -8283    -8284    -8286 
   -8284    -8284    -8284    -8289    -8290    -8283    -8282    -8287 
   -8287    -8280    -8282    -8287    -8283    -8284    -8293    -8290 
   -8283    -8283    -8289    -8287    -8282    -8282    -8286    -8287 
   -8289    -8290    -8290    -8287    -8289    -8293    -8289    -8280 
   -8282    -8287    -8283    -8282    -8287    -8290    -8287    -8284 
   -8284    -8287    -8284    -8283    -8289    -8290    -8283    -8283 
   -8291    -8293    -8283    -8280    -8290    -8290    -8279    -8284 
   -8293    -8287    -8283    -8289    -8287    -8286    -8291    -8293 
   -8283    -8276    -8283    -8290    -8284    -8282    -8290    -8291 
   -8283    -8280    -8287    -8286    -8280    -8283    -8290    -8290 
   -8284    -8284    -8287    -8287    -8284    -8284    -8289    -8291 
   -8289    -8286    -8289    -8287    -8283    -8287    -8286    -8282 
   -8286    -8293    -8290    -8283    -8287    -8293    -8286    -8282 
   -8284    -8284    -8279    -8280    -8287    -8287    -8283    -8284 
   -8290    -8291    -8286    -8287    -8290    -8283    -8280    -8284 
   -8289    -8287    -8283    -8286    -8291    -8287    -8283    -8286 
   -8291    -8286    -8282    -8291    -8287    -8280    -8290    -8294 
   -8287    -8289    -8290    -8280    -8278    -8287    -8290    -8284 
   -8284    -8289    -8290    -8287    -8284    -8284    -8283    -8280 
   -8284    -8290    -8289    -8284    -8283    -8287    -8289    -8284 
   -8287    -8289    -8287    -8284    -8284    -8291    -8289    -8282 
   -8287    -8289    -8283    -8287    -8291    -8284    -8278    -8287 
   -8294    -8284    -8282    -8290    -8289    -8286    -8289    -8289 
   -8287    -8283    -8280    -8286    -8286    -8280    -8284    -8293 
   -8290    -8283    -8283    -8286    -8283    -8282    -8286    -8290 
   -8287    -8287    -8290    -8287    -8284    -8286    -8287    -8283 
   -8279    -8284    -8291    -8287    -8284    -8293    -8294    -8286 
   -8286    -8291    -8287    -8279    -8283    -8289    -8284    -8282 
   -8290    -8290    -8282    -8282    -8286    -8284    -8286    -8289 
   -8287    -8283    -8283    -8286    -8289    -8287    -8282    -8286 
   -8291    -8289    -8287    -8289    -8290    -8291    -8287    -8287 
   -8287    -8283    -8286    -8291    -8286    -8280    -8289    -8293 
   -8283    -8275    -8280    -8286    -8286    -8289    -8290    -8283 
   -8284    -8291    -8289    -8283    -8282    -8284    -8289    -8286 
   -8282    -8286    -8287    -8283    -8284    -8291    -8290    -8287 
   -8289    -8290    -8287    -8284    -8284    -8290    -8289    -8280 
   -8287    -8293    -8283    -8280    -8289    -8287    -8280    -8283 
   -8290    -8283    -8279    -8289    -8289    -8282    -8284    -8287 
   -8284    -8282    -8284    -8287    -8284    -8282    -8287    -8291 
   -8287    -8282    -8287    -8290    -8284    -8283    -8289    -8289 
   -8283    -8279    -8284    -8290    -8287    -8284    -8290    -8289 
   -8282    -8286    -8291    -8284    -8282    -8290    -8293    -8286 
   -8283    -8287    -8287    -8282    -8280    -8284    -8289    -8290 
   -8291    -8289    -8283    -8286    -8291    -8289    -8282    -8283 
   -8291    -8290    -8280    -8278    -8286    -8290    -8289    -8286 
   -8287    -8284    -8279    -8283    -8290    -8284    -8280    -8286 
   -8290    -8283    -8284    -8294    -8289    -8276    -8283    -8289 
   -8284    -8287    -8291    -8283    -8278    -8289    -8301    -8291 
   -8280    -8284    -8290    -8284    -8283    -8286    -8287    -8290 
   -8289    -8287    -8287    -8282    -8280    -8284    -8287    -8283 
   -8282    -8290    -8291    -8283    -8287    -8299    -8291    -8276 
   -8282    -8290    -8286    -8280    -8284    -8289    -8287    -8291 
   -8294    -8287    -8283    -8289    -8289    -8283    -8284    -8290 
   -8290    -8286    -8284    -8289    -8293    -8289    -8282    -8289 
   -8290    -8284    -8289    -8290    -8282    -8279    -8284    -8287 
   -8287    -8284    -8287    -8294    -8289    -8283    -8287    -8287 
   -8283    -8286    -8290    -8287    -8289    -8297    -8291    -8278 
   -8283    -8291    -8283    -8274    -8280    -8289    -8286    -8282 
   -8286    -8287    -8283    -8283    -8290    -8291    -8286    -8284 
   -8290    -8291    -8283    -8282    -8289    -8293    -8287    -8284 
   -8289    -8287    -8279    -8282    -8290    -8291    -8293    -8293 
   -8287    -8279    -8279    -8284    -8284    -8280    -8284    -8291 
   -8290    -8286    -8287    -8289    -8286    -8287    -8291    -8289 
   -8280    -8284    -8290    -8287    -8280    -8282    -8290    -8290 
   -8284    -8284    -8284    -8283    -8284    -8286    -8287    -8287 
   -8284    -8287    -8290    -8286    -8284    -8290    -8287    -8284 
   -8289    -8287    -8282    -8284    -8291    -8287    -8280    -8286 
   -8295    -8290    -8286    -8290    -8290    -8283    -8282    -8287 
   -8290    -8287    -8286    -8286    -8287    -8289    -8287    -8284 
   -8283    -8283    -8284    -8284    -8280    -8278    -8284    -8293 
   -8290    -8302    -8425    -8793    -8924    -7296    -4996    -7757 
  -13938   -11524    -2710    -3099   -11615   -14844    -8221    -1765 
   -6137   -11929   -10215    -7906    -7233    -8012    -9756    -8160 
   -6598    -8205    -8739    -7832    -8522    -9880    -9034    -6785 
   -6319    -8978   -11369    -8233    -3793    -6775   -12931   -11330 
   -5166    -5539    -9821   -10455    -8217    -5991    -7001    -9937 
   -9917    -8133    -7057    -7663    -9296    -8482    -7142    -8787 
   -9779    -7599    -6211    -8418   -10600    -8893    -6681    -7515 
   -8722    -8777    -8459    -8051    -8527    -8737    -7344    -7248 
   -9081    -9263    -8881    -8868    -6428    -6054   -10350   -10941 
   -6319    -5454    -9733   -11074    -7736    -6405    -8766    -9551 
   -7580    -6988    -8357    -9046    -8391    -8176    -9167    -8259 
   -6728    -8764    -9786    -7379    -6782    -8764   -10061    -8509 
   -6613    -7784    -8878    -8797    -9309    -8160    -6982    -8087 
   -8047    -7805    -9838    -9697    -6207    -6270   -10997   -11349 
   -5772    -4706    -9522   -10632    -7469    -7106   -10056   -10200 
   -5688    -5192   -11051   -11298    -5551    -5899   -10781   -10527 
   -6478    -6211    -9323   -10052    -7983    -6272    -7192   -10162 
  -10570    -7677    -6814    -8058    -7981    -8390    -9047    -7893 
   -7420    -8267    -9764   -10471    -7123    -5170    -9026    -9952 
   -6798    -7068    -7591    -6227   -10987   -17662    -9003     3453 
   -7036   -19473    -8212     2548    -3407   -14103   -17011    -8947 
   -5217    -7630    -5238    -7430   -13135   -10427    -4827    -1965 
   -5078   -14671   -16656    -5432     2930    -5460   -19286   -15742 
   -2934    -4000   -10210    -6733    -4725   -11134   -13529    -8078 
   -3732    -6110   -12440   -11705    -5059    -6451   -10679    -8796 
   -8889   -10061    -6558    -5043    -6605    -5170    -4835   -11114 
  -13948    -8464    -7006   -10107    -9950    -6731    -2972    -4954 
  -11476   -14052   -14229   -11655    -3078      -52    -7591   -10575 
   -8058   -10910   -13501   -10246    -5524    -3935    -6882    -8338 
   -7427    -9003    -9711    -8824    -9583    -9381    -7180    -5566 
   -6203    -8086    -8893    -9470    -9472    -7889    -7808    -8151 
   -6151    -6070    -8432    -8672    -8978   -10917   -10224    -7391 
   -8722   -12784   -10137    -5553    -7622    -8564    -6446    -6573 
   -6876    -7250    -7975    -7611    -8248    -9286    -8255    -8036 
  -10319   -10034    -5915    -5528   -11122   -13378    -8804    -5478 
   -6046    -7222    -8363    -9201    -9990    -8748    -6181    -9286 
  -13244    -9351    -4472    -4563    -7408   -10590   -10058    -6883 
   -6288    -7531    -8819   -10729   -10948    -6774    -3551    -7241 
  -11373    -9358    -5551    -5431    -8664   -10878   -10372    -9050 
   -8927   -10786    -9863    -5347    -5229    -8762    -9364    -7678 
   -6743    -7762    -9323   -10404   -11057    -8452    -4764    -5190 
   -7109    -9163   -10940    -8552    -5833    -6685    -8384   -10176 
  -10913    -8926    -6802    -7793    -9297    -8456    -8529    -9675 
   -8888    -7242    -7076    -8363    -7825    -5910    -6562    -7653 
   -7943   -10324   -12830   -11325    -7460    -6527    -8309    -9121 
   -7879    -5267    -5130    -8263    -9944    -9432    -8773    -8567 
   -8465    -8348    -8885    -8745    -7207    -5890    -6694    -9952 
  -11850    -9867    -5933    -4865    -8978   -12114   -10501    -6278 
   -2830    -5643   -11529   -12091    -8927    -7102    -7423    -8668 
   -9552    -9184    -7007    -5366    -7387   -10405   -10357    -8716 
   -7442    -7130    -8505    -9389    -8610    -7639    -7072    -7813 
   -9559    -9848    -7654    -5711    -6741    -9189   -10705    -8897 
   -5227    -6716   -11519   -11808    -7771    -4858    -7115   -10604 
   -9933    -7894    -6804    -7082    -9590   -10501    -7886    -5613 
   -5692    -7835    -9995    -9817    -9047    -7389    -5161    -7416 
  -11043   -10800    -9267    -8320    -8507    -8791    -7974    -8239 
   -8765    -7801    -6772    -6912    -8147    -8519    -7504    -7437 
   -9090   -10978    -9945    -6652    -6706    -8745    -8548    -7862 
   -7830    -8419    -8758    -8252    -8529    -8372    -8077    -9130 
   -8295    -5999    -6683    -9614   -10336    -8104    -6875    -7954 
   -8517    -7732    -7801    -9049    -8928    -7700    -8224   -10041 
  -10627    -9441    -7541    -6147    -6185    -8136   -10480    -9813 
   -6439    -5382    -8600   -11622   -10169    -6824    -6265    -7508 
   -8618    -9532    -8440    -6926    -8087    -9254    -8756    -8577 
   -8364    -7566    -7634    -8075    -8538    -9888    -9153    -6176 
   -6393    -9139    -9760    -8122    -6817    -7377    -8760    -9324 
   -8448    -7873    -9413    -9767    -6976    -5873    -8822   -10909 
   -9177    -6917    -6864    -8557    -9439    -8341    -7832    -8135 
   -8148    -8762    -8641    -7371    -7653    -9505    -9632    -7566 
   -7188    -8510    -8482    -8506    -8873    -7688    -6741    -7921 
   -9923    -9640    -6687    -5498    -7884   -10570   -10651    -8155 
   -5995    -6426    -8527   -10401   -10401    -8433    -6610    -6799 
   -8226    -8807    -9011    -9165    -7771    -7029    -8704    -9738 
   -8918    -7624    -7014    -8014    -9201    -8951    -8013    -7496 
   -8256    -8834    -7663    -7396    -8742    -9239    -8483    -7396 
   -8085    -9887    -9190    -7615    -7655    -7651    -7358    -8089 
   -9200    -9031    -8168    -7933    -7832    -8176    -9012    -8675 
   -7587    -7654    -8446    -8499    -8681    -9558    -8914    -6933 
   -6737    -8471    -9485    -8518    -6971    -7134    -9055    -9761 
   -8316    -7821    -8530    -8133    -7744    -8606    -9445    -8600 
   -6550    -6775    -9504   -10265    -7956    -6509    -8125    -9753 
   -8981    -7753    -7215    -7314    -8660    -9734    -9027    -7611 
   -7094    -7952    -8532    -8565    -9391    -9448    -8225    -7445 
   -7149    -7474    -8653    -9405    -8563    -7450    -7871    -8542 
   -8657    -8803    -8143    -7420    -7983    -8718    -9022    -9072 
   -8332    -7267    -7580    -8881    -8303    -6918    -8293   -10111 
   -8800    -6944    -7605    -8779    -8456    -7823    -8256    -9310 
   -8700    -7252    -7788    -8807    -9327    -9223    -7380    -6448 
   -7847    -9232    -9240    -8302    -7962    -8089    -7831    -8322 
   -9485    -9242    -7348    -6582    -8559   -10331    -8892    -6756 
   -7393    -8928    -8665    -7653    -7960    -9178    -8846    -7384 
   -7160    -8073    -9175    -9408    -8226    -7122    -7292    -8579 
   -9504    -8451    -7128    -7893    -9304    -9305    -8540    -7830 
   -7184    -7916    -9736    -9420    -7250    -7028    -8869    -9497 
   -8424    -7746    -7560    -7595    -8596    -8974    -7927    -7801 
   -8537    -8691    -8743    -8532    -7931    -7642    -7751    -8202 
   -8491    -8442    -8360    -7938    -8172    -9374    -9115    -7715 
   -7497    -8063    -8599    -8627    -8091    -8284    -8986    -8926 
   -7908    -6983    -7935    -9259    -8371    -7366    -8039    -9109 
   -9479    -8290    -6785    -7268    -8792    -9161    -8503    -8310 
   -8289    -7515    -7676    -9278    -9628    -8487    -7701    -7388 
   -7641    -8463    -8696    -7992    -7331    -8102    -9971    -9915 
   -7595    -6825    -8348    -9003    -8158    -7994    -8645    -8333 
   -7252    -7484    -9205    -9798    -8482    -7312    -7179    -7878 
