Origin Time       2025/02/01 08:16:00
Lat.              33.667
Long.             130.927
Depth. (km)       8
Mag.              3.1
Station Code      FKO004
Station Lat.      33.7366
Station Long.     131.0121
Station Height(m) 3
Record Time       2025/02/01 08:17:01
Sampling Freq(Hz) 100Hz
Duration Time(s)  60
Dir.              N-S
Scale Factor      7845(gal)/8223790
Max. Acc. (gal)   37.620
Last Correction   2025/02/01 08:17:01
Memo.             
   -2872    -2868    -2866    -2871    -2874    -2867    -2862    -2864 
   -2871    -2868    -2863    -2868    -2874    -2868    -2870    -2878 
   -2876    -2872    -2875    -2872    -2868    -2870    -2870    -2866 
   -2871    -2878    -2868    -2863    -2870    -2871    -2871    -2871 
   -2866    -2871    -2874    -2866    -2868    -2879    -2874    -2863 
   -2864    -2872    -2874    -2866    -2866    -2875    -2875    -2868 
   -2872    -2879    -2870    -2863    -2868    -2870    -2866    -2868 
   -2868    -2866    -2871    -2871    -2864    -2866    -2870    -2871 
   -2870    -2871    -2875    -2875    -2871    -2868    -2870    -2872 
   -2868    -2863    -2866    -2871    -2866    -2860    -2866    -2874 
   -2870    -2864    -2872    -2878    -2872    -2871    -2874    -2874 
   -2870    -2867    -2871    -2872    -2870    -2871    -2872    -2872 
   -2876    -2875    -2870    -2872    -2872    -2867    -2866    -2870 
   -2872    -2870    -2866    -2870    -2871    -2868    -2866    -2872 
   -2876    -2870    -2867    -2870    -2871    -2871    -2866    -2864 
   -2872    -2871    -2864    -2867    -2874    -2872    -2866    -2867 
   -2874    -2868    -2864    -2871    -2874    -2870    -2868    -2870 
   -2868    -2867    -2870    -2867    -2862    -2867    -2871    -2870 
   -2872    -2876    -2876    -2871    -2871    -2878    -2875    -2866 
   -2867    -2874    -2874    -2868    -2864    -2871    -2872    -2867 
   -2868    -2875    -2875    -2871    -2870    -2875    -2878    -2871 
   -2867    -2870    -2868    -2866    -2867    -2868    -2866    -2864 
   -2866    -2864    -2866    -2871    -2870    -2867    -2874    -2879 
   -2872    -2868    -2872    -2876    -2871    -2860    -2864    -2874 
   -2871    -2867    -2871    -2875    -2874    -2867    -2867    -2874 
   -2872    -2867    -2870    -2868    -2862    -2866    -2870    -2871 
   -2870    -2868    -2868    -2871    -2872    -2872    -2868    -2868 
   -2874    -2875    -2871    -2870    -2870    -2872    -2868    -2866 
   -2874    -2878    -2875    -2872    -2874    -2875    -2870    -2867 
   -2871    -2870    -2866    -2868    -2868    -2867    -2867    -2866 
   -2870    -2875    -2872    -2871    -2875    -2872    -2868    -2871 
   -2872    -2868    -2864    -2867    -2870    -2870    -2868    -2864 
   -2864    -2872    -2871    -2863    -2866    -2874    -2875    -2872 
   -2871    -2878    -2879    -2871    -2866    -2871    -2872    -2866 
   -2863    -2870    -2871    -2871    -2871    -2870    -2872    -2872 
   -2868    -2871    -2874    -2867    -2863    -2868    -2872    -2868 
   -2870    -2872    -2868    -2868    -2872    -2872    -2871    -2874 
   -2870    -2864    -2871    -2878    -2872    -2871    -2872    -2870 
   -2864    -2863    -2866    -2870    -2868    -2866    -2867    -2871 
   -2870    -2866    -2871    -2880    -2875    -2866    -2868    -2868 
   -2863    -2863    -2866    -2872    -2874    -2871    -2872    -2875 
   -2874    -2871    -2870    -2870    -2871    -2872    -2868    -2867 
   -2871    -2871    -2864    -2868    -2875    -2874    -2866    -2862 
   -2870    -2875    -2870    -2867    -2872    -2872    -2868    -2867 
   -2871    -2875    -2868    -2867    -2878    -2876    -2868    -2871 
   -2875    -2872    -2867    -2867    -2871    -2871    -2864    -2867 
   -2870    -2870    -2872    -2872    -2867    -2864    -2872    -2871 
   -2862    -2867    -2875    -2870    -2867    -2872    -2875    -2868 
   -2862    -2864    -2872    -2867    -2866    -2878    -2879    -2870 
   -2870    -2876    -2878    -2872    -2868    -2872    -2872    -2867 
   -2864    -2866    -2870    -2870    -2866    -2868    -2871    -2864 
   -2864    -2870    -2871    -2871    -2874    -2872    -2871    -2874 
   -2874    -2866    -2864    -2871    -2871    -2863    -2866    -2874 
   -2872    -2864    -2863    -2874    -2875    -2867    -2866    -2874 
   -2875    -2867    -2864    -2868    -2868    -2867    -2870    -2872 
   -2867    -2866    -2867    -2870    -2871    -2868    -2870    -2872 
   -2871    -2872    -2874    -2868    -2868    -2874    -2871    -2866 
   -2868    -2871    -2871    -2867    -2867    -2872    -2872    -2866 
   -2870    -2875    -2870    -2868    -2878    -2878    -2868    -2863 
   -2870    -2874    -2867    -2863    -2867    -2870    -2870    -2868 
   -2872    -2876    -2870    -2866    -2870    -2868    -2867    -2867 
   -2866    -2864    -2867    -2868    -2868    -2868    -2875    -2878 
   -2870    -2867    -2874    -2872    -2868    -2870    -2874    -2872 
   -2867    -2867    -2876    -2876    -2867    -2866    -2872    -2872 
   -2864    -2868    -2875    -2871    -2866    -2868    -2871    -2870 
   -2867    -2867    -2867    -2864    -2864    -2871    -2872    -2872 
   -2876    -2876    -2871    -2871    -2879    -2874    -2864    -2867 
   -2870    -2866    -2867    -2872    -2870    -2868    -2867    -2867 
   -2870    -2867    -2862    -2868    -2875    -2870    -2864    -2870 
   -2871    -2863    -2866    -2875    -2868    -2863    -2866    -2870 
   -2868    -2868    -2870    -2874    -2871    -2868    -2872    -2872 
   -2868    -2870    -2874    -2874    -2872    -2875    -2872    -2866 
   -2868    -2875    -2868    -2863    -2867    -2872    -2868    -2862 
   -2864    -2875    -2875    -2870    -2870    -2874    -2868    -2862 
   -2872    -2878    -2868    -2868    -2874    -2871    -2864    -2863 
   -2868    -2872    -2868    -2870    -2878    -2876    -2871    -2874 
   -2875    -2871    -2872    -2874    -2871    -2870    -2870    -2868 
   -2868    -2867    -2870    -2867    -2860    -2866    -2876    -2874 
   -2864    -2863    -2871    -2876    -2870    -2864    -2872    -2875 
   -2868    -2870    -2878    -2874    -2868    -2870    -2875    -2876 
   -2871    -2870    -2874    -2870    -2866    -2871    -2872    -2868 
   -2868    -2872    -2872    -2867    -2868    -2867    -2864    -2871 
   -2878    -2867    -2860    -2866    -2870    -2867    -2866    -2875 
   -2882    -2876    -2868    -2871    -2879    -2874    -2862    -2867 
   -2876    -2871    -2868    -2876    -2872    -2864    -2867    -2870 
   -2870    -2868    -2866    -2866    -2870    -2871    -2871    -2870 
   -2868    -2867    -2872    -2874    -2868    -2867    -2871    -2870 
   -2870    -2874    -2868    -2863    -2864    -2870    -2871    -2866 
   -2867    -2876    -2875    -2866    -2866    -2878    -2880    -2868 
   -2867    -2875    -2872    -2864    -2864    -2866    -2868    -2872 
   -2872    -2871    -2867    -2864    -2868    -2870    -2867    -2871 
   -2874    -2871    -2866    -2866    -2868    -2866    -2867    -2872 
   -2868    -2862    -2867    -2874    -2870    -2867    -2872    -2876 
   -2875    -2868    -2867    -2875    -2872    -2864    -2871    -2874 
   -2863    -2866    -2874    -2870    -2860    -2862    -2872    -2876 
   -2872    -2872    -2870    -2864    -2866    -2868    -2871    -2872 
   -2872    -2872    -2870    -2867    -2867    -2868    -2866    -2872 
   -2882    -2876    -2868    -2868    -2872    -2872    -2864    -2862 
   -2867    -2872    -2867    -2866    -2870    -2871    -2864    -2866 
   -2875    -2872    -2863    -2866    -2868    -2867    -2871    -2876 
   -2874    -2871    -2874    -2871    -2866    -2867    -2870    -2867 
   -2868    -2872    -2874    -2868    -2866    -2871    -2874    -2867 
   -2863    -2871    -2875    -2868    -2863    -2868    -2875    -2872 
   -2867    -2871    -2875    -2871    -2868    -2874    -2878    -2868 
   -2868    -2875    -2870    -2862    -2867    -2868    -2866    -2868 
   -2872    -2872    -2870    -2871    -2875    -2872    -2867    -2870 
   -2871    -2868    -2868    -2870    -2868    -2864    -2864    -2870 
   -2870    -2863    -2868    -2879    -2875    -2870    -2875    -2878 
   -2874    -2868    -2866    -2864    -2866    -2866    -2871    -2876 
   -2871    -2868    -2875    -2878    -2868    -2864    -2871    -2868 
   -2863    -2868    -2874    -2868    -2868    -2870    -2871    -2872 
   -2872    -2870    -2866    -2863    -2870    -2878    -2872    -2870 
   -2875    -2876    -2870    -2867    -2866    -2864    -2862    -2863 
   -2868    -2875    -2870    -2868    -2878    -2876    -2866    -2866 
   -2875    -2874    -2864    -2870    -2875    -2868    -2867    -2871 
   -2867    -2866    -2870    -2867    -2866    -2867    -2868    -2868 
   -2867    -2867    -2872    -2875    -2870    -2871    -2876    -2874 
   -2866    -2870    -2875    -2870    -2866    -2870    -2874    -2871 
   -2866    -2870    -2872    -2863    -2863    -2871    -2871    -2867 
   -2867    -2874    -2875    -2867    -2867    -2874    -2868    -2864 
   -2870    -2871    -2871    -2875    -2870    -2867    -2871    -2871 
   -2870    -2868    -2870    -2871    -2870    -2866    -2864    -2868 
   -2871    -2867    -2866    -2874    -2874    -2868    -2870    -2875 
   -2871    -2866    -2867    -2874    -2868    -2862    -2866    -2871 
   -2871    -2867    -2867    -2871    -2870    -2868    -2871    -2872 
   -2874    -2876    -2870    -2866    -2872    -2872    -2868    -2868 
   -2871    -2871    -2862    -2860    -2871    -2871    -2866    -2867 
   -2870    -2868    -2864    -2864    -2871    -2874    -2871    -2871 
   -2872    -2874    -2870    -2866    -2874    -2878    -2866    -2862 
   -2871    -2872    -2867    -2870    -2871    -2868    -2868    -2872 
   -2871    -2872    -2875    -2868    -2863    -2867    -2871    -2868 
   -2868    -2871    -2874    -2874    -2868    -2868    -2874    -2871 
   -2863    -2867    -2874    -2871    -2870    -2871    -2874    -2871 
   -2867    -2870    -2875    -2872    -2870    -2872    -2876    -2874 
   -2866    -2866    -2871    -2868    -2866    -2863    -2859    -2863 
   -2867    -2860    -2860    -2867    -2872    -2874    -2872    -2875 
   -2874    -2867    -2871    -2876    -2870    -2864    -2868    -2875 
   -2876    -2870    -2868    -2872    -2870    -2864    -2866    -2871 
   -2874    -2867    -2863    -2868    -2874    -2871    -2868    -2872 
   -2876    -2871    -2867    -2867    -2868    -2867    -2863    -2864 
   -2872    -2874    -2870    -2866    -2867    -2870    -2866    -2860 
   -2870    -2879    -2875    -2867    -2870    -2876    -2874    -2867 
   -2870    -2874    -2868    -2863    -2870    -2870    -2863    -2867 
   -2874    -2866    -2863    -2866    -2868    -2874    -2872    -2867 
   -2868    -2870    -2870    -2872    -2870    -2867    -2872    -2874 
   -2866    -2864    -2870    -2871    -2867    -2867    -2868    -2867 
   -2868    -2872    -2876    -2874    -2866    -2866    -2870    -2866 
   -2866    -2872    -2876    -2871    -2863    -2867    -2875    -2870 
   -2864    -2870    -2871    -2868    -2867    -2867    -2874    -2875 
   -2870    -2872    -2872    -2866    -2870    -2876    -2874    -2874 
   -2872    -2866    -2867    -2875    -2872    -2864    -2863    -2867 
   -2871    -2868    -2866    -2872    -2872    -2866    -2864    -2870 
   -2874    -2871    -2868    -2872    -2875    -2864    -2860    -2870 
   -2871    -2867    -2871    -2875    -2870    -2862    -2860    -2866 
   -2866    -2867    -2870    -2867    -2868    -2876    -2878    -2874 
   -2875    -2875    -2871    -2867    -2871    -2872    -2863    -2862 
   -2870    -2874    -2867    -2863    -2870    -2875    -2867    -2859 
   -2864    -2872    -2871    -2868    -2876    -2880    -2871    -2867 
   -2872    -2875    -2871    -2867    -2870    -2874    -2871    -2868 
   -2867    -2868    -2871    -2871    -2867    -2863    -2868    -2871 
   -2864    -2862    -2870    -2871    -2864    -2867    -2874    -2871 
   -2864    -2866    -2875    -2879    -2870    -2864    -2872    -2872 
   -2864    -2866    -2878    -2894    -2911    -2884    -2748    -2706 
   -3044    -3213    -2663    -2390    -3003    -3342    -2924    -2569 
   -2708    -3005    -2968    -2817    -3025    -2941    -2451    -3022 
   -3796    -2560    -1301    -2751    -4467    -3433    -1836    -2358 
   -3735    -3632    -1869    -1510    -3213    -3543    -3063    -3030 
   -2650    -3088    -3530    -3067    -2303    -1112    -1912    -4789 
   -4729    -2153    -2216    -3728    -2700    -1237    -2311    -3303 
   -3063    -4012    -4460    -1996     -515    -2690    -4305    -3508 
   -2454    -1919    -2678    -3526    -3021    -3372    -3847    -2238 
   -1228    -2502    -3693    -3253    -2673    -3244    -3709    -3234 
   -2174    -1640    -2687    -3461    -2878    -2855    -3055    -2752 
   -3557    -3802    -1946    -1601    -2840    -2879    -3136    -3338 
   -2517    -3091    -3623    -2358    -2556    -3397    -2509    -2695 
   -3238    -2170    -2801    -3904    -2768    -2673    -3092    -2254 
   -2862    -3748    -2941    -2011    -1672    -2762    -4179    -3531 
   -2790    -3411    -3038    -1443    -1583    -3150    -3377    -3341 
   -3628    -3107    -2967    -2597    -1674    -2560    -3746    -3357 
   -3094    -2913    -2574    -2840    -2695    -2218    -2579    -3013 
   -2898    -3304    -4070    -3222    -1597    -2100    -3303    -2732 
   -2277    -3424    -4302    -3276    -1779    -1837    -2691    -3136 
   -3127    -3087    -3373    -2956    -2189    -2891    -2998    -1424 
   -2667    -5661    -3673     -405    -3001    -5476    -2285     -132 
   -3006    -4594    -1791    -1063    -2787     2203    12403    11618 
  -11026   -39721   -33944    12962    36567     1094   -33023   -23498 
   -2521     6083     4423     1941     8930     7063    -6997    -6300 
    -180    -1579     2188     1162   -15720   -23738    -6358     7797 
    1115     -936     3549    -4546    -9609    -3496    -3589    -4754 
    1757     6226     3476    -3477    -6357    -2261    -1194    -6585 
  -11761   -10416    -3757     -828    -1135    -2733    -9383   -10960 
   -2118     5590     9742    14986    15566     5121    -7294   -14476 
  -20443   -19651   -10246    -4167    -4433    -6228    -4442      -24 
     298     2323     9809     9837    -1478   -10813    -8365    -1405 
   -2091    -7605    -6799     -635    -2281   -10872    -9899    -3092 
   -4280    -4692     3002     8268     6924     3859      425    -4395 
   -9220    -8989    -4203    -3478    -7699   -10328    -8303    -2994 
     325     1174     3038     1958    -2636    -2085     3362     3299 
   -3472    -8217    -9366   -10385    -8637    -3113      976      534 
   -3098    -5825    -3916     -122     1255     2038     1568    -3410 
   -6413    -2801     -670    -3597    -5028    -3399    -4951    -9622 
   -9536    -4811    -1698     -696     -904    -1921     -668     2255 
    2208      220     -765    -3361    -6806    -7042    -6581    -6974 
   -5080    -2157     -738     -351    -1285    -2405     -769     1429 
    -157    -3010    -3925    -4904    -6507    -6261    -3775    -3249 
   -6269    -6635    -2775     -897     -596     1297     2060      229 
   -2316    -2837    -1830    -2758    -4356    -5458    -7534    -8403 
   -7384    -4641      414     2097     -588    -1480     -990    -1000 
   -1405    -2701    -2643    -3350    -8095    -9104    -3249      654 
     715     -483    -3775    -5594    -3323    -1166    -1632    -3782 
   -5140    -3465    -1570    -2443    -2884      -64     1645    -1485 
   -4901    -5131    -5213    -5306    -2663     -433    -1935    -4804 
   -7221    -6388    -1173     1880      756    -1857    -5960    -6482 
   -1980      264     -221    -1377    -4526    -6621    -5471    -3414 
   -1471     -615    -2465    -4538    -4221    -3306    -1495     -349 
   -2971    -4098    -3580    -5416    -4857    -1996     -916    -1706 
   -3493    -2515      -90    -1111    -2458    -1129     -549    -3626 
   -7206    -6408    -3063    -1817    -3173    -4158    -3249    -2548 
   -1939    -1468    -3439    -4480    -2479    -2053    -3554    -2905 
     483     2122    -1512    -6048    -6640    -4396    -1570    -1271 
   -4533    -7479    -6559    -1348     2543      172    -2667    -2997 
   -4997    -5421    -3009    -3306    -2666     1617     1177    -5584 
   -9418    -4800     1784     1071    -4402    -6210    -4151    -3896 
   -4052     -774      303    -2326    -2397    -1537    -3781    -6118 
   -3820      784      -64    -5508    -7665    -4992    -1390     -388 
   -1289    -1771    -3662    -5422    -2698      210    -1401    -4360 
   -4461    -1768    -1115    -3127    -2681    -1377    -3681    -6812 
   -6590    -3528    -1117    -1497    -2548    -1962    -1435    -1952 
   -1728    -1553    -3662    -6709    -6496    -2064      803    -1298 
   -3295    -2787    -2911    -2825    -1451    -1884    -4513    -4707 
   -1552    -2308    -5903    -2671     1001    -3454    -6246    -3721 
   -2986    -3673    -3879    -2799    -1661    -3543    -2400     1568 
   -1644    -6552    -4950    -2249    -1919    -1830    -1945    -3716 
   -5274    -4799    -3982    -2268     -156     -284    -1391    -2914 
   -4206    -2813    -1078    -1636    -2965    -4045    -4607    -4399 
   -3190    -1339    -1136    -2667    -4118    -5198    -4936    -3510 
   -1621      230     -730    -2951    -3704    -4702    -3883     -834 
   -1030    -4372    -5246    -2511    -1745    -3496    -2384     -665 
   -2165    -4529    -4843    -2817    -2439    -3919    -2290    -1174 
   -4129    -4627    -2114    -2377    -4286    -3838    -1209     -255 
   -2619    -4550    -4043    -3149    -2581    -2475    -3431    -3096 
    -702     -843    -3815    -4858    -4129    -3619    -2558    -1390 
   -1721    -3451    -3977    -1817     -781    -2397    -2517    -2720 
   -5946    -5961    -1019      195    -3786    -4680    -1714    -1431 
   -3181    -3404    -3489    -3854    -3183    -1981    -2026    -3685 
   -4062    -2636    -2111    -1760     -760    -1740    -4621    -5024 
   -2187    -1085    -3229    -4546    -3353    -2272    -3330    -4610 
   -3368    -1559    -2435    -4158    -3719    -2092    -1791    -2987 
   -3192    -2257    -2462    -3303    -3689    -3723    -2955    -1809 
   -2328    -4425    -3920     -537     -221    -3481    -3925     -594 
    -184    -3659    -4617    -3557    -4135    -3825    -2236    -1850 
   -2479    -3758    -4450    -3507    -2744    -2627    -2215    -2277 
   -2655    -2574    -3003    -3283    -2778    -3115    -2824    -1482 
   -2579    -4553    -3915    -2693    -2828    -2747    -1927    -2187 
   -3438    -3264    -2031    -2384    -3866    -3870    -2820    -2844 
   -3468    -2903    -1395    -1607    -3909    -4615    -3105    -2647 
   -2979    -2015    -1560    -2968    -3645    -2374    -1630    -2606 
   -3280    -3078    -3666    -4243    -2841    -1854    -3755    -4595 
   -2066     -855    -2473    -3665    -3732    -3204    -2539    -2199 
   -1827    -2428    -3473    -2937    -2697    -3631    -3384    -2238 
   -1653    -2049    -3276    -3983    -3769    -3289    -2579    -1791 
   -1719    -2828    -3746    -3476    -3079    -2791    -2265    -2266 
   -3021    -3665    -3528    -2830    -2724    -3321    -2999    -2556 
   -3730    -3970    -2380    -2303    -3125    -2587    -2407    -3252 
   -3338    -2548    -2030    -2269    -3127    -3716    -3321    -2195 
   -1004    -1509    -3726    -4357    -2875    -2002    -2835    -4050 
   -3503    -2061    -2623    -3781    -2798    -1617    -2193    -3080 
