Origin Time       2025/02/01 08:16:00
Lat.              33.667
Long.             130.927
Depth. (km)       8
Mag.              3.1
Station Code      FKO004
Station Lat.      33.7366
Station Long.     131.0121
Station Height(m) 3
Record Time       2025/02/01 08:17:01
Sampling Freq(Hz) 100Hz
Duration Time(s)  60
Dir.              E-W
Scale Factor      7845(gal)/8223790
Max. Acc. (gal)   27.239
Last Correction   2025/02/01 08:17:01
Memo.             
   -4168    -4168    -4170    -4175    -4175    -4172    -4174    -4175 
   -4171    -4167    -4174    -4175    -4167    -4168    -4176    -4171 
   -4163    -4166    -4176    -4174    -4164    -4168    -4175    -4174 
   -4174    -4175    -4176    -4176    -4171    -4170    -4174    -4172 
   -4171    -4174    -4175    -4171    -4172    -4175    -4170    -4168 
   -4174    -4176    -4175    -4174    -4175    -4171    -4163    -4166 
   -4174    -4168    -4164    -4174    -4176    -4170    -4170    -4176 
   -4174    -4167    -4168    -4172    -4171    -4170    -4172    -4172 
   -4172    -4174    -4175    -4175    -4172    -4168    -4171    -4175 
   -4172    -4167    -4170    -4174    -4171    -4174    -4180    -4174 
   -4163    -4168    -4174    -4170    -4166    -4171    -4175    -4168 
   -4168    -4178    -4178    -4172    -4174    -4178    -4172    -4166 
   -4174    -4180    -4172    -4164    -4171    -4175    -4168    -4164 
   -4166    -4168    -4166    -4166    -4174    -4171    -4160    -4167 
   -4182    -4178    -4164    -4168    -4183    -4178    -4166    -4174 
   -4180    -4171    -4171    -4185    -4178    -4163    -4171    -4179 
   -4166    -4163    -4174    -4172    -4167    -4168    -4175    -4178 
   -4175    -4175    -4175    -4168    -4166    -4172    -4178    -4174 
   -4166    -4172    -4180    -4175    -4167    -4172    -4176    -4168 
   -4164    -4172    -4176    -4170    -4167    -4176    -4182    -4174 
   -4171    -4175    -4171    -4168    -4171    -4171    -4168    -4170 
   -4174    -4171    -4170    -4174    -4178    -4172    -4164    -4170 
   -4175    -4171    -4172    -4178    -4178    -4178    -4172    -4171 
   -4178    -4172    -4164    -4172    -4176    -4168    -4166    -4172 
   -4172    -4166    -4168    -4178    -4176    -4166    -4168    -4176 
   -4172    -4172    -4176    -4170    -4164    -4174    -4175    -4167 
   -4171    -4182    -4179    -4168    -4171    -4175    -4170    -4171 
   -4176    -4176    -4174    -4176    -4176    -4175    -4175    -4168 
   -4167    -4175    -4174    -4162    -4166    -4178    -4175    -4174 
   -4176    -4176    -4176    -4175    -4172    -4172    -4172    -4170 
   -4168    -4167    -4167    -4171    -4170    -4167    -4175    -4180 
   -4171    -4167    -4180    -4179    -4163    -4168    -4179    -4176 
   -4170    -4170    -4172    -4171    -4167    -4167    -4170    -4172 
   -4171    -4168    -4174    -4172    -4166    -4174    -4178    -4175 
   -4175    -4176    -4172    -4171    -4178    -4180    -4175    -4175 
   -4182    -4180    -4170    -4168    -4179    -4179    -4167    -4164 
   -4175    -4175    -4167    -4171    -4175    -4167    -4166    -4172 
   -4171    -4170    -4171    -4175    -4178    -4175    -4171    -4175 
   -4178    -4171    -4171    -4174    -4171    -4171    -4174    -4172 
   -4170    -4171    -4174    -4174    -4168    -4168    -4175    -4172 
   -4162    -4166    -4178    -4172    -4163    -4170    -4178    -4168 
   -4163    -4176    -4179    -4170    -4174    -4186    -4180    -4172 
   -4172    -4176    -4178    -4174    -4168    -4170    -4168    -4162 
   -4163    -4174    -4175    -4172    -4180    -4185    -4174    -4170 
   -4176    -4172    -4160    -4162    -4172    -4171    -4164    -4175 
   -4180    -4168    -4166    -4179    -4183    -4171    -4167    -4176 
   -4179    -4170    -4168    -4172    -4172    -4170    -4174    -4175 
   -4174    -4172    -4174    -4176    -4172    -4166    -4171    -4176 
   -4170    -4168    -4178    -4178    -4168    -4172    -4178    -4171 
   -4166    -4174    -4180    -4176    -4175    -4178    -4176    -4170 
   -4164    -4168    -4175    -4171    -4171    -4178    -4172    -4171 
   -4180    -4179    -4172    -4172    -4172    -4171    -4171    -4170 
   -4171    -4175    -4176    -4172    -4175    -4178    -4170    -4170 
   -4178    -4174    -4168    -4176    -4179    -4171    -4167    -4174 
   -4172    -4164    -4168    -4175    -4171    -4166    -4168    -4171 
   -4170    -4171    -4174    -4175    -4174    -4175    -4175    -4168 
   -4167    -4171    -4168    -4164    -4170    -4178    -4171    -4168 
   -4176    -4176    -4171    -4172    -4172    -4172    -4172    -4170 
   -4171    -4175    -4172    -4167    -4166    -4170    -4171    -4174 
   -4178    -4175    -4172    -4176    -4178    -4176    -4176    -4172 
   -4170    -4172    -4172    -4170    -4167    -4166    -4174    -4180 
   -4171    -4160    -4167    -4172    -4167    -4167    -4172    -4175 
   -4172    -4170    -4172    -4174    -4170    -4168    -4175    -4178 
   -4171    -4168    -4178    -4180    -4171    -4170    -4178    -4170 
   -4164    -4175    -4172    -4166    -4175    -4185    -4175    -4164 
   -4172    -4179    -4168    -4163    -4172    -4175    -4168    -4167 
   -4179    -4175    -4164    -4171    -4182    -4178    -4168    -4168 
   -4172    -4170    -4168    -4174    -4180    -4178    -4171    -4171 
   -4176    -4172    -4168    -4172    -4174    -4170    -4172    -4176 
   -4172    -4170    -4175    -4176    -4171    -4168    -4172    -4172 
   -4163    -4162    -4174    -4175    -4168    -4174    -4180    -4170 
   -4159    -4170    -4180    -4174    -4166    -4170    -4175    -4174 
   -4171    -4174    -4180    -4179    -4172    -4172    -4175    -4168 
   -4164    -4176    -4176    -4164    -4172    -4180    -4168    -4164 
   -4174    -4172    -4168    -4176    -4180    -4170    -4168    -4178 
   -4179    -4174    -4171    -4172    -4174    -4172    -4170    -4174 
   -4174    -4170    -4171    -4175    -4178    -4172    -4170    -4176 
   -4176    -4168    -4167    -4172    -4172    -4171    -4171    -4171 
   -4171    -4170    -4171    -4172    -4168    -4168    -4175    -4174 
   -4171    -4176    -4179    -4172    -4172    -4175    -4171    -4166 
   -4170    -4176    -4174    -4168    -4172    -4180    -4178    -4170 
   -4174    -4178    -4174    -4171    -4171    -4171    -4174    -4172 
   -4168    -4172    -4176    -4172    -4171    -4172    -4171    -4170 
   -4171    -4175    -4172    -4174    -4176    -4171    -4172    -4182 
   -4176    -4167    -4174    -4179    -4167    -4164    -4174    -4172 
   -4167    -4174    -4179    -4175    -4172    -4174    -4174    -4170 
   -4168    -4170    -4167    -4168    -4174    -4174    -4171    -4171 
   -4175    -4175    -4174    -4172    -4174    -4171    -4170    -4168 
   -4168    -4175    -4174    -4171    -4178    -4176    -4163    -4163 
   -4172    -4170    -4166    -4172    -4179    -4174    -4170    -4174 
   -4175    -4168    -4167    -4175    -4174    -4167    -4171    -4178 
   -4175    -4172    -4175    -4176    -4174    -4171    -4172    -4174 
   -4170    -4170    -4176    -4178    -4170    -4168    -4176    -4178 
   -4168    -4166    -4175    -4178    -4168    -4168    -4176    -4170 
   -4166    -4178    -4179    -4168    -4170    -4176    -4172    -4167 
   -4170    -4171    -4172    -4170    -4172    -4180    -4176    -4168 
   -4174    -4175    -4166    -4167    -4176    -4176    -4167    -4167 
   -4178    -4178    -4168    -4172    -4179    -4176    -4172    -4170 
   -4171    -4174    -4170    -4168    -4171    -4167    -4167    -4176 
   -4176    -4170    -4172    -4178    -4172    -4167    -4175    -4176 
   -4167    -4168    -4176    -4175    -4171    -4171    -4179    -4179 
   -4170    -4170    -4176    -4175    -4170    -4171    -4176    -4170 
   -4160    -4166    -4174    -4168    -4166    -4171    -4175    -4174 
   -4171    -4175    -4180    -4176    -4170    -4174    -4176    -4175 
   -4176    -4171    -4163    -4168    -4178    -4175    -4171    -4176 
   -4178    -4171    -4171    -4174    -4174    -4171    -4168    -4171 
   -4174    -4168    -4166    -4174    -4176    -4168    -4163    -4171 
   -4175    -4167    -4164    -4170    -4176    -4179    -4178    -4176 
   -4176    -4174    -4171    -4172    -4170    -4170    -4175    -4174 
   -4171    -4176    -4178    -4167    -4170    -4182    -4176    -4167 
   -4171    -4176    -4172    -4171    -4172    -4176    -4175    -4168 
   -4164    -4171    -4174    -4171    -4175    -4176    -4174    -4171 
   -4174    -4179    -4172    -4166    -4168    -4171    -4171    -4172 
   -4171    -4170    -4171    -4175    -4175    -4168    -4171    -4182 
   -4178    -4167    -4174    -4183    -4167    -4159    -4174    -4176 
   -4166    -4164    -4172    -4174    -4170    -4170    -4171    -4171 
   -4172    -4171    -4175    -4179    -4172    -4172    -4179    -4178 
   -4175    -4176    -4172    -4172    -4178    -4174    -4166    -4168 
   -4176    -4176    -4171    -4168    -4172    -4176    -4168    -4160 
   -4170    -4178    -4168    -4170    -4183    -4175    -4164    -4171 
   -4175    -4166    -4163    -4168    -4172    -4170    -4167    -4166 
   -4174    -4178    -4172    -4171    -4176    -4171    -4168    -4175 
   -4176    -4171    -4172    -4176    -4176    -4170    -4170    -4175 
   -4170    -4164    -4171    -4175    -4166    -4167    -4180    -4174 
   -4163    -4174    -4183    -4174    -4170    -4179    -4180    -4172 
   -4171    -4174    -4174    -4170    -4171    -4176    -4174    -4167 
   -4167    -4172    -4171    -4163    -4166    -4176    -4175    -4175 
   -4180    -4175    -4167    -4170    -4172    -4166    -4163    -4170 
   -4174    -4171    -4164    -4167    -4178    -4175    -4168    -4174 
   -4176    -4170    -4174    -4182    -4179    -4171    -4175    -4179 
   -4171    -4167    -4172    -4172    -4170    -4172    -4174    -4174 
   -4168    -4166    -4174    -4178    -4171    -4171    -4176    -4174 
   -4164    -4166    -4176    -4175    -4168    -4174    -4178    -4171 
   -4168    -4175    -4174    -4167    -4172    -4178    -4171    -4167 
   -4176    -4175    -4168    -4172    -4179    -4174    -4168    -4172 
   -4174    -4170    -4168    -4174    -4174    -4168    -4166    -4170 
   -4175    -4171    -4166    -4172    -4178    -4172    -4170    -4171 
   -4171    -4170    -4171    -4176    -4178    -4170    -4171    -4174 
   -4171    -4170    -4172    -4175    -4171    -4168    -4176    -4175 
   -4168    -4176    -4178    -4166    -4166    -4176    -4178    -4170 
   -4167    -4172    -4170    -4168    -4167    -4164    -4170    -4168 
   -4167    -4175    -4175    -4168    -4176    -4185    -4180    -4174 
   -4174    -4179    -4174    -4167    -4174    -4176    -4170    -4172 
   -4174    -4167    -4168    -4178    -4176    -4164    -4166    -4176 
   -4172    -4162    -4170    -4180    -4174    -4167    -4174    -4176 
   -4166    -4166    -4172    -4172    -4168    -4166    -4170    -4176 
   -4171    -4164    -4174    -4178    -4174    -4174    -4176    -4175 
   -4174    -4171    -4171    -4174    -4175    -4178    -4179    -4171 
   -4167    -4171    -4168    -4162    -4167    -4174    -4171    -4167 
   -4176    -4182    -4171    -4166    -4180    -4185    -4171    -4170 
   -4179    -4178    -4167    -4167    -4174    -4178    -4174    -4167 
   -4171    -4171    -4162    -4164    -4174    -4172    -4170    -4175 
   -4178    -4172    -4171    -4174    -4174    -4172    -4174    -4172 
   -4167    -4164    -4175    -4176    -4163    -4166    -4182    -4180 
   -4170    -4171    -4179    -4176    -4168    -4170    -4174    -4171 
   -4168    -4174    -4179    -4174    -4167    -4170    -4178    -4179 
   -4174    -4175    -4176    -4172    -4168    -4166    -4166    -4170 
   -4172    -4174    -4171    -4168    -4174    -4178    -4171    -4170 
   -4178    -4175    -4168    -4174    -4176    -4166    -4162    -4175 
   -4178    -4168    -4167    -4172    -4175    -4174    -4172    -4174 
   -4175    -4172    -4168    -4168    -4172    -4170    -4168    -4175 
   -4174    -4168    -4170    -4170    -4167    -4168    -4171    -4172 
   -4170    -4168    -4175    -4166    -4167    -4241    -4272    -3996 
   -3780    -4378    -4927    -4010    -3233    -4363    -4980    -3910 
   -3747    -4434    -4388    -3906    -3900    -4583    -4522    -4143 
   -4243    -3356    -2712    -4460    -6408    -5070    -2620    -3084 
   -4954    -5422    -3639    -2367    -4891    -6413    -3341    -1626 
   -4569    -6404    -3712    -2710    -5293    -5287    -3257    -3168 
   -4298    -4793    -4607    -4806    -4009    -2511    -3530    -5270 
   -4602    -3686    -4843    -5382    -3169    -1840    -4290    -6617 
   -4876    -2494    -3396    -5198    -4585    -3002    -3921    -5734 
   -4511    -2713    -4040    -5402    -4071    -3171    -4189    -4907 
   -4595    -3991    -3730    -3753    -3777    -4471    -5225    -4345 
   -3038    -3555    -4862    -4783    -4023    -4345    -4814    -3847 
   -2654    -3287    -5323    -5425    -3287    -3576    -5370    -4519 
   -3848    -4564    -3893    -3484    -4171    -4183    -4220    -4341 
   -3943    -3879    -4266    -4426    -4282    -4299    -4229    -4029 
   -4266    -4178    -3920    -4352    -4126    -3531    -4618    -5346 
   -3624    -2835    -4527    -5081    -3751    -3538    -5016    -5580 
   -3495    -2172    -4627    -5653    -2870    -3083    -6289    -5443 
   -2655    -3792    -5772    -3821    -1424    -2974    -5578    -5574 
   -3996    -4186    -5725    -4361    -2419    -3802    -4860    -4410 
   -4097    -3318    -4133    -5620    -3979    -3102    -5503    -5575 
   -2613    -2739    -5788    -4814    -1244    -2600    -5755    -5294 
   -4074    -4116    -5231    -4927    -3416    -8904   -18200   -17041 
      37    23037    24382    -3140   -17230     -939     -648   -22684 
  -18624     2767      433    -9298    -3387    -1239    -6355     1602 
    6525   -10899   -19373    -6658    -2133    -2185     4363     1728 
   -6184    -5980    -3615    -6380   -11784   -11117     -981     7944 
    5208    -5216   -13320   -11342    -4533    -4742    -3821     1437 
   -2241    -8573    -6551     -877      576    -3704    -3133     1042 
   -4614   -10681    -9537   -10581   -10251    -5255    -1784    -1262 
   -2654     -390     4811     3852     -415    -4398   -10139   -13158 
  -10704    -6475    -4828    -3753     1115     4175     1282    -3705 
   -8419    -9656    -9163   -10303    -5675     3276     5016     1089 
   -2623    -4318    -5104    -9599   -11817    -6366    -4133    -6964 
   -4067     2731     2155    -4446    -6570    -5984    -8538    -9235 
   -4399     -314    -2984    -6585    -2647     1949    -1827    -5674 
   -3634    -3191    -5189    -6034    -6021    -4261    -3639    -4720 
   -2519    -1008    -3840    -7114   -10201   -11263    -8824    -4968 
     421     2878     -294    -2297    -2131    -2782    -2709    -1850 
   -1579    -4538   -10328   -12386    -8803    -4104    -2623    -2698 
    -372      151    -2327    -1331      719    -2930    -7816    -6713 
   -5664   -10540   -12033    -6505    -1988     -653    -1167    -2346 
   -2959    -4008    -4128    -3364    -4369    -4469    -3175    -4313 
   -5252    -3433    -2408    -4491    -6772    -6210    -6122    -7337 
   -4781    -1688    -4473    -6419    -1518     1163    -2303    -4004 
   -3392    -4426    -5537    -6303    -5867    -2745    -2016    -5012 
   -6292    -6307    -7697    -8001    -4306     1206     2320    -1146 
   -3402    -3831    -3141    -2061    -3939    -5922    -6432    -8622 
   -8067    -3369    -1819    -3951    -3909    -2241    -3345    -4635 
   -3434    -2976    -4679    -6874    -7003    -5193    -4355    -4399 
   -4202    -3684    -2880    -3017    -4136    -5042    -4963    -3863 
   -3970    -5196    -4969    -4257    -3819    -3007    -3277    -4191 
   -3636    -2212    -1825    -3289    -4014    -3350    -5881    -9065 
   -6813    -3734    -4460    -4263    -1753    -2505    -5842    -5439 
   -3007    -3122    -3450    -3661    -4820    -3762    -2457    -3555 
   -3728    -3387    -3828    -5062    -8195    -7429    -1722     -866 
   -5228    -8117    -6187    -1063    -1777    -7284    -6516    -2016 
    -679    -1497    -3955    -6519    -5552    -2367    -1803    -4549 
   -6874    -6612    -5606    -5971    -5621    -3815    -3942    -4537 
   -3330    -3079    -3154    -2492    -3157    -3543    -2783    -2162 
   -2370    -6203    -9437    -5100      257     -770    -4627    -6203 
   -5097    -4368    -4872    -4564    -3983    -4691    -5003    -4079 
   -4965    -7196    -5954    -2089     -665    -2057    -3792    -5162 
   -5733    -5112    -4615    -4380    -2837    -1237    -2097    -4429 
   -5715    -5844    -5832    -5603    -4453    -3483    -4981    -5944 
   -2830     -851    -3176    -4108    -2988    -4963    -6963    -4206 
   -2400    -5927    -7807    -2887     1023    -4036    -9779    -5194 
    1958       70    -5926    -7210    -5536    -4954    -2990     -604 
   -3537    -7329    -5340    -1803    -2168    -5400    -6619    -4891 
   -4131    -4554    -4584    -4680    -4833    -5074    -4784    -3716 
   -3133    -2943    -3786    -5443    -4872    -2779    -1706    -2407 
   -4614    -5339    -4071    -4453    -6709    -6633    -3603    -2658 
   -3878    -3527    -3453    -4198    -3685    -3346    -3348    -3677 
   -5344    -5926    -5239    -4868    -3445    -2425    -4176    -6330 
   -5775    -2886    -1125    -2269    -4002    -4689    -4684    -4359 
   -4117    -4056    -4615    -5125    -4145    -3087    -3886    -5652 
   -5922    -4615    -3682    -3333    -4556    -6551    -4943    -1900 
   -2589    -4727    -4924    -4282    -3962    -3318    -2678    -3368 
   -4958    -5695    -4980    -3846    -3441    -4234    -5305    -4565 
   -2628    -2876    -5543    -6454    -4137    -2315    -2916    -3829 
   -4122    -4988    -5390    -4328    -3958    -4186    -4102    -4598 
   -3817    -2046    -2758    -4972    -5976    -5462    -4606    -3676 
   -2363    -2342    -3601    -4996    -6343    -5348    -2147    -1343 
   -4097    -5942    -4905    -4504    -4639    -2916    -3072    -5883 
   -6085    -4455    -4482    -4904    -4275    -3470    -4048    -4874 
   -3774    -3213    -4338    -3829    -3129    -5015    -5699    -3771 
   -3338    -4681    -4226    -2403    -3345    -5620    -4695    -3402 
   -4995    -5251    -2268    -1260    -4457    -6895    -5834    -4518 
   -4167    -2947    -2386    -4347    -5451    -3932    -3470    -4704 
   -4731    -3420    -2845    -4168    -4874    -3507    -4133    -6203 
   -5063    -3157    -3850    -5066    -4608    -3277    -3088    -3622 
   -3871    -4857    -5574    -4309    -3141    -4129    -5159    -3647 
   -2330    -4433    -6069    -4779    -4282    -4446    -3408    -3453 
   -4973    -5371    -3924    -3006    -3711    -3562    -2810    -4033 
   -5582    -5077    -3936    -4330    -5301    -4465    -3015    -3114 
   -3981    -4753    -4610    -3392    -3146    -4190    -5127    -5347 
   -4395    -3434    -3720    -4043    -4248    -4884    -4905    -4536 
   -4521    -4276    -3492    -3144    -4209    -4876    -3735    -3144 
   -3978    -4588    -4406    -3720    -3636    -4661    -5157    -4276 
   -3268    -3262    -3852    -4251    -4494    -4569    -4600    -4837 
   -5022    -4819    -4229    -4283    -4823    -4108    -3435    -3905 
   -3523    -3219    -4078    -3991    -3505    -4272    -4942    -4348 
   -4014    -4887    -4914    -3828    -3889    -4279    -3474    -2987 
   -3500    -3937    -4309    -4719    -4766    -4434    -3906    -4272 
   -5333    -5043    -3792    -2987    -3083    -4550    -5931    -5481 
